{"type":"FeatureCollection","features":[{"type":"Feature","properties":{"name":"Hiking","time":"2026-03-21T09:34:43Z"},"geometry":{"type":"LineString","coordinates":[[-2.27884554,55.39003573,369],[-2.27870085,55.39013636,368],[-2.27872658,55.39015021,367],[-2.27920523,55.39019627,368],[-2.2792762,55.3902166,368],[-2.27956447,55.39033261,365],[-2.27963719,55.39035358,364],[-2.28011158,55.39062509,369],[-2.28016617,55.39065507,370],[-2.28042266,55.39069448,371],[-2.28049806,55.3907115,370],[-2.2811932,55.39093649,375],[-2.28126306,55.39095498,374],[-2.28199536,55.39098534,372],[-2.28208989,55.39097588,372],[-2.2822402,55.39102998,370],[-2.28229561,55.39106811,372],[-2.28358021,55.39113434,370],[-2.28367322,55.39114479,370],[-2.28458997,55.39135196,371],[-2.28465852,55.39138536,373],[-2.28523461,55.39145858,377],[-2.28531657,55.39147169,376],[-2.28606829,55.3914662,377],[-2.28614311,55.39148136,378],[-2.28684049,55.39175255,374],[-2.2868866,55.39177696,374],[-2.28752001,55.39193099,376],[-2.28758946,55.39194474,378],[-2.28801249,55.3919552,378],[-2.28810047,55.39196927,379],[-2.28881552,55.39225521,374],[-2.28888747,55.39229561,373],[-2.28991751,55.39260752,376],[-2.28997464,55.39264602,377],[-2.29013865,55.39260354,383],[-2.29021705,55.39257457,384],[-2.2900369,55.39264196,381],[-2.28999651,55.39265053,382],[-2.29000235,55.39262982,383],[-2.29000653,55.39260796,383],[-2.29001531,55.39264369,382],[-2.2900246,55.39265338,382],[-2.2910187,55.39278955,376],[-2.29108195,55.3928017,375],[-2.29146338,55.39296844,375],[-2.29153804,55.39299469,375],[-2.29167867,55.39318177,378],[-2.29174705,55.39321466,378],[-2.29215905,55.39324268,381],[-2.29223827,55.39325091,382],[-2.29284665,55.39319303,383],[-2.29291365,55.3931918,383],[-2.29330115,55.39308459,383],[-2.29338345,55.3930589,384],[-2.29404788,55.39296633,384],[-2.29413539,55.39295286,385],[-2.29456539,55.39298165,386],[-2.29464937,55.39299217,386],[-2.29566764,55.39288381,383],[-2.29575463,55.39287138,383],[-2.29850847,55.39292255,390],[-2.29860291,55.39292935,390],[-2.2991538,55.39304653,395],[-2.29921854,55.3930658,397],[-2.29951756,55.39306385,396],[-2.29954406,55.39306688,397],[-2.29975626,55.39317032,396],[-2.29983064,55.39318813,396],[-2.30025462,55.39318477,395],[-2.30034717,55.39319564,396],[-2.30126017,55.39339169,396],[-2.30136878,55.39343643,396],[-2.30196979,55.39350669,394],[-2.30207096,55.39351909,394],[-2.30237818,55.39368488,397],[-2.30245265,55.39371107,396],[-2.30294204,55.39378859,393],[-2.30302638,55.39380785,393],[-2.30330286,55.3939275,392],[-2.30337267,55.39395618,392],[-2.3037753,55.39405149,388],[-2.30386166,55.39408169,386],[-2.30432213,55.39433209,387],[-2.30434344,55.3943793,395],[-2.30501797,55.39469093,400],[-2.3049839,55.39474162,402],[-2.30506516,55.39469425,397],[-2.30513796,55.39470687,396],[-2.30513172,55.39481973,395],[-2.30518745,55.39484149,397],[-2.30528745,55.39479896,398],[-2.30532244,55.39476383,397],[-2.30533312,55.39468118,399],[-2.30533214,55.39467385,398],[-2.30575838,55.3946476,399],[-2.30582561,55.39465434,400],[-2.30585364,55.39460645,400],[-2.3057927,55.39456457,400],[-2.30570277,55.3945461,401],[-2.30581002,55.39452245,400],[-2.30584196,55.39451054,399],[-2.30627111,55.39459326,395],[-2.30632469,55.39459713,394],[-2.30725332,55.39446091,394],[-2.30731961,55.39445529,395],[-2.30758877,55.39431251,395],[-2.30762349,55.39428907,396],[-2.30800587,55.39420936,395],[-2.30805002,55.39419173,394],[-2.30833636,55.39396455,392],[-2.3083871,55.39394339,392],[-2.30936689,55.39368802,392],[-2.30944312,55.39366369,392],[-2.31084274,55.39343573,408],[-2.31085534,55.393434,408],[-2.31086395,55.39342833,407],[-2.31089531,55.39338936,407],[-2.31085572,55.3933612,407],[-2.31084642,55.39333669,406],[-2.31111291,55.39334813,409],[-2.31118967,55.39333764,410],[-2.3113619,55.39323292,414],[-2.3114292,55.39322666,416],[-2.31151143,55.39330812,417],[-2.31155558,55.39331187,419],[-2.31207908,55.39321653,422],[-2.31210941,55.39321284,422],[-2.31234501,55.39321881,421],[-2.31236696,55.39321671,423],[-2.31238844,55.39327973,423],[-2.31243283,55.39331375,424],[-2.31286577,55.39327944,430],[-2.31288247,55.39328482,429],[-2.31345112,55.39310313,426],[-2.31349004,55.39307011,427],[-2.31358799,55.39310674,423],[-2.31360642,55.3931106,423],[-2.31494399,55.39291053,431],[-2.31501792,55.39291278,432],[-2.31557154,55.39280085,428],[-2.31562808,55.39279477,429],[-2.31568031,55.39272526,429],[-2.31569791,55.39270717,430],[-2.31564133,55.39279114,430],[-2.31572013,55.39285421,430],[-2.31645412,55.39311885,439],[-2.31649808,55.39313444,439],[-2.31670819,55.3933982,448],[-2.3167335,55.39342394,447],[-2.31680605,55.39359312,445],[-2.31682546,55.39362795,445],[-2.31716763,55.39388562,456],[-2.31714328,55.39389225,456],[-2.31729341,55.39395049,453],[-2.3173552,55.39397866,454],[-2.3175466,55.39399132,453],[-2.31755501,55.39398016,452],[-2.31760573,55.39404884,451],[-2.3175646,55.39404966,452],[-2.31762202,55.3940672,452],[-2.31767435,55.39407933,454],[-2.31763801,55.3940908,451],[-2.31763081,55.39409475,452],[-2.31768922,55.3940756,451],[-2.31775767,55.39407544,452],[-2.31778984,55.39402009,451],[-2.31779091,55.39400598,449],[-2.31761409,55.39393125,450],[-2.31756502,55.39392158,451],[-2.31761689,55.39399287,453],[-2.31762461,55.39401682,455],[-2.31755994,55.3939584,454],[-2.31756134,55.39395596,454],[-2.31744034,55.39401898,456],[-2.31742359,55.39400874,455],[-2.31748074,55.39399726,458],[-2.31747591,55.39399038,457],[-2.31761634,55.39412481,455],[-2.3175878,55.39412949,453],[-2.31760422,55.39411801,452],[-2.31759819,55.39409127,454],[-2.31778609,55.39414554,451],[-2.31778769,55.39416473,447],[-2.31817026,55.39414552,448],[-2.31828732,55.39416196,448],[-2.31855878,55.39426766,449],[-2.31862505,55.3942934,450],[-2.3196045,55.39453611,454],[-2.31967715,55.39455326,454],[-2.32109745,55.39471939,462],[-2.32113033,55.39474824,464],[-2.321137,55.39476008,464],[-2.32107396,55.39472805,461],[-2.32093745,55.3950363,464],[-2.32091931,55.39506446,463],[-2.32099293,55.39557325,474],[-2.32099471,55.39561514,474],[-2.32125976,55.39612328,481],[-2.32130835,55.39616002,482],[-2.32163984,55.396959,480],[-2.32164545,55.39701037,480],[-2.3218111,55.39721934,477],[-2.32185098,55.39726879,478],[-2.32209632,55.39775943,483],[-2.32210478,55.39780029,483],[-2.32227551,55.39804511,485],[-2.32230576,55.39807953,486],[-2.32259212,55.39826339,488],[-2.32263734,55.39830424,487],[-2.32288833,55.39868568,484],[-2.32291328,55.39872443,485],[-2.32286356,55.39875628,488],[-2.32281918,55.39898945,490],[-2.32284497,55.39902104,492],[-2.32278411,55.39906693,491],[-2.32273336,55.39909636,490],[-2.32273534,55.3996359,495],[-2.32274262,55.3996771,494],[-2.3231095,55.39974048,489],[-2.32318117,55.39975902,488],[-2.32425451,55.40010763,481],[-2.32432548,55.40013967,480],[-2.32475167,55.40022092,476],[-2.32481929,55.40023711,476],[-2.32526001,55.40042157,475],[-2.32531913,55.40044948,475],[-2.325893,55.40061332,473],[-2.32595727,55.40063651,474],[-2.32790797,55.40104156,485],[-2.32787175,55.40100532,486],[-2.32874363,55.40125575,480],[-2.32881477,55.40128286,481],[-2.32915144,55.40132885,480],[-2.32923161,55.4013413,482],[-2.3297093,55.40165014,488],[-2.32976106,55.40168753,489],[-2.32998706,55.40175531,489],[-2.33004776,55.40177553,488],[-2.33071938,55.40218446,493],[-2.33070335,55.40223191,493],[-2.33074834,55.4021978,496],[-2.3307583,55.40221738,498],[-2.33025529,55.40248222,499],[-2.33019685,55.40251304,500],[-2.32990439,55.40258094,500],[-2.32983223,55.40259227,499],[-2.32943004,55.40285848,496],[-2.32937684,55.40288896,495],[-2.32902824,55.40301789,494],[-2.32898017,55.40305428,493],[-2.32845638,55.40312915,494],[-2.32839023,55.40315207,494],[-2.32832562,55.40327462,492],[-2.32829954,55.40330483,492],[-2.32748499,55.40367979,488],[-2.32741396,55.40370487,489],[-2.32735839,55.40389559,488],[-2.32736362,55.40393921,489],[-2.32701289,55.40425939,484],[-2.32696359,55.40430852,484],[-2.32643104,55.40503868,482],[-2.32637996,55.40508105,483],[-2.32575956,55.40524664,480],[-2.32584316,55.40526917,480],[-2.3257636,55.40521736,475],[-2.32582084,55.40519265,476],[-2.32574794,55.40517938,472],[-2.32576151,55.40516874,478],[-2.32568448,55.40531811,475],[-2.32564553,55.40535841,474],[-2.325452,55.40541579,473],[-2.3253887,55.40544013,473],[-2.32515158,55.40569652,479],[-2.32509686,55.40573466,480],[-2.32458361,55.4059695,477],[-2.32452758,55.40600477,477],[-2.32423726,55.40608757,478],[-2.32417269,55.40611246,479],[-2.32398027,55.40628966,480],[-2.32392454,55.40631662,479],[-2.32318012,55.40654374,479],[-2.32309866,55.40656678,479],[-2.32284113,55.40658862,479],[-2.32276063,55.40658707,479],[-2.32267859,55.4066373,485],[-2.32267455,55.40663804,485],[-2.32269018,55.40658915,482],[-2.32269381,55.40658354,482],[-2.32247346,55.40667059,480],[-2.32240348,55.40670878,481],[-2.32201415,55.40707058,487],[-2.32198933,55.40711921,487],[-2.32202863,55.40724531,488],[-2.32204096,55.40728224,489],[-2.32223618,55.40756056,492],[-2.32222266,55.40759005,494],[-2.32222786,55.4075326,489],[-2.3222078,55.40753276,489],[-2.32230673,55.40755688,489],[-2.32234286,55.4075585,491],[-2.32220839,55.40752965,481],[-2.3222223,55.40751054,483],[-2.32227168,55.40753535,485],[-2.32228232,55.40754389,484],[-2.32223838,55.40754163,488],[-2.32214881,55.40755094,488],[-2.32145316,55.40788408,490],[-2.3213925,55.40792899,489],[-2.32116234,55.40798299,485],[-2.32112488,55.40801228,485],[-2.32097605,55.4080019,486],[-2.32098088,55.40799923,486],[-2.32064346,55.40823509,481],[-2.32068954,55.40823658,480],[-2.32061272,55.40817223,479],[-2.32055819,55.40813904,480],[-2.31957347,55.40790495,483],[-2.31956812,55.40792069,484],[-2.31961411,55.40788989,484],[-2.31871468,55.40767216,492],[-2.31866517,55.40765853,492],[-2.31767974,55.40732635,499],[-2.31759332,55.40730652,499],[-2.31726881,55.40733496,501],[-2.31719244,55.40733705,501],[-2.3164823,55.40725638,503],[-2.31640599,55.40724938,503],[-2.313977,55.40677039,512],[-2.31386414,55.40674957,512],[-2.31334271,55.40673152,513],[-2.31329938,55.40672885,514],[-2.31326346,55.40675486,514],[-2.31317639,55.40679073,514],[-2.3126265,55.40739883,506],[-2.31258847,55.40744293,507],[-2.31218986,55.40774715,503],[-2.31215599,55.40777674,502],[-2.31174516,55.40843737,501],[-2.31170725,55.40848078,501],[-2.31131037,55.40869574,498],[-2.31123813,55.40872542,497],[-2.31111271,55.4088488,496],[-2.31101147,55.40895335,496],[-2.31100845,55.40911383,497],[-2.31099875,55.40916441,497],[-2.3107699,55.40962916,496],[-2.31073237,55.40968026,496],[-2.31073927,55.40986524,500],[-2.31073267,55.40987322,501],[-2.31087027,55.40989032,503],[-2.31087053,55.40992653,506],[-2.31072035,55.40999398,504],[-2.31071068,55.41002108,504],[-2.31068784,55.40984158,504],[-2.31068857,55.4098398,504],[-2.31080933,55.40982301,497],[-2.31082221,55.40982068,497],[-2.31076914,55.40982018,495],[-2.31075709,55.40982221,494],[-2.31082466,55.40985815,493],[-2.31081674,55.40986202,493],[-2.31074911,55.40985214,499],[-2.310716,55.40985693,499],[-2.31034008,55.40978766,494],[-2.31025375,55.40979613,494],[-2.31002317,55.41000183,498],[-2.30998831,55.41002719,498],[-2.30987168,55.41006554,498],[-2.30982024,55.41009567,499],[-2.30954124,55.41016281,501],[-2.30947468,55.41017904,500],[-2.3080086,55.41073156,508],[-2.30795156,55.41075276,509],[-2.30689431,55.41106052,512],[-2.30685469,55.4110665,522],[-2.30614574,55.41137389,525],[-2.30607261,55.41139544,525],[-2.30427026,55.41232343,552],[-2.30421021,55.41235387,552],[-2.30391414,55.41248075,554],[-2.30386473,55.41249756,554],[-2.30379724,55.41247191,553],[-2.30379613,55.41243915,550],[-2.30383635,55.41250072,549],[-2.3038438,55.41251287,549],[-2.30272266,55.41278125,556],[-2.30266205,55.41279515,557],[-2.30202552,55.41309345,559],[-2.30197287,55.41313368,559],[-2.30180265,55.41316935,561],[-2.30173088,55.41319009,563],[-2.3016827,55.41325514,563],[-2.3016714,55.41329507,563],[-2.30137484,55.41336831,565],[-2.30132414,55.41340532,567],[-2.30079313,55.41344736,563],[-2.30072264,55.41346845,563],[-2.30068035,55.41349554,565],[-2.3007226,55.41359489,561],[-2.30067291,55.41359113,565],[-2.30072462,55.41360105,565],[-2.3007564,55.41360116,567],[-2.30074417,55.41361437,566],[-2.30069171,55.41359075,566],[-2.30070302,55.41358992,565],[-2.3006959,55.41364865,566],[-2.3007334,55.41363958,567],[-2.30072585,55.41366587,563],[-2.30078098,55.4136182,565],[-2.30078194,55.41361783,565],[-2.30070047,55.41359717,560],[-2.30064788,55.41358805,558],[-2.30073856,55.41361465,566],[-2.30078498,55.41363763,569],[-2.30075053,55.41366777,570],[-2.30081452,55.41367682,566],[-2.30101562,55.41391863,564],[-2.30105202,55.41396154,564],[-2.30118591,55.41402633,565],[-2.30117786,55.41400753,564],[-2.30120742,55.41412114,562],[-2.30122462,55.41411649,563],[-2.30073283,55.41361386,562],[-2.30067843,55.41359549,561],[-2.30065223,55.4135024,562],[-2.30061849,55.41346829,563],[-2.30043532,55.41348851,561],[-2.30035914,55.41348831,560],[-2.29867816,55.41390108,556],[-2.29858868,55.4139225,554],[-2.29693255,55.41444463,553],[-2.29684173,55.41445933,551],[-2.29648332,55.414596,553],[-2.29641118,55.4146256,552],[-2.29574963,55.41498341,551],[-2.29570384,55.41502353,554],[-2.29531734,55.41513738,549],[-2.29523529,55.41516263,549],[-2.29488711,55.41541346,546],[-2.29485992,55.41544121,546],[-2.29477157,55.41561347,546],[-2.29475033,55.41564792,543],[-2.29475987,55.41577918,546],[-2.29476121,55.41579079,547],[-2.29458039,55.41606403,545],[-2.29455853,55.41610635,544],[-2.29455564,55.41628745,543],[-2.29454848,55.41633227,542],[-2.29426606,55.41698697,543],[-2.29424439,55.41703493,543],[-2.29399405,55.41727171,545],[-2.29396119,55.41727135,546],[-2.29399202,55.4172641,545],[-2.29401814,55.41725986,545],[-2.29400461,55.41730603,545],[-2.29399544,55.41735503,545],[-2.29367433,55.41796081,551],[-2.29364653,55.41800469,550],[-2.29348286,55.4181587,551],[-2.29345043,55.41819514,552],[-2.29332153,55.41848895,555],[-2.29330943,55.4185251,554],[-2.2933448,55.41861254,556],[-2.29338278,55.41863027,557],[-2.29332262,55.41864202,556],[-2.29331046,55.41867855,557],[-2.29341997,55.41887834,559],[-2.29343427,55.41890827,559],[-2.29378117,55.4193647,567],[-2.29378992,55.41938451,567],[-2.29391198,55.41982441,571],[-2.29392434,55.41987004,571],[-2.29391746,55.42002157,575],[-2.29391777,55.42002139,575],[-2.29388103,55.42000934,576],[-2.29388228,55.4200176,575],[-2.29401667,55.42003873,573],[-2.29404976,55.42003843,565],[-2.29430632,55.42018518,559],[-2.29433509,55.42019997,559],[-2.29454351,55.4201913,532],[-2.29456457,55.42019529,530],[-2.29311374,55.42063681,542],[-2.29297264,55.42068178,546],[-2.29116426,55.42112728,577],[-2.29108449,55.42114803,577],[-2.29056592,55.42132951,579],[-2.29048059,55.42135245,579],[-2.2893603,55.42156817,581],[-2.2892898,55.42157986,582],[-2.28894052,55.42171589,584],[-2.28888832,55.42173961,584],[-2.28834196,55.42183889,587],[-2.28826847,55.42185217,587],[-2.28792675,55.42197745,589],[-2.28786344,55.42199924,591],[-2.28725612,55.42208743,595],[-2.28716871,55.42209587,595],[-2.28503243,55.42266005,612],[-2.28500599,55.42266528,612],[-2.28501962,55.42259738,611],[-2.28501265,55.42258653,611],[-2.2849324,55.42255103,611],[-2.28494214,55.42254322,610],[-2.28494557,55.42264314,611],[-2.2848843,55.42267401,613],[-2.28425378,55.42284551,614],[-2.28417735,55.42287043,615],[-2.28381965,55.42310368,611],[-2.28375856,55.4231443,609],[-2.28342615,55.42342657,610],[-2.28337402,55.4234753,612],[-2.28305022,55.42390472,609],[-2.28306907,55.42389521,609],[-2.28301549,55.42387002,610],[-2.2829447,55.42390588,608],[-2.28279345,55.42399342,604],[-2.28274556,55.42402787,604],[-2.28272567,55.42408975,608],[-2.28271366,55.42405409,604],[-2.28273087,55.42412414,605],[-2.28271283,55.42418309,603],[-2.28252449,55.42435471,599],[-2.28248918,55.42439788,598],[-2.28234617,55.42467508,594],[-2.28231998,55.42471624,594],[-2.28205189,55.42498162,589],[-2.28203647,55.42501763,590],[-2.28123892,55.42560929,579],[-2.28118851,55.42564679,579],[-2.27940912,55.42621469,582],[-2.27933726,55.42623448,582],[-2.27888511,55.42631457,582],[-2.27879288,55.42633678,583],[-2.27817218,55.42632883,586],[-2.27817576,55.42631244,586],[-2.27806722,55.42637572,588],[-2.27803912,55.42640122,588],[-2.27729301,55.42630767,590],[-2.27722232,55.42629579,590],[-2.27663443,55.42614029,589],[-2.2765545,55.42612222,589],[-2.2763063,55.42617442,592],[-2.2761552,55.42618399,592],[-2.2744405,55.4260286,599],[-2.27437674,55.42600353,599],[-2.27425396,55.42603131,601],[-2.27426021,55.42602128,602],[-2.27408872,55.42629566,597],[-2.27413642,55.42634105,598],[-2.27406109,55.42632046,596],[-2.27405988,55.42631736,597],[-2.27384951,55.42661989,597],[-2.27381753,55.42665862,596],[-2.27364615,55.42704895,595],[-2.27361528,55.42709319,594],[-2.27353857,55.42718567,593],[-2.27349274,55.42722252,592],[-2.27328841,55.42731089,591],[-2.27324609,55.42734672,591],[-2.27298835,55.42771217,591],[-2.27296063,55.42775702,592],[-2.2726034,55.4280981,594],[-2.27257208,55.42812827,596],[-2.27212245,55.42868445,607],[-2.27212375,55.42868346,607],[-2.27206725,55.42867885,606],[-2.27204464,55.42866939,607],[-2.27211066,55.42869834,608],[-2.2721133,55.4287038,607],[-2.27204889,55.42867981,606],[-2.27189348,55.42871608,605],[-2.27055814,55.42913849,592],[-2.27048331,55.42915182,593],[-2.26997695,55.42911538,586],[-2.26989994,55.42910938,586],[-2.26938653,55.4291739,585],[-2.26930123,55.42918167,584],[-2.26776481,55.42910805,579],[-2.26768371,55.42909841,580],[-2.26696698,55.42911214,581],[-2.26684226,55.42911331,581],[-2.26606178,55.42902235,579],[-2.26601127,55.4290461,578],[-2.26490083,55.42880132,581],[-2.26482479,55.42878282,581],[-2.26443643,55.42864085,582],[-2.2643632,55.42861857,584],[-2.26348448,55.42851268,575],[-2.26340059,55.42850702,573],[-2.26235507,55.42850901,562],[-2.26235254,55.42850906,560],[-2.26227447,55.42843555,558],[-2.26220937,55.4284216,560],[-2.26227127,55.42843676,564],[-2.26231839,55.42840736,559],[-2.26246836,55.42780059,557],[-2.26248381,55.42774203,557],[-2.2629881,55.42707753,555],[-2.26301793,55.42703722,553],[-2.26337365,55.42674139,552],[-2.26342731,55.42674263,551],[-2.26338436,55.42664769,552],[-2.26335588,55.42662778,545],[-2.26340736,55.42656322,549],[-2.26339807,55.42651139,551],[-2.26336125,55.42647268,552],[-2.26341202,55.42614304,550],[-2.26344489,55.42609282,551],[-2.26310376,55.42447044,557],[-2.2630904,55.42441472,556],[-2.26300869,55.4243531,557],[-2.26296286,55.42435446,558],[-2.26309554,55.42429686,555],[-2.26310325,55.42432212,556],[-2.26307336,55.42418347,551],[-2.26305846,55.42413545,550],[-2.26263186,55.42345056,546],[-2.26259575,55.42340083,546],[-2.26248178,55.42311142,547],[-2.26247171,55.42306092,547],[-2.26253464,55.42300682,547],[-2.2624481,55.42285775,546],[-2.26243582,55.42280852,546],[-2.26242735,55.42275649,545],[-2.26242059,55.42270446,546],[-2.26247576,55.42267081,546],[-2.26247763,55.42267123,546],[-2.26241625,55.42268425,549],[-2.26239981,55.42265525,549],[-2.26206657,55.42180514,546],[-2.26205633,55.42175562,546],[-2.26190896,55.42164386,544],[-2.26185092,55.42160259,543],[-2.26170679,55.42141408,542],[-2.2616667,55.42136959,542],[-2.26157606,55.42111531,540],[-2.26154501,55.42107162,540],[-2.26128006,55.42082501,536],[-2.26124245,55.42081724,536],[-2.26132631,55.42084321,537],[-2.26131238,55.42077628,536],[-2.26061525,55.42008889,522],[-2.26058005,55.42004483,520],[-2.26047815,55.41963644,512],[-2.2604547,55.41958127,512],[-2.26042691,55.41922847,508],[-2.2604238,55.41918447,507],[-2.2600772,55.4187401,496],[-2.26004126,55.41870082,496],[-2.2599947,55.41857207,493],[-2.25997769,55.4185306,492],[-2.25999413,55.41827385,488],[-2.25999473,55.41822972,487],[-2.25988416,55.41790629,481],[-2.2598663,55.41786458,480],[-2.25989174,55.41772802,478],[-2.25989039,55.41768272,476],[-2.25975725,55.41731794,469],[-2.2597391,55.4172671,468],[-2.25948843,55.41693034,464],[-2.25940958,55.41685927,461],[-2.259017,55.41614299,454],[-2.25898035,55.41609394,454],[-2.25860155,55.41584553,453],[-2.25855103,55.41581031,453],[-2.25842858,55.41553865,455],[-2.2583968,55.41548625,454],[-2.25823606,55.41547632,452],[-2.25823795,55.41549275,454],[-2.25846248,55.4154366,452],[-2.25849929,55.41535028,457],[-2.25816077,55.41487365,459],[-2.25817196,55.414846,459],[-2.25793169,55.41459102,465],[-2.25790527,55.4145554,466],[-2.25780734,55.41418946,470],[-2.25778348,55.41414473,471],[-2.25751962,55.41395684,472],[-2.25745494,55.41393297,472],[-2.25619775,55.41360347,486],[-2.25619572,55.41360633,486],[-2.25509661,55.41316252,486],[-2.25515306,55.41321657,488],[-2.25483617,55.41288684,481],[-2.2548075,55.41283585,481],[-2.25485685,55.41282053,481],[-2.25486359,55.41281479,482],[-2.25484068,55.41281413,482],[-2.25481859,55.41277249,481],[-2.25479222,55.41208508,481],[-2.2547998,55.41205568,480],[-2.25471758,55.41167951,480],[-2.2547318,55.41162917,481],[-2.25469468,55.41154939,483],[-2.25463171,55.4115316,483],[-2.2546957,55.4115472,482],[-2.25470423,55.41150414,481],[-2.25427902,55.41042761,466],[-2.25425967,55.41038211,465],[-2.25387067,55.40905527,465],[-2.25384167,55.40900852,465],[-2.25385917,55.40862047,464],[-2.25390274,55.40858651,464],[-2.25372967,55.40834976,462],[-2.25369366,55.40830349,463],[-2.25371023,55.40825337,462],[-2.25375462,55.40822013,463],[-2.25365842,55.40809153,462],[-2.25365301,55.40804403,461],[-2.25373287,55.40764034,461],[-2.25373612,55.40758984,460],[-2.25365993,55.40733735,458],[-2.25364375,55.40728324,458],[-2.25352269,55.40708825,455],[-2.2534794,55.40703304,456],[-2.25349725,55.40636508,464],[-2.25350238,55.40631029,464],[-2.25336453,55.40612994,462],[-2.25334742,55.40608261,462],[-2.25359135,55.4058872,464],[-2.25361334,55.40589427,462],[-2.25353484,55.40566511,464],[-2.25354198,55.40561146,464],[-2.25377469,55.40525276,463],[-2.25381717,55.40520344,463],[-2.25403474,55.40505317,459],[-2.25402052,55.40505256,458],[-2.25441619,55.40487905,457],[-2.25445986,55.40488959,457],[-2.2546188,55.40468605,459],[-2.25463395,55.40463626,459],[-2.25463467,55.40458488,460],[-2.25461179,55.40453841,460],[-2.25448629,55.40440054,464],[-2.25447854,55.40437299,463],[-2.25464985,55.40400187,468],[-2.25462624,55.40394284,468],[-2.25420365,55.40350616,465],[-2.25415681,55.40346054,464],[-2.25401491,55.40340254,464],[-2.25394961,55.40336695,464],[-2.25348106,55.40281836,459],[-2.25342513,55.40278161,459],[-2.25345746,55.4026584,456],[-2.25348384,55.4026047,455],[-2.25378963,55.40220611,451],[-2.25381121,55.40215987,451],[-2.25397605,55.40147778,439],[-2.25399316,55.40142009,438],[-2.25406676,55.40132718,437],[-2.25407479,55.40127094,435],[-2.25405755,55.40122299,435],[-2.25405123,55.40117089,434],[-2.25377953,55.40085002,433],[-2.25376963,55.40080607,432],[-2.25302722,55.40065937,426],[-2.25297491,55.40064513,425],[-2.2525746,55.40044254,416],[-2.2525287,55.40042495,415],[-2.25236672,55.40016373,403],[-2.25237278,55.4001368,401],[-2.25209726,55.39993686,390],[-2.25207945,55.39991502,389],[-2.25199199,55.39974621,381],[-2.25197853,55.39971931,380],[-2.2519895,55.39957386,376],[-2.2519864,55.39957448,376],[-2.25265348,55.39934045,375],[-2.25270579,55.39931903,375],[-2.25503696,55.39870318,359],[-2.25512481,55.398682,359],[-2.25533903,55.39865462,356],[-2.25542282,55.3986464,355],[-2.25668586,55.39870267,344],[-2.25673418,55.39870842,344],[-2.25689051,55.39863748,346],[-2.25689025,55.39863738,346],[-2.25698805,55.3986528,348],[-2.25698798,55.39865288,348],[-2.25688508,55.39858037,345],[-2.25683263,55.39853913,345],[-2.25684617,55.39840288,357],[-2.25686022,55.39838248,357],[-2.25682518,55.39840912,359],[-2.2568194,55.39840923,359],[-2.25691103,55.39833618,356],[-2.25692507,55.39831753,356],[-2.25692635,55.3982404,353],[-2.25693078,55.39818155,352],[-2.25718042,55.39789115,354],[-2.25719946,55.39781311,350],[-2.25768909,55.39728348,351],[-2.25772684,55.39723787,351],[-2.25806107,55.39706754,348],[-2.25811631,55.397028,349],[-2.2583395,55.39679717,352],[-2.25837651,55.39674939,352],[-2.25872303,55.39650588,354],[-2.25878317,55.39646237,353],[-2.25912861,55.39612483,354],[-2.2591791,55.39607931,354],[-2.25951071,55.39565297,353],[-2.2595547,55.39560107,353],[-2.25985448,55.3953658,350],[-2.25990559,55.39531363,351],[-2.26020308,55.39483451,347],[-2.26034985,55.39469857,345],[-2.26073192,55.39445278,343],[-2.26078828,55.39441598,343],[-2.26245375,55.39397348,348],[-2.26253869,55.39394029,348],[-2.26323303,55.39348073,350],[-2.26331038,55.3934475,350],[-2.2635613,55.39337802,351],[-2.26365197,55.39336196,351],[-2.26461038,55.39331849,349],[-2.26470866,55.39331024,350],[-2.26530823,55.3931608,350],[-2.2653902,55.39313837,350],[-2.26594951,55.39291567,353],[-2.26603378,55.39288893,353],[-2.26699712,55.39237386,353],[-2.26706383,55.39234215,353],[-2.26806178,55.39213924,356],[-2.26816207,55.39212419,356],[-2.26934703,55.39167434,355],[-2.26942417,55.39164586,355],[-2.27010787,55.39147423,356],[-2.27019507,55.39144533,357],[-2.27052091,55.39113858,358],[-2.27058314,55.39109434,357],[-2.27121373,55.39072135,359],[-2.2713075,55.39069756,360],[-2.27227647,55.39057165,361],[-2.27236258,55.39055613,362],[-2.27313314,55.3903418,360],[-2.27322183,55.39032166,361],[-2.2738472,55.39023415,361],[-2.27394042,55.39022212,362],[-2.27432066,55.39024808,364],[-2.27442281,55.39026477,363],[-2.27557913,55.39050135,364],[-2.27567443,55.39051669,364],[-2.27626412,55.39054011,365],[-2.27635681,55.39053151,366],[-2.27833102,55.39018502,365],[-2.27842482,55.39016825,365],[-2.27887023,55.38996654,366]]}}]}