{"type":"FeatureCollection","features":[{"type":"Feature","properties":{"name":"2026-08-01T08:50+01","time":"2026-08-01T08:50:47.932+01:00"},"geometry":{"type":"LineString","coordinates":[[-2.753275,55.119535,210.9],[-2.753143,55.119571,206.6],[-2.753048,55.119656,206.5],[-2.753126,55.119566,204.9],[-2.753062,55.119586,206.1],[-2.752986,55.119671,207.3],[-2.75277,55.119807,210.1],[-2.75266,55.119878,209.6],[-2.752229,55.120022,212],[-2.752109,55.120088,213],[-2.751707,55.120494,218.5],[-2.751618,55.120581,220.7],[-2.750272,55.122232,234.7],[-2.750226,55.122331,235.7],[-2.749738,55.122821,239],[-2.749657,55.122905,240.3],[-2.749265,55.12344,242.8],[-2.749196,55.123537,242.1],[-2.748892,55.123879,246.5],[-2.748814,55.123968,244.3],[-2.748711,55.124148,243.6],[-2.748671,55.12422,245.5],[-2.748458,55.124478,245.8],[-2.748387,55.124563,247.4],[-2.747821,55.125364,250.3],[-2.747731,55.125454,251.3],[-2.747564,55.125724,250.8],[-2.747509,55.125816,251.8],[-2.746829,55.126794,259.7],[-2.746735,55.126881,257.8],[-2.746612,55.127059,257.6],[-2.74656,55.127144,259.1],[-2.746429,55.127419,262.4],[-2.746348,55.127509,262.5],[-2.746233,55.127615,259.9],[-2.746121,55.127681,259.3],[-2.745961,55.127708,259],[-2.745805,55.127747,259.6],[-2.745524,55.127859,260.9],[-2.745488,55.127895,257.2],[-2.745314,55.127906,262.4],[-2.745322,55.127894,260.5],[-2.744914,55.128043,255.9],[-2.744781,55.128097,253.3],[-2.744257,55.128335,246.9],[-2.744117,55.128385,247.8],[-2.743669,55.128481,250.5],[-2.743506,55.128504,249.9],[-2.742689,55.128522,251.7],[-2.742522,55.128533,251.4],[-2.741875,55.128631,257.8],[-2.741709,55.128662,257.9],[-2.741219,55.12868,267],[-2.741055,55.128695,269.1],[-2.739427,55.128904,273.8],[-2.739249,55.128913,272.3],[-2.739082,55.128891,271],[-2.738865,55.128754,293.1],[-2.738752,55.12868,293.3],[-2.738678,55.128591,294.5],[-2.738595,55.128512,295.2],[-2.738311,55.128281,295.1],[-2.738221,55.128195,294.8],[-2.737786,55.127885,295],[-2.737694,55.127811,295],[-2.737192,55.127317,301.6],[-2.737074,55.127254,301.9],[-2.736914,55.127227,301],[-2.73675,55.127224,298],[-2.736432,55.12728,292.3],[-2.736259,55.127289,294.8],[-2.735983,55.127244,297.1],[-2.735815,55.12723,295.6],[-2.735001,55.127189,296.3],[-2.734825,55.127178,297.5],[-2.734499,55.1272,298.8],[-2.734326,55.127213,300],[-2.734065,55.127308,304.9],[-2.734066,55.12731,305.1],[-2.733567,55.127277,300.2],[-2.7334,55.127279,301.6],[-2.731539,55.127419,314.3],[-2.731368,55.127431,315.7],[-2.730536,55.127455,319.3],[-2.730422,55.127463,318.4],[-2.730277,55.127504,317.3],[-2.730139,55.127559,318.1],[-2.730184,55.127572,318.1],[-2.729807,55.12775,319.9],[-2.729691,55.127814,321.1],[-2.729251,55.128104,325],[-2.729147,55.128185,326.5],[-2.729016,55.128248,327.7],[-2.728868,55.128286,327.7],[-2.728707,55.12829,326.9],[-2.728554,55.128255,326.1],[-2.727981,55.128058,325.7],[-2.727821,55.128011,325.2],[-2.726879,55.127806,324.5],[-2.726726,55.127779,325.2],[-2.726237,55.127761,325.1],[-2.726074,55.127769,324.7],[-2.724217,55.127908,324.2],[-2.724039,55.127925,323.2],[-2.723301,55.128158,318.4],[-2.723163,55.128204,318.2],[-2.722632,55.128429,313.9],[-2.7225,55.12848,311.8],[-2.722379,55.128562,312.8],[-2.72233,55.128598,310.1],[-2.722462,55.128531,314.8],[-2.722587,55.12847,313.1],[-2.72372,55.128038,319.7],[-2.723863,55.127999,321.8],[-2.725003,55.127857,325],[-2.725172,55.127838,324.7],[-2.726336,55.12779,323],[-2.726431,55.127871,323.8],[-2.726329,55.128328,325.7],[-2.726329,55.128428,328],[-2.726458,55.128897,333],[-2.726479,55.12899,333.1],[-2.72664,55.129467,333.6],[-2.726661,55.129565,333.3],[-2.726709,55.12995,335.8],[-2.726678,55.130048,336.2],[-2.726735,55.130328,337.7],[-2.726755,55.13043,337.1],[-2.726725,55.131297,338.6],[-2.726705,55.13139,338.2],[-2.726721,55.131776,339.5],[-2.726687,55.131836,339.6],[-2.726712,55.132028,338.3],[-2.726713,55.13213,339.6],[-2.726672,55.132311,338.9],[-2.726633,55.132402,338.6],[-2.726208,55.13332,345.7],[-2.726179,55.133417,346.6],[-2.72599,55.133781,348.2],[-2.725946,55.13387,347.9],[-2.725802,55.134336,351.3],[-2.725772,55.134432,351.8],[-2.725461,55.135083,349.1],[-2.725426,55.135174,348.4],[-2.725187,55.135598,347.6],[-2.725221,55.135691,346.9],[-2.725315,55.135764,346.2],[-2.725513,55.13582,343.5],[-2.725662,55.135861,343.6],[-2.726131,55.135968,341.9],[-2.726297,55.136014,344.4],[-2.726322,55.136003,344.5],[-2.726481,55.136018,341.6],[-2.726996,55.136134,339],[-2.727158,55.136163,336.8],[-2.727623,55.136302,334.3],[-2.727783,55.136341,334.7],[-2.729661,55.136747,325.1],[-2.729816,55.136778,325.1],[-2.730603,55.136999,321.4],[-2.730754,55.137038,321],[-2.730657,55.137451,320.6],[-2.730637,55.13752,320.2],[-2.730349,55.138283,317.9],[-2.730302,55.138382,318.6],[-2.730097,55.138652,320.2],[-2.730037,55.138739,320.4],[-2.729715,55.139072,320.2],[-2.72964,55.139158,319.8],[-2.729294,55.139602,319.1],[-2.729213,55.139691,320.4],[-2.728383,55.140424,324.7],[-2.728305,55.140509,324.1],[-2.728029,55.140865,324],[-2.727978,55.140953,324.3],[-2.727881,55.141135,325.7],[-2.72798,55.141206,326.4],[-2.727874,55.141299,325],[-2.727769,55.141374,324.8],[-2.727834,55.141501,325.4],[-2.727895,55.141586,327.1],[-2.728261,55.141904,329.1],[-2.728351,55.141992,329.5],[-2.729417,55.143093,331.8],[-2.729503,55.143176,332.4],[-2.729584,55.143261,333.6],[-2.729666,55.143346,335.2],[-2.729687,55.143441,334.8],[-2.729726,55.143534,332.7],[-2.72967,55.143525,332.7],[-2.72964,55.143622,332.5],[-2.729624,55.143718,332.4],[-2.729401,55.144189,334.4],[-2.729347,55.144278,332.6],[-2.729288,55.144456,335],[-2.729262,55.144556,336],[-2.729151,55.144742,333.9],[-2.72914,55.144843,334.3],[-2.728889,55.145291,333.7],[-2.728844,55.145387,335.1],[-2.72866,55.145855,333.5],[-2.728608,55.145947,334.3],[-2.7286,55.146058,333.6],[-2.728497,55.146137,329.3],[-2.728503,55.146235,331.4],[-2.728288,55.146701,328.2],[-2.728265,55.146792,329.4],[-2.728209,55.14688,329.6],[-2.728132,55.146962,329.6],[-2.728032,55.147036,330.5],[-2.727912,55.147098,330.3],[-2.725543,55.148069,343.4],[-2.72551,55.148161,343.1],[-2.725598,55.148349,342.2],[-2.725663,55.148446,341.9],[-2.726,55.148864,342],[-2.726022,55.148872,342.7],[-2.726287,55.149238,341.3],[-2.726354,55.149334,340.7],[-2.726922,55.149943,340],[-2.727017,55.15003,339.5],[-2.72714,55.150208,338.4],[-2.727204,55.150298,337.8],[-2.727338,55.150683,336.3],[-2.727358,55.150776,336.4],[-2.727388,55.151245,336.5],[-2.727406,55.151334,337.1],[-2.727453,55.151429,337.4],[-2.727512,55.151518,336.9],[-2.727954,55.152129,335.9],[-2.728018,55.152224,335.9],[-2.728111,55.152272,336.2],[-2.728125,55.152368,336.1],[-2.728297,55.152542,334],[-2.72839,55.152623,333.5],[-2.728541,55.152674,332.6],[-2.728691,55.152627,331.5],[-2.729366,55.152315,326.1],[-2.729504,55.152253,325.2],[-2.731613,55.151396,324.3],[-2.731753,55.151343,325.7],[-2.731849,55.151282,323],[-2.732011,55.151257,322],[-2.729604,55.152206,326],[-2.72945,55.152248,327],[-2.728736,55.152622,329.9],[-2.728609,55.152687,331],[-2.728547,55.152788,334.3],[-2.728558,55.152878,335.3],[-2.728305,55.152824,335.4],[-2.728157,55.152783,335.2],[-2.727727,55.152638,338.5],[-2.72756,55.152612,340.3],[-2.727075,55.15266,343.7],[-2.726928,55.152709,345.1],[-2.72681,55.152785,345.8],[-2.726732,55.152868,345.9],[-2.726538,55.153232,345.7],[-2.726496,55.153325,345.7],[-2.72634,55.153496,345.1],[-2.726239,55.153565,347.5],[-2.724263,55.154374,361.3],[-2.724125,55.154436,361.5],[-2.724019,55.154517,361.3],[-2.723914,55.154698,363.4],[-2.723852,55.154788,364],[-2.723753,55.15486,365.1],[-2.723614,55.15491,366.8],[-2.723446,55.154919,369],[-2.723288,55.154909,370.6],[-2.722091,55.154573,379.4],[-2.721946,55.154535,381.3],[-2.721627,55.154507,382.9],[-2.721487,55.154558,382.4],[-2.721395,55.154641,382.9],[-2.72105,55.155085,383.1],[-2.720987,55.155173,383.7],[-2.720518,55.155693,388.2],[-2.720448,55.155782,388.2],[-2.720477,55.155913,390.7],[-2.720425,55.155999,390.6],[-2.719658,55.156209,392.5],[-2.719517,55.156254,397.1],[-2.715869,55.157783,413],[-2.715725,55.157837,413.9],[-2.715603,55.157894,415.1],[-2.715462,55.157954,415],[-2.715402,55.158004,415.1],[-2.71528,55.158074,417],[-2.714989,55.158162,417.9],[-2.714843,55.15821,419.1],[-2.714164,55.158475,424.5],[-2.714019,55.15853,424.5],[-2.713886,55.158583,424.6],[-2.713801,55.158658,425.9],[-2.713506,55.158755,425],[-2.713359,55.158812,426.4],[-2.711733,55.159465,432.2],[-2.711584,55.159517,433.4],[-2.711443,55.159575,434.6],[-2.711309,55.159634,435.3],[-2.711284,55.159676,438.8],[-2.711168,55.15974,435.1],[-2.711014,55.159785,434],[-2.710878,55.159831,432.7],[-2.710231,55.160123,435.9],[-2.710092,55.160185,436.8],[-2.707858,55.16109,439.2],[-2.707717,55.16114,439.6],[-2.707306,55.161331,439.6],[-2.707177,55.161383,440.8],[-2.706479,55.161876,438.7],[-2.706377,55.161949,439.4],[-2.70601,55.162261,436.1],[-2.705898,55.162341,434.6],[-2.704758,55.163043,439.3],[-2.704633,55.163113,438.8],[-2.704547,55.163199,440.8],[-2.704454,55.163286,441.6],[-2.704334,55.16335,442],[-2.704207,55.163415,442.7],[-2.703662,55.163784,442.7],[-2.703543,55.163854,441.3],[-2.703361,55.164019,443.5],[-2.703279,55.164102,444.4],[-2.703223,55.164187,441.6],[-2.703173,55.164287,439.8],[-2.702999,55.164446,435.9],[-2.702959,55.164489,439],[-2.702607,55.164708,436.7],[-2.7025,55.164782,437.2],[-2.701452,55.16567,437.1],[-2.701353,55.165756,436.8],[-2.701023,55.166095,434.5],[-2.701012,55.166166,435.1],[-2.701006,55.166074,431.2],[-2.70108,55.165987,429.8],[-2.701075,55.16591,427.7],[-2.700994,55.165832,433.1],[-2.700979,55.165792,432.3],[-2.700865,55.165724,433.6],[-2.700829,55.165663,436.2],[-2.700468,55.165318,446.6],[-2.70043,55.165245,446],[-2.700261,55.165234,447.2],[-2.700245,55.165234,446.7],[-2.699981,55.165306,449.8],[-2.699825,55.165333,454.5],[-2.699687,55.165481,456.9],[-2.699599,55.165538,455.2],[-2.699377,55.165652,455.5],[-2.699248,55.16571,454.5],[-2.699057,55.16585,454.3],[-2.69898,55.165907,455.9],[-2.698826,55.165936,458.6],[-2.698783,55.165957,457.2],[-2.698708,55.166044,457],[-2.698658,55.166053,458.2],[-2.698561,55.166133,460],[-2.698471,55.166203,456.4],[-2.697712,55.166678,460.2],[-2.697609,55.166747,462.6],[-2.69751,55.166756,460.2],[-2.697211,55.166936,462],[-2.697175,55.166943,460.8],[-2.696895,55.166904,460.6],[-2.696747,55.166871,462.5],[-2.696616,55.166802,466.1],[-2.696538,55.166761,466.4],[-2.696118,55.16667,473.4],[-2.695978,55.166615,475.3],[-2.695888,55.166626,475.8],[-2.695722,55.16663,476.5],[-2.695348,55.166607,476.7],[-2.695192,55.16662,477.5],[-2.695072,55.166601,478.8],[-2.694916,55.166573,479.8],[-2.69463,55.166564,483.6],[-2.694462,55.16657,484],[-2.693993,55.166494,487.9],[-2.693912,55.16646,488.1],[-2.69339,55.166391,496.5],[-2.69323,55.166399,499.3],[-2.693179,55.16634,499.2],[-2.692675,55.166128,504.8],[-2.692593,55.166085,506],[-2.691934,55.166011,514.8],[-2.691777,55.165996,515.8],[-2.691372,55.166021,518.3],[-2.691211,55.166025,518.2],[-2.690822,55.165999,519.7],[-2.690659,55.166,521.9],[-2.690125,55.165895,526.5],[-2.689959,55.165881,525.1],[-2.689685,55.165933,527],[-2.68958,55.165965,528.5],[-2.689411,55.166063,528.1],[-2.689257,55.166102,530.6],[-2.689132,55.166107,532.3],[-2.688974,55.166082,533],[-2.688713,55.166113,533.5],[-2.688613,55.166111,534],[-2.688132,55.16631,537.1],[-2.687992,55.16636,538.8],[-2.687242,55.166595,540.6],[-2.687128,55.166644,540.2],[-2.686734,55.166745,540.9],[-2.686698,55.166751,541.7],[-2.685933,55.167114,545.2],[-2.685852,55.167157,544.9],[-2.685331,55.16733,547.5],[-2.685198,55.167378,551.2],[-2.685039,55.167365,551.6],[-2.684913,55.167366,553],[-2.684752,55.167515,554.3],[-2.684632,55.167581,554.4],[-2.683882,55.167948,555.9],[-2.68378,55.168017,555.9],[-2.683655,55.168053,557.1],[-2.683085,55.168331,559.9],[-2.682985,55.16837,557.4],[-2.6829,55.168447,556.4],[-2.682805,55.168498,555.6],[-2.682201,55.168777,558.9],[-2.682081,55.168824,559.5],[-2.681756,55.16902,561],[-2.681674,55.16907,561],[-2.681014,55.169403,562.8],[-2.6809,55.169474,563.3],[-2.680799,55.169478,564.5],[-2.6806,55.169585,565.5],[-2.680471,55.169648,566],[-2.680204,55.169695,566.1],[-2.680057,55.169702,566.2],[-2.679902,55.169739,566.8],[-2.679795,55.169779,566.1],[-2.679634,55.169793,566.5],[-2.679517,55.169819,567.7],[-2.67904,55.169843,567.5],[-2.678869,55.169843,566.8],[-2.677895,55.169953,567.9],[-2.677773,55.169939,567],[-2.677477,55.170025,565.7],[-2.677322,55.17004,565],[-2.677176,55.169999,564.7],[-2.677158,55.169998,564.8],[-2.677185,55.16972,562.2],[-2.677199,55.169626,563.1],[-2.677182,55.169433,561.3],[-2.677192,55.169335,561.6],[-2.677242,55.169252,560.4],[-2.677255,55.169159,560],[-2.677254,55.169074,559.6],[-2.677343,55.168805,559.6],[-2.677378,55.168726,559.4],[-2.677429,55.168637,557.3],[-2.677478,55.168563,556.1],[-2.677566,55.168482,559.8],[-2.677635,55.168433,560.2],[-2.677736,55.168258,558.9],[-2.677767,55.168168,558],[-2.677842,55.168086,557.1],[-2.677899,55.168008,556.4],[-2.678002,55.167578,551.2],[-2.678037,55.167486,550.4],[-2.678249,55.167101,551.4],[-2.678298,55.167015,550],[-2.67835,55.166942,550.1],[-2.678415,55.166852,550.4],[-2.678491,55.166792,549.9],[-2.678568,55.166712,550.5],[-2.678625,55.166478,547],[-2.678641,55.166386,545.3],[-2.678703,55.166313,544.9],[-2.678726,55.166221,543.4],[-2.678754,55.166142,542.9],[-2.678973,55.165898,539.3],[-2.679029,55.165832,538.8],[-2.679054,55.16574,537.4],[-2.679079,55.165678,536.9],[-2.679214,55.165521,536.1],[-2.679316,55.165445,535.4],[-2.679544,55.165098,535],[-2.679593,55.165026,533.2],[-2.679667,55.164862,530.8],[-2.679715,55.164776,530.3],[-2.679716,55.164699,529],[-2.679796,55.164437,525.3],[-2.679828,55.16435,524.9],[-2.679928,55.164186,524.3],[-2.680003,55.164107,522.4],[-2.680143,55.16376,521.6],[-2.680206,55.163678,520.6],[-2.680229,55.1636,520],[-2.680195,55.163505,519.7],[-2.680185,55.163496,519.9],[-2.680305,55.163431,522.1],[-2.68045,55.163379,520],[-2.680617,55.163243,518.7],[-2.680762,55.163196,518.7],[-2.680825,55.163125,517.8],[-2.680937,55.163048,517.7],[-2.68099,55.162962,517],[-2.681014,55.162885,514.7],[-2.681098,55.162808,514.2],[-2.681176,55.162745,515.2],[-2.681207,55.162653,513.8],[-2.681272,55.162612,513.2],[-2.681382,55.162543,509.7],[-2.681373,55.162467,509.2],[-2.681379,55.162376,511.7],[-2.681498,55.162199,513.5],[-2.681541,55.162135,512],[-2.681544,55.162045,509.8],[-2.681568,55.161952,506.1],[-2.681758,55.16181,508.3],[-2.681847,55.161759,507.3],[-2.682237,55.161609,504.9],[-2.682257,55.161537,504.5],[-2.682499,55.161473,502.4],[-2.68265,55.161443,500.9],[-2.682727,55.161363,500],[-2.682805,55.161286,501.2],[-2.682931,55.161226,503.5],[-2.683018,55.161171,502],[-2.683121,55.160991,500.2],[-2.683174,55.160916,501.8],[-2.68314,55.160827,500.7],[-2.683245,55.160789,498.3],[-2.683193,55.160704,497.1],[-2.682774,55.16056,496.4],[-2.682645,55.160508,499.2],[-2.682637,55.160463,495.5],[-2.682385,55.160331,497.7],[-2.682282,55.160262,498.4],[-2.682176,55.160124,496.1],[-2.682106,55.160041,495.8],[-2.682062,55.159854,492.1],[-2.682089,55.15976,490.6],[-2.682173,55.159671,490.4],[-2.682271,55.159592,490.3],[-2.682863,55.15917,482],[-2.682924,55.159136,482.5],[-2.683075,55.158972,482.5],[-2.683183,55.1589,481.6],[-2.683618,55.158726,483.4],[-2.683757,55.158667,485.1],[-2.683998,55.158529,484.3],[-2.68411,55.158456,480.7],[-2.684536,55.158041,477],[-2.684611,55.157958,478.4],[-2.684829,55.157807,471.5],[-2.684917,55.157722,470.3],[-2.684875,55.157631,470.6],[-2.684727,55.157594,473.4],[-2.684388,55.157612,469.6],[-2.684224,55.157606,468.5],[-2.683898,55.157556,465.1],[-2.683836,55.157542,465.6],[-2.682483,55.156344,454.2],[-2.682374,55.156271,452.7],[-2.681883,55.155991,453.7],[-2.681786,55.155955,455.4],[-2.681681,55.155872,458.4],[-2.679791,55.15478,452.2],[-2.679666,55.154721,450.3],[-2.679579,55.154645,452.1],[-2.677604,55.153463,451.2],[-2.677576,55.153416,452.8],[-2.677327,55.153294,454.1],[-2.677208,55.153226,454.5],[-2.67641,55.152737,461.4],[-2.676277,55.152674,463.6],[-2.676215,55.152593,463.9],[-2.676136,55.152507,462.6],[-2.676025,55.152324,461.5],[-2.675974,55.152228,460.7],[-2.675789,55.151767,461.1],[-2.675752,55.151677,460.9],[-2.675573,55.151311,462.7],[-2.675524,55.151225,464.3],[-2.675505,55.151123,464.1],[-2.675492,55.151025,464.9],[-2.675599,55.149408,465.3],[-2.675605,55.149318,464.9],[-2.675691,55.14855,467.2],[-2.6757,55.148456,468],[-2.675746,55.148269,470.6],[-2.675768,55.148176,472.2],[-2.675791,55.147891,471.4],[-2.675798,55.147793,472.1],[-2.675791,55.147211,475.1],[-2.675786,55.14711,475.8],[-2.675735,55.146623,475.2],[-2.675742,55.146526,471.9],[-2.67568,55.146425,471.5],[-2.675586,55.146345,471.8],[-2.675466,55.146316,471.8],[-2.675287,55.146305,470.7],[-2.674351,55.146105,472],[-2.674214,55.146126,475.3],[-2.673774,55.145994,472.7],[-2.673612,55.145952,472.3],[-2.672428,55.145604,474.3],[-2.672272,55.145555,473.6],[-2.668426,55.144268,475.6],[-2.668266,55.144231,475.8],[-2.668168,55.144152,474],[-2.667742,55.143997,473.2],[-2.667607,55.14394,470.9],[-2.667287,55.143906,477.6],[-2.667296,55.143913,478.4],[-2.667171,55.143856,477.8],[-2.667029,55.14383,478.9],[-2.66687,55.143817,478.6],[-2.666807,55.143788,479],[-2.666739,55.143703,478.2],[-2.666606,55.14366,478.5],[-2.666453,55.143623,480.1],[-2.666237,55.143489,477.4],[-2.666107,55.143425,476.2],[-2.665822,55.143321,476],[-2.665701,55.143255,475.7],[-2.66559,55.143266,476.5],[-2.665472,55.143207,477.6],[-2.665362,55.143181,477.9],[-2.665206,55.143153,476.4],[-2.664847,55.143035,477.2],[-2.664703,55.142988,476.4],[-2.664344,55.142922,480],[-2.664196,55.14289,479.1],[-2.664141,55.142836,476.6],[-2.664111,55.142745,477.8],[-2.66385,55.142682,478.3],[-2.663748,55.142653,478.8],[-2.663521,55.142561,479.8],[-2.663384,55.142512,479.8],[-2.663015,55.142422,483.1],[-2.662871,55.142374,483.3],[-2.66256,55.142207,483.7],[-2.662469,55.142128,484.1],[-2.662185,55.142097,485.7],[-2.66208,55.142091,486.6],[-2.661832,55.142019,487.4],[-2.661683,55.141984,488.4],[-2.661572,55.141833,490.2],[-2.661471,55.141772,490.5],[-2.661467,55.141682,491.6],[-2.661409,55.141637,490.9],[-2.661345,55.141553,491.5],[-2.661412,55.14143,491.6],[-2.661397,55.1414,492.5],[-2.661268,55.141261,493.3],[-2.6612,55.141178,495.2],[-2.661093,55.141172,495.5],[-2.660955,55.141113,498.7],[-2.660978,55.141103,499.1],[-2.660891,55.141027,499.7],[-2.660799,55.140973,495.9],[-2.660757,55.140886,494.3],[-2.66073,55.140815,494.7],[-2.660744,55.140725,491.9],[-2.660746,55.140665,489.8],[-2.660717,55.140509,487.4],[-2.660694,55.140416,486.1],[-2.660715,55.140348,485.7],[-2.660789,55.140265,485.6],[-2.66082,55.14019,485],[-2.66075,55.139817,487.2],[-2.660726,55.139748,487.1],[-2.660753,55.139659,487.5],[-2.660781,55.13958,489],[-2.660776,55.139487,489.9],[-2.660743,55.139434,491],[-2.660742,55.139341,489.8],[-2.660861,55.139194,490.1],[-2.660899,55.139128,490.9],[-2.66094,55.13897,489.9],[-2.660976,55.138882,493.4],[-2.660963,55.138836,493.4],[-2.660936,55.138744,494.1],[-2.660877,55.138684,494.4],[-2.660789,55.138513,495.4],[-2.660715,55.138431,497.7],[-2.660711,55.138377,498.8],[-2.660654,55.138291,499.4],[-2.66066,55.138148,501],[-2.66068,55.138084,501.1],[-2.660652,55.137994,500.9],[-2.660667,55.137834,500.3],[-2.660671,55.137799,500.9],[-2.660621,55.137714,501.3],[-2.660613,55.137634,502.7],[-2.660601,55.13754,503.4],[-2.660475,55.137211,507.7],[-2.660423,55.137122,507.9],[-2.660401,55.136978,508.8],[-2.660397,55.136909,508.8],[-2.660333,55.136823,509.9],[-2.66029,55.13667,510.7],[-2.660346,55.136617,511.1],[-2.660211,55.136434,514],[-2.660197,55.136406,513.6],[-2.660058,55.136451,510.4],[-2.660095,55.136423,515.7],[-2.660029,55.136335,517.9],[-2.65992,55.136298,520.1],[-2.659875,55.136211,519],[-2.659856,55.136166,518.2],[-2.65994,55.136088,517.8],[-2.659943,55.136089,517.6],[-2.659961,55.135995,515.1],[-2.66002,55.135908,514.6],[-2.660189,55.135763,512.7],[-2.660286,55.135732,513.6],[-2.660382,55.135605,512.4],[-2.660419,55.135511,513.9],[-2.660471,55.135473,513.4],[-2.660526,55.135385,514.1],[-2.66068,55.135254,511.8],[-2.660735,55.135209,511.7],[-2.661126,55.134981,511.7],[-2.661246,55.134911,513.5],[-2.661392,55.134782,515.5],[-2.661437,55.134689,514.8],[-2.661484,55.134681,514],[-2.661911,55.134377,515.1],[-2.661975,55.134318,516],[-2.662107,55.134265,515.2],[-2.662169,55.134229,516.2],[-2.663096,55.133912,520.3],[-2.663245,55.133878,519.6],[-2.663304,55.133825,519.3],[-2.663435,55.13377,519.6],[-2.663516,55.133737,520.2],[-2.663624,55.133613,518.1],[-2.663715,55.133539,521.6],[-2.663929,55.133428,523.8],[-2.66398,55.13339,524.9],[-2.663965,55.133242,525.4],[-2.664004,55.133152,527.9],[-2.663983,55.133133,528.6],[-2.663937,55.133046,533],[-2.663949,55.133013,534.5],[-2.66383,55.132955,532.9],[-2.663829,55.13288,534.5],[-2.663968,55.132834,536.6],[-2.66394,55.132803,533.2],[-2.663791,55.132844,535],[-2.66379,55.132777,537.4],[-2.663724,55.132693,541.6],[-2.66375,55.1327,540.9],[-2.663593,55.132675,543.5],[-2.663664,55.132615,542.2],[-2.663018,55.132524,541.1],[-2.662912,55.132582,544.8],[-2.662679,55.132472,541.5],[-2.66274,55.132389,538.2],[-2.663048,55.132297,530.3],[-2.663196,55.132257,530.4],[-2.663523,55.132093,527.1],[-2.663644,55.132036,526],[-2.663683,55.13203,526.4],[-2.663841,55.132001,525.5],[-2.664242,55.131848,520.5],[-2.664384,55.131794,520.2],[-2.665327,55.131375,509.3],[-2.665459,55.131326,507.9],[-2.665889,55.131104,508],[-2.665997,55.131026,506.1],[-2.66692,55.130632,501.4],[-2.667036,55.130562,501.9],[-2.667848,55.130242,493.4],[-2.667976,55.130189,493.2],[-2.668756,55.129841,486.4],[-2.668895,55.129794,485.2],[-2.669949,55.129328,480.9],[-2.669904,55.129287,481.9],[-2.670061,55.129275,482.9],[-2.671312,55.128702,475.9],[-2.671453,55.128686,477.6],[-2.671679,55.128548,474.7],[-2.671802,55.128481,477.2],[-2.671928,55.128456,477.8],[-2.673224,55.127882,462.2],[-2.673364,55.127832,462.6],[-2.674132,55.127461,464.3],[-2.674285,55.127454,467.5],[-2.674374,55.127376,466.6],[-2.674732,55.127211,462.3],[-2.674873,55.12717,461.3],[-2.675708,55.126782,454.2],[-2.675814,55.126712,456.8],[-2.675956,55.12667,455.6],[-2.67609,55.126612,455.3],[-2.676719,55.126312,451.3],[-2.676848,55.126325,451.7],[-2.677221,55.126131,452.8],[-2.677347,55.126074,454.4],[-2.677655,55.125886,451.1],[-2.677694,55.125794,449.1],[-2.677711,55.125886,444.5],[-2.677707,55.125892,446.8],[-2.677796,55.125811,447.7],[-2.678199,55.125679,440.4],[-2.67836,55.125679,434.7],[-2.678479,55.125617,432.2],[-2.67847,55.125525,431.5],[-2.67846,55.12554,431],[-2.678621,55.125524,437.5],[-2.678666,55.12543,439.4],[-2.678779,55.125359,440.3],[-2.678832,55.125329,438.1],[-2.679221,55.12519,427.7],[-2.679315,55.125207,423.6],[-2.679408,55.125126,427.6],[-2.67968,55.125054,426.5],[-2.679769,55.124968,426.2],[-2.679927,55.124936,425.3],[-2.680741,55.124615,420.4],[-2.680891,55.124589,419.1],[-2.680969,55.124508,421],[-2.68112,55.124462,421.2],[-2.681248,55.124403,420.8],[-2.681355,55.124338,421.5],[-2.682401,55.123891,414.5],[-2.682372,55.123885,416],[-2.682528,55.123863,412.8],[-2.68369,55.12355,399.8],[-2.68384,55.12353,399],[-2.684406,55.123355,396.7],[-2.684564,55.123315,396],[-2.684638,55.123239,395.7],[-2.684785,55.123194,395.4],[-2.684846,55.123189,394.2],[-2.684704,55.123247,395.9],[-2.68463,55.123265,397.6],[-2.684789,55.123254,392.3],[-2.684906,55.123214,390.2],[-2.685062,55.123187,389.1],[-2.685919,55.122924,383.8],[-2.686067,55.122895,383.8],[-2.686187,55.122829,382.2],[-2.68646,55.122739,377.4],[-2.6866,55.122699,376.4],[-2.686754,55.122665,378.9],[-2.686869,55.122667,379.9],[-2.688004,55.12234,373.3],[-2.688155,55.122369,372.8],[-2.688215,55.12244,372.8],[-2.688208,55.122536,374.5],[-2.688211,55.122622,374],[-2.688242,55.122718,375.6],[-2.688272,55.122809,376.9],[-2.688345,55.122891,376.9],[-2.688382,55.12298,376.3],[-2.68841,55.123029,377.9],[-2.688417,55.123217,380.7],[-2.688413,55.123303,380.1],[-2.688385,55.123399,379.3],[-2.688355,55.12349,377.8],[-2.688403,55.123584,378.8],[-2.68848,55.12367,378.4],[-2.688516,55.123766,377.2],[-2.688551,55.123867,375.5],[-2.688674,55.124043,376.4],[-2.688699,55.124136,376.2],[-2.688769,55.124217,376.1],[-2.688888,55.124286,375],[-2.689391,55.124528,373.9],[-2.68948,55.124538,371.9],[-2.689588,55.12446,372.6],[-2.690157,55.124247,370.4],[-2.690307,55.124214,369.1],[-2.691637,55.124008,364.8],[-2.691799,55.123989,364.5],[-2.692935,55.123786,361.7],[-2.693098,55.12376,361.3],[-2.694814,55.123418,356.9],[-2.694963,55.123389,356],[-2.696178,55.123117,348],[-2.696329,55.123087,348.3],[-2.6965,55.123082,347.1],[-2.696654,55.123112,348.3],[-2.696964,55.123339,343.7],[-2.697059,55.123418,342.2],[-2.69744,55.123602,338.6],[-2.697597,55.123632,337.7],[-2.698603,55.123711,335.2],[-2.698763,55.123717,334.9],[-2.69942,55.123656,330.3],[-2.699596,55.123639,331.7],[-2.699739,55.1236,331.4],[-2.699889,55.123563,326.6],[-2.700006,55.123491,327.2],[-2.700123,55.123422,325.8],[-2.700202,55.123331,325.8],[-2.700275,55.123152,324.2],[-2.700317,55.123063,323],[-2.700392,55.122972,323.5],[-2.700465,55.122879,323.6],[-2.700886,55.122489,321.2],[-2.701001,55.12242,320.4],[-2.701502,55.122343,319],[-2.701669,55.122356,317.9],[-2.701814,55.1224,315.4],[-2.701933,55.122466,314.3],[-2.702221,55.122712,311.4],[-2.702331,55.122795,310.2],[-2.702494,55.122823,308.2],[-2.702639,55.122761,308],[-2.702753,55.122573,305.8],[-2.702819,55.122482,304.7],[-2.702961,55.122198,303],[-2.703012,55.122101,304],[-2.703036,55.122001,304],[-2.703055,55.121934,303.1],[-2.703123,55.121847,303.1],[-2.70318,55.121757,305],[-2.703336,55.12144,306],[-2.703406,55.121348,307.9],[-2.703386,55.121314,306.6],[-2.703235,55.12135,307.9],[-2.70312,55.121324,308.5],[-2.703252,55.121384,307.5],[-2.703371,55.121428,306.7],[-2.703278,55.121505,308.5],[-2.703285,55.121596,308.1],[-2.703217,55.121692,308.9],[-2.703152,55.121782,308.9],[-2.703018,55.122054,309],[-2.702982,55.122134,303.6],[-2.70277,55.12249,306.2],[-2.702707,55.122581,306.1],[-2.702594,55.122858,307.2],[-2.702604,55.122959,306.9],[-2.702668,55.123051,306.4],[-2.702749,55.123128,306],[-2.703825,55.123978,309.1],[-2.703919,55.124053,308.7],[-2.704075,55.124223,308.8],[-2.704169,55.124314,309.1],[-2.704228,55.124617,311.5],[-2.704245,55.124714,313.8],[-2.704301,55.124811,312.9],[-2.704351,55.124899,313.3],[-2.704412,55.125085,314.3],[-2.704446,55.125187,312.2],[-2.704526,55.125275,308.6],[-2.704787,55.125382,307.4],[-2.704935,55.12542,305.9],[-2.705253,55.125438,298.6],[-2.705418,55.125462,295.9],[-2.705872,55.125568,293],[-2.706019,55.125607,292.9],[-2.706341,55.125656,288.2],[-2.7065,55.125661,286.6],[-2.706662,55.125647,285.8],[-2.706836,55.12562,285.1],[-2.706975,55.12556,284.9],[-2.707113,55.125511,284.6],[-2.707495,55.125425,281.8],[-2.707664,55.125404,281.5],[-2.708497,55.125378,276],[-2.708654,55.125369,275],[-2.709806,55.125256,266.2],[-2.709981,55.125243,264.2],[-2.711167,55.125192,259.5],[-2.711328,55.125192,259.1],[-2.711996,55.12528,254.6],[-2.712169,55.125309,253.7],[-2.712596,55.125442,250.5],[-2.712729,55.125492,248.5],[-2.712833,55.125559,248],[-2.712938,55.125634,247.3],[-2.71338,55.126163,242.5],[-2.713464,55.126246,244],[-2.713793,55.126454,247.9],[-2.713958,55.126487,246.3],[-2.714593,55.126173,242],[-2.714728,55.12611,241.9],[-2.715397,55.125826,243.9],[-2.715473,55.125785,244.3],[-2.715746,55.125692,244.4],[-2.715914,55.125692,244.7],[-2.715948,55.125594,242.6],[-2.715873,55.125515,240.7],[-2.715711,55.125481,239.6],[-2.715562,55.125441,240.4],[-2.715524,55.125453,241.1],[-2.715698,55.125471,241.2],[-2.715849,55.125517,241.1],[-2.715935,55.125605,242.9],[-2.71588,55.125694,246.2],[-2.715824,55.125727,247.3],[-2.715954,55.12579,246.8],[-2.716045,55.125874,247.4],[-2.716305,55.126224,248.9],[-2.716383,55.126307,248.1],[-2.716923,55.12678,251.9],[-2.717005,55.126849,253.3],[-2.717305,55.127065,258.1],[-2.717367,55.127117,254.2],[-2.717535,55.127119,257.2],[-2.71816,55.126667,257.9],[-2.718285,55.126602,260.5],[-2.718694,55.126435,271.6],[-2.718834,55.126381,271.2],[-2.719246,55.126255,270.7],[-2.719405,55.126235,278.2],[-2.719505,55.126263,276.7],[-2.71958,55.126345,280.6],[-2.719587,55.126448,281.3],[-2.719626,55.126541,287],[-2.719623,55.126833,285.2],[-2.719632,55.126926,285.5],[-2.719697,55.127013,283.9],[-2.719759,55.127108,284.7],[-2.719831,55.127284,287.7],[-2.719883,55.127373,290.6],[-2.720026,55.127407,289.3],[-2.720183,55.127432,283.5],[-2.720326,55.12744,283.1],[-2.7205,55.127443,284.6],[-2.720982,55.12737,291],[-2.721129,55.127327,293.3],[-2.721583,55.127058,296.4],[-2.721686,55.126987,295],[-2.722036,55.126805,298.2],[-2.72208,55.126788,302],[-2.722517,55.126749,305],[-2.722668,55.126748,304.2],[-2.722835,55.126764,304.9],[-2.723128,55.126852,303.3],[-2.723285,55.126878,304.8],[-2.723452,55.126859,306],[-2.72367,55.126734,309.7],[-2.723813,55.126696,310.5],[-2.724323,55.12664,314.6],[-2.724487,55.126625,315.3],[-2.724588,55.126565,315],[-2.724747,55.126567,316.6],[-2.724885,55.126623,316.4],[-2.725333,55.126917,318.8],[-2.725437,55.126991,320.3],[-2.725784,55.127307,323.2],[-2.72588,55.12738,322.2],[-2.725986,55.127451,322],[-2.726098,55.127526,323.4],[-2.72635,55.127644,324.2],[-2.726474,55.127717,324.9],[-2.726613,55.127774,324.9],[-2.726766,55.127808,325.2],[-2.727582,55.127952,324.3],[-2.727749,55.127984,323.3],[-2.728639,55.12825,321.2],[-2.728804,55.128265,320.8],[-2.728967,55.128246,322.2],[-2.729105,55.128198,322.2],[-2.729756,55.12777,321.1],[-2.729877,55.127694,320.1],[-2.73,55.127636,318.9],[-2.730125,55.127579,318.4],[-2.730422,55.127483,318.3],[-2.730579,55.127456,317.6],[-2.732569,55.127325,310.3],[-2.732721,55.127296,307.8],[-2.733401,55.127289,304.8],[-2.733569,55.127282,304.5],[-2.734568,55.127188,296.5],[-2.734725,55.127171,294.8],[-2.735704,55.127212,291.4],[-2.735868,55.127189,291],[-2.736036,55.127228,289.5],[-2.736212,55.127246,289.7],[-2.736386,55.127237,288.5],[-2.736561,55.127213,287.8],[-2.736729,55.12717,287.6],[-2.736885,55.127153,287.1],[-2.737038,55.127182,288.3],[-2.737165,55.127251,288.5],[-2.737217,55.127342,287.1],[-2.737607,55.127757,291.9],[-2.737672,55.127839,292.6],[-2.738129,55.12823,289.4],[-2.738218,55.128312,289.2],[-2.738338,55.128381,288.1],[-2.738531,55.128544,289.2],[-2.738623,55.12863,290.4],[-2.738839,55.128779,289],[-2.738952,55.128842,287.3],[-2.742079,55.128479,271.9],[-2.742237,55.128458,271.4],[-2.742403,55.128446,270.4],[-2.742569,55.128439,270.5],[-2.743398,55.128466,266.1],[-2.743573,55.128457,265.3],[-2.744052,55.128372,260.3],[-2.744209,55.128331,259.4],[-2.744345,55.128274,258],[-2.744473,55.128208,257.4],[-2.744706,55.128063,257.1],[-2.744831,55.128005,257.1],[-2.745294,55.127888,262],[-2.745453,55.127858,260.9],[-2.745978,55.127634,263.4],[-2.745997,55.127623,263.2],[-2.74617,55.127605,263.6],[-2.746272,55.127532,262.4],[-2.746346,55.127452,261.3],[-2.746411,55.127365,259.7],[-2.746519,55.12718,257.9],[-2.746575,55.127085,256.7],[-2.746954,55.126558,253.8],[-2.747004,55.12647,252.2],[-2.747272,55.126133,247.2],[-2.747349,55.126041,248.1],[-2.748085,55.124967,244.6],[-2.748146,55.12488,244.6],[-2.748616,55.124251,241.3],[-2.748678,55.124159,240.4],[-2.749462,55.123191,232.8],[-2.749525,55.123095,232.4],[-2.749824,55.122756,229.6],[-2.749907,55.12267,229.7],[-2.750465,55.121977,224.7],[-2.750521,55.121893,224.6],[-2.751753,55.120435,214.2],[-2.751822,55.120352,213.8],[-2.751991,55.120186,211.8],[-2.7521,55.120107,210],[-2.752506,55.119928,209.1],[-2.752665,55.119889,208.5],[-2.752783,55.119824,208.6],[-2.753081,55.119567,205]]}}]}