{"type":"FeatureCollection","features":[{"type":"Feature","properties":{"name":"20260412 Walking","time":"2026-04-12T08:04:49Z"},"geometry":{"type":"LineString","coordinates":[[-2.46264192,55.18782976,190],[-2.46266427,55.187845,190.2],[-2.46267213,55.18784881,190.26],[-2.4626312,55.18781451,191],[-2.4626262,55.18780307,191],[-2.46263335,55.18784879,191.53],[-2.46263264,55.1878526,191.66],[-2.46260406,55.1878869,192.33],[-2.46260501,55.18789452,192.46],[-2.46268769,55.18793643,193],[-2.46270271,55.18794405,193],[-2.46334389,55.1880774,194],[-2.463362,55.18808121,194],[-2.46346113,55.18814218,196.4],[-2.46347281,55.1881498,196.66],[-2.46354667,55.18823368,198],[-2.46355191,55.18824512,198],[-2.46356167,55.18837857,199.4],[-2.46356144,55.18839382,199.6],[-2.46360431,55.18849678,201],[-2.46361003,55.18850822,201],[-2.46360003,55.18856542,201],[-2.4635986,55.18857686,201],[-2.46362194,55.18865311,201],[-2.46363362,55.18866073,201],[-2.46384434,55.18869883,201],[-2.46386532,55.18870264,201],[-2.46437541,55.18874074,202.46],[-2.46439281,55.18874074,202.6],[-2.46492364,55.18885504,204.4],[-2.46494652,55.18886266,204.46],[-2.46544542,55.18893124,206],[-2.46547212,55.18893505,206],[-2.46771307,55.18899982,200.2],[-2.46771402,55.18899601,200.4],[-2.4678496,55.18907985,202],[-2.46786295,55.18908366,202],[-2.46785009,55.18909128,202],[-2.46783794,55.18910272,202],[-2.46785389,55.18910653,202],[-2.46785627,55.18911034,202],[-2.46809654,55.18916368,201.33],[-2.46812228,55.1891713,201.26],[-2.46837444,55.18926655,201.66],[-2.46838707,55.18927036,201.73],[-2.4688847,55.1896364,201.2],[-2.46889924,55.18964784,201],[-2.46894166,55.18969741,200.2],[-2.46895238,55.18971266,200.13],[-2.46917498,55.189869,199.8],[-2.46918928,55.18988044,199.6],[-2.46947172,55.19013208,197.33],[-2.46948888,55.19014733,197.2],[-2.4698407,55.19037229,195.53],[-2.46986478,55.19038373,195.46],[-2.47060255,55.19057043,196.46],[-2.47062829,55.19057805,196.73],[-2.47241917,55.19090952,206.06],[-2.47244348,55.19091333,205.93],[-2.47317356,55.19115337,206.26],[-2.47319764,55.19116099,206.33],[-2.4738775,55.191241,209],[-2.47390682,55.191241,209.06],[-2.47408727,55.19128291,209],[-2.47411015,55.19128672,209],[-2.47418786,55.19132102,209],[-2.47420216,55.19133246,209],[-2.47430174,55.19147734,207.8],[-2.47430079,55.19148496,207.66],[-2.47444307,55.19135535,207.53],[-2.47445975,55.19134391,207.6],[-2.47457394,55.19130961,207.93],[-2.47459658,55.1913058,208],[-2.47681343,55.19135914,212.4],[-2.47683727,55.19135914,212.2],[-2.4783583,55.19165251,211.33],[-2.47838357,55.19165632,211.26],[-2.47966863,55.19198017,209.13],[-2.47969199,55.19198779,209.2],[-2.47988721,55.19208311,209.86],[-2.47990699,55.19209455,210],[-2.48015485,55.19232331,210.86],[-2.48016653,55.19233475,211.13],[-2.48023802,55.1923538,212.46],[-2.48023945,55.1923538,212.73],[-2.48029615,55.19243004,213],[-2.48030044,55.19244148,213],[-2.48031829,55.1925673,213.53],[-2.48032401,55.19257492,213.66],[-2.48057444,55.19276166,215.26],[-2.48058564,55.1927731,215.4],[-2.48095594,55.19322684,220],[-2.48095665,55.19322684,219.8],[-2.4810057,55.19336028,220.4],[-2.48101261,55.19337553,220.6],[-2.48119913,55.1936996,223.8],[-2.48120151,55.19370722,224],[-2.48117843,55.19383685,225],[-2.48117653,55.19384829,225],[-2.48117939,55.19406182,230],[-2.48118058,55.19407707,230],[-2.48126247,55.19446597,230.86],[-2.48127033,55.19448504,231.13],[-2.48161017,55.19490827,234],[-2.48162161,55.19492352,234],[-2.48209204,55.19538109,235.4],[-2.48210276,55.19539253,235.6],[-2.48233984,55.19572807,239],[-2.48234794,55.19573951,239],[-2.48235413,55.19576619,239],[-2.48234961,55.19578144,239],[-2.48230364,55.19575858,237.93],[-2.4823065,55.1957662,237.8],[-2.48240205,55.1958615,237.53],[-2.48240991,55.19586912,237.66],[-2.48249449,55.19604452,238.86],[-2.48250211,55.19605596,238.73],[-2.48266226,55.19622374,239],[-2.48267871,55.19623518,239],[-2.48349271,55.19663552,234.13],[-2.48351249,55.19664696,234.26],[-2.48363046,55.19673085,234.4],[-2.48364667,55.19674229,234.4],[-2.48377036,55.19686811,234.13],[-2.48378132,55.19688336,234.26],[-2.48389947,55.19711594,236],[-2.4839059,55.19713119,236],[-2.48398476,55.19735234,236],[-2.48398928,55.19736759,236],[-2.48401854,55.19756584,235.4],[-2.48401973,55.19758109,235.33],[-2.48407573,55.19763447,235.06],[-2.48408335,55.19764591,235],[-2.48410049,55.1977298,234.8],[-2.48410311,55.19774505,234.73],[-2.48408976,55.19787851,234.2],[-2.48408762,55.19789376,234.13],[-2.48410497,55.1982369,231],[-2.48410592,55.19825597,230.86],[-2.48420204,55.19881262,226.86],[-2.4842037,55.19882787,226.73],[-2.48427767,55.20021949,219.4],[-2.48427838,55.20023474,219.53],[-2.4843255,55.20042538,221],[-2.48432812,55.20043682,221],[-2.48429366,55.20102016,219.8],[-2.48429556,55.2010316,219.86],[-2.48433965,55.20107354,220],[-2.48435133,55.20107735,220],[-2.48470217,55.2010964,221],[-2.48471623,55.2010964,221],[-2.48479103,55.20114974,221],[-2.48480414,55.20115355,221],[-2.48490113,55.20114593,221],[-2.48490709,55.20114593,221],[-2.48494902,55.2012031,220.06],[-2.48495974,55.20121454,219.93],[-2.48505889,55.20125645,219],[-2.48506365,55.20126026,219],[-2.485016,55.20127931,219],[-2.4850079,55.20127931,219],[-2.48506316,55.20133647,219],[-2.48506554,55.20134409,219],[-2.48504292,55.20145463,219.13],[-2.48504864,55.20146225,219.2],[-2.48515851,55.20153084,220],[-2.48516995,55.20153846,220],[-2.48530411,55.2015537,220],[-2.48530887,55.20155751,220],[-2.48543608,55.20172138,219.33],[-2.48544776,55.20173663,219.4],[-2.48551808,55.20177092,219.73],[-2.48552547,55.20177854,219.8],[-2.48556262,55.20191578,219],[-2.48557239,55.20192722,218.8],[-2.48573232,55.20201104,217],[-2.48574257,55.20201866,216.93],[-2.48580096,55.20202247,216.6],[-2.48581097,55.20202628,216.53],[-2.4858674,55.20212154,215.46],[-2.48587073,55.20212916,215.2],[-2.48606444,55.20233499,210.4],[-2.4860704,55.20234261,210.26],[-2.48607709,55.20242267,211],[-2.48607899,55.20243029,211.2],[-2.48603276,55.20243029,212],[-2.48601417,55.2024341,212.2],[-2.48595151,55.20248744,212.2],[-2.48594937,55.20249125,212],[-2.48599744,55.20264752,210.46],[-2.48600101,55.20265514,210.6],[-2.48587376,55.20266276,212.2],[-2.48586518,55.20266276,212.33],[-2.48572339,55.20259418,213.66],[-2.48571052,55.20258656,213.73],[-2.48531057,55.20247988,216.46],[-2.4852884,55.20247226,216.53],[-2.48495899,55.20244178,217.66],[-2.48493944,55.20244178,217.73],[-2.48467867,55.20248369,219.8],[-2.48465889,55.2024875,220],[-2.48441125,55.20260182,222.53],[-2.48439695,55.20260944,222.73],[-2.48428685,55.20270094,224],[-2.48427398,55.20270856,224],[-2.4841644,55.20293734,225],[-2.48416059,55.20294878,225],[-2.48422073,55.20357408,227.6],[-2.48422311,55.20358933,227.4],[-2.48426624,55.20363508,226.6],[-2.48428412,55.2036427,226.4],[-2.48441615,55.20359698,226],[-2.48442377,55.20358936,226],[-2.48444902,55.20355126,226],[-2.48444664,55.20355126,226],[-2.4842498,55.2036389,229],[-2.48422286,55.20364271,229],[-2.48418639,55.20363128,229],[-2.48417853,55.20362366,229],[-2.48417592,55.20357413,229],[-2.48417615,55.20357032,229],[-2.48420354,55.20360081,229.53],[-2.48420377,55.20360081,229.66],[-2.48420306,55.20366181,230.33],[-2.48420092,55.20368088,230.46],[-2.48410326,55.2039745,233.06],[-2.48409826,55.20398975,233.46],[-2.48402154,55.20413464,236.86],[-2.48401368,55.20414989,236.8],[-2.48375515,55.20451212,240.53],[-2.48374657,55.20452737,240.8],[-2.48323635,55.20507264,249.26],[-2.4832261,55.20508408,249.66],[-2.48317582,55.20514509,251],[-2.48316748,55.20515653,251],[-2.48316628,55.20519464,251],[-2.48316128,55.20520226,251],[-2.48241133,55.20592668,258.66],[-2.48240084,55.20593812,258.73],[-2.48227454,55.20603722,259.53],[-2.48226143,55.20604866,260.06],[-2.48159601,55.20646037,261.46],[-2.4815717,55.20647181,261.26],[-2.48143205,55.20659001,260],[-2.48142037,55.20660145,260],[-2.48122998,55.20687216,263],[-2.48122164,55.2068836,263],[-2.48109108,55.20713906,262],[-2.48108536,55.2071505,262],[-2.48107513,55.2072382,262.66],[-2.48107204,55.20724964,263.13],[-2.48084141,55.20759281,266.06],[-2.48083426,55.20760425,265.79],[-2.48051069,55.20819907,268],[-2.4805045,55.20821051,268],[-2.48049616,55.20828295,272],[-2.48048973,55.20829439,272.66],[-2.47953337,55.20957942,282.26],[-2.47952265,55.20959086,282],[-2.47921354,55.20983104,286.06],[-2.47919948,55.20984248,286.06],[-2.47896353,55.20996444,290.06],[-2.47894589,55.20997206,290.33],[-2.47726822,55.21035687,287.93],[-2.47724367,55.21036068,287.73],[-2.47702698,55.21041783,286],[-2.47700624,55.21042164,286],[-2.47682131,55.21050166,286.86],[-2.47680749,55.21050547,286.93],[-2.47639488,55.21057786,289],[-2.47637176,55.21058167,289.33],[-2.47626926,55.21062359,291],[-2.47625186,55.21063121,291.13],[-2.47619395,55.21069222,291.53],[-2.47619062,55.21070366,291.6],[-2.47626353,55.2108028,290],[-2.47627855,55.21081424,289.86],[-2.47644373,55.21089046,289.46],[-2.4764628,55.2109019,289.53],[-2.47745652,55.21128293,284],[-2.47748298,55.21129055,284],[-2.47767818,55.21138581,282],[-2.4776932,55.21139343,281.86],[-2.47901918,55.21181635,277.26],[-2.47903849,55.21182016,277],[-2.47971969,55.21212884,271.06],[-2.47973637,55.21213646,270.93],[-2.48060399,55.21270837,266.79],[-2.48061877,55.21271599,266.66],[-2.48103658,55.21303247,264.86],[-2.48104635,55.21304391,264.79],[-2.48106563,55.21312779,264.79],[-2.48106777,55.21314304,264.86],[-2.48104346,55.21319261,265.13],[-2.4810375,55.21320405,265.2],[-2.48081563,55.21336799,266],[-2.4807999,55.21337943,266],[-2.48078203,55.21342137,266],[-2.48079323,55.21342518,266],[-2.48080157,55.21342518,266],[-2.48082374,55.21342518,266],[-2.48101747,55.21325743,263.46],[-2.48103344,55.21324599,263.33],[-2.48119577,55.21323075,262.4],[-2.48122128,55.21323456,262.26],[-2.48135618,55.2132841,262],[-2.48137549,55.21329172,262],[-2.48146939,55.21335653,262],[-2.48147749,55.21336034,262],[-2.48200985,55.21380257,259.53],[-2.48202653,55.21380638,259.6],[-2.48224791,55.21358907,260],[-2.48226293,55.21357763,260],[-2.48238803,55.21349377,261.46],[-2.48239899,55.21348615,261.6],[-2.48251292,55.21344424,262],[-2.48253366,55.21344043,262],[-2.48290382,55.2134671,260.4],[-2.48292718,55.2134671,260.26],[-2.48339439,55.21354711,260],[-2.4834013,55.21355092,260],[-2.48354622,55.2135433,260],[-2.483566,55.2135433,260],[-2.48367871,55.21350901,260],[-2.48369563,55.2135052,260],[-2.48373779,55.21353568,260],[-2.48374446,55.21353949,260],[-2.48390177,55.2135433,259.46],[-2.48391988,55.2135433,259.4],[-2.48444595,55.21347853,260.73],[-2.48447003,55.21347472,260.86],[-2.48542753,55.21320421,258.13],[-2.48544684,55.2132004,258.06],[-2.4855977,55.21313944,258],[-2.48561939,55.21313182,257.93],[-2.48562274,55.21311277,257.53],[-2.48564801,55.2130937,257.46],[-2.48569329,55.21308989,257.06],[-2.48570449,55.21308608,257],[-2.48573211,55.2130251,257],[-2.48573926,55.21301366,257],[-2.48576667,55.21300223,257.13],[-2.48578073,55.21299842,257.2],[-2.48568828,55.21290314,258],[-2.48568566,55.21290314,258],[-2.48575071,55.21286885,258],[-2.48576096,55.21286123,258],[-2.48577144,55.21284599,258],[-2.48577358,55.21283837,258],[-2.48575404,55.21282694,258],[-2.48575381,55.21282313,258],[-2.48578073,55.21283075,258],[-2.48578311,55.21283075,258],[-2.4857843,55.21283837,258],[-2.48578192,55.21286888,258],[-2.48580429,55.21286507,257.79],[-2.48580738,55.21286888,257.73],[-2.48579524,55.21289555,257.2],[-2.48579857,55.21290699,257.2],[-2.48585839,55.21295272,257.46],[-2.4858715,55.21296034,257.53],[-2.48603376,55.21297558,258],[-2.48603638,55.21297558,258],[-2.48605306,55.21292603,258],[-2.48604782,55.21291841,258],[-2.48590982,55.2128765,258],[-2.48589433,55.21287269,258],[-2.48584501,55.21288031,258],[-2.48584548,55.21288412,258],[-2.48585597,55.21289556,258],[-2.48585954,55.21289937,258],[-2.4859103,55.21288413,258],[-2.48592293,55.21288413,258],[-2.48598011,55.21283841,258],[-2.48570593,55.21277357,258],[-2.48558057,55.21278881,258],[-2.48557128,55.21279262,258],[-2.48557483,55.21282692,258],[-2.48557792,55.21283454,258.06],[-2.48553646,55.21286121,258.4],[-2.48552097,55.21286121,258.46],[-2.48536962,55.21280025,259],[-2.48535103,55.21279263,259],[-2.48530028,55.21280025,259.06],[-2.48528431,55.21280787,259.13],[-2.48506745,55.21273548,259.79],[-2.48507102,55.21273167,259.73],[-2.48513845,55.21276215,259.06],[-2.48514703,55.21276215,259],[-2.48526451,55.21272024,259],[-2.48527571,55.21272405,259],[-2.48540674,55.21285744,258.13],[-2.48541508,55.21286506,258.06],[-2.4854751,55.21298704,258],[-2.48548272,55.21299466,258],[-2.48560379,55.21302514,258],[-2.48561594,55.21303276,258],[-2.48566856,55.21311278,257.33],[-2.48567666,55.21311659,257.26],[-2.485756,55.21303271,257],[-2.48575886,55.21302509,257],[-2.48573625,55.21294505,257.46],[-2.48573602,55.21294124,257.53],[-2.48578727,55.21292981,257.79],[-2.48580324,55.21292981,257.86],[-2.48585303,55.21288027,258],[-2.48586256,55.21287265,258],[-2.48609089,55.21288789,258],[-2.48610972,55.2128917,258],[-2.48619004,55.21287646,258],[-2.48620005,55.21286884,258],[-2.48618315,55.21282692,258],[-2.48617958,55.21282311,258],[-2.48602421,55.21279644,258],[-2.48602921,55.21279263,258],[-2.48627419,55.21287264,259],[-2.48628706,55.21287645,259],[-2.48645914,55.21286121,259],[-2.48647249,55.2128574,259],[-2.48659903,55.21287645,259],[-2.48659641,55.21288026,259],[-2.48660832,55.21282309,259],[-2.4866057,55.21281547,259],[-2.48651399,55.21270878,259],[-2.48651066,55.21270497,259],[-2.48636815,55.21276974,259],[-2.48635671,55.21276593,259],[-2.48654239,55.21276593,259],[-2.48655836,55.21277355,259],[-2.48658649,55.21278879,259],[-2.48659006,55.21280023,259],[-2.48655647,55.21286501,259],[-2.48656576,55.21287263,259],[-2.48676739,55.21287263,259.73],[-2.48677859,55.21287263,259.79],[-2.48687034,55.21284977,260],[-2.48687987,55.21284977,260],[-2.48692797,55.21276211,260],[-2.48693989,55.21275449,260],[-2.48705261,55.21275068,260],[-2.48706596,55.21274687,260.13],[-2.48692634,55.21258295,261.53],[-2.48691156,55.21257533,261.46],[-2.48671302,55.21250675,260.66],[-2.48669729,55.21250294,260.6],[-2.48639174,55.2124496,260],[-2.48638054,55.21244579,260],[-2.48635244,55.21238483,261.4],[-2.48634887,55.21238102,261.6],[-2.48627047,55.21235435,262.53],[-2.48626118,55.21234673,262.46],[-2.48626189,55.21232387,262.26],[-2.48626166,55.21230099,262.2],[-2.48623,55.21227432,262],[-2.48622238,55.21227051,262],[-2.48579584,55.21214097,261.33],[-2.48578416,55.21213716,261.2],[-2.48562855,55.21213335,260.33],[-2.48561568,55.21213335,260.66],[-2.48535167,55.2120381,262],[-2.48534118,55.21203429,262],[-2.4850826,55.212,259],[-2.48507188,55.212,259],[-2.48481022,55.2120381,255],[-2.48480093,55.21204191,255],[-2.4847164,55.21188187,255],[-2.48471068,55.21187425,255],[-2.48465514,55.21185901,255],[-2.48464609,55.2118552,255.4],[-2.48466609,55.21183234,258.2],[-2.48466109,55.21182853,258.6],[-2.48454026,55.21179424,261],[-2.48453121,55.21179043,261],[-2.48453313,55.21175614,261],[-2.48453147,55.21175233,261],[-2.48448191,55.21173328,261],[-2.48447333,55.21172566,260.73],[-2.48442733,55.21171042,259.66],[-2.48441589,55.21170661,259.4],[-2.4843034,55.21171423,257],[-2.4842984,55.21171423,257],[-2.48423243,55.21165327,257],[-2.48422671,55.21164946,257],[-2.48406923,55.21166089,254.6],[-2.48405755,55.21165708,254.33],[-2.48397846,55.21156562,253],[-2.48396678,55.211558,253],[-2.48395534,55.211558,253],[-2.48394795,55.21156562,253],[-2.48395627,55.21158848,253],[-2.48397081,55.21160373,253],[-2.48398152,55.21160373,253.6],[-2.48398748,55.21159229,254.2],[-2.48395558,55.21155419,259],[-2.48394462,55.21154657,259.6],[-2.48378162,55.21148942,258.79],[-2.48377066,55.21148561,258.53],[-2.48358145,55.21149704,258],[-2.48358074,55.21149704,258],[-2.48351641,55.21147037,256.66],[-2.48350712,55.21146656,256.53],[-2.48334816,55.21146275,256],[-2.48334077,55.21146275,256],[-2.48323688,55.21141703,253.8],[-2.48322353,55.21141322,253.6],[-2.48317754,55.21143228,253],[-2.48316157,55.21143609,253],[-2.48316656,55.21142466,253],[-2.4831606,55.21141704,253],[-2.48301976,55.21133322,253.46],[-2.48301142,55.21132941,253.93],[-2.48297737,55.21124559,257.86],[-2.48297213,55.21124178,257.6],[-2.48273718,55.21118844,256],[-2.48273266,55.21118463,256],[-2.48276815,55.21113891,256],[-2.48276862,55.21113129,256],[-2.48272979,55.21111605,256],[-2.48272479,55.21111224,256],[-2.48271051,55.21107795,256],[-2.48271146,55.21107795,256],[-2.48269002,55.21108557,256],[-2.48268883,55.21108557,256],[-2.48265002,55.21101699,255.73],[-2.48264597,55.21101318,255.8],[-2.4826174,55.2108722,257],[-2.48261502,55.21086458,257],[-2.4825674,55.21077314,257.13],[-2.48256574,55.21076933,257.2],[-2.48256979,55.21069692,257.93],[-2.48256884,55.21069311,258],[-2.48253576,55.21064358,258],[-2.4825341,55.21063596,258],[-2.4827818,55.21030827,258],[-2.48278799,55.21030065,258],[-2.4829194,55.21004919,257],[-2.48292297,55.21004157,257],[-2.48298562,55.20999585,257],[-2.48299134,55.20999204,257],[-2.48303419,55.20991202,257.4],[-2.48304682,55.20990058,257.33],[-2.48322674,55.20985867,256.53],[-2.4832408,55.20985486,256.53],[-2.48335853,55.20985867,256.13],[-2.48336949,55.20985486,256.26],[-2.48389921,55.20951577,254],[-2.48390588,55.20950815,254],[-2.48393802,55.20941671,254],[-2.48393968,55.20941671,254],[-2.48393633,55.2093405,252.6],[-2.48393704,55.20933288,252.6],[-2.48402757,55.20928716,253.8],[-2.48403233,55.20928335,254],[-2.48404136,55.20923382,254],[-2.48404326,55.20923001,254],[-2.48408923,55.20918047,254],[-2.48409161,55.20917666,254],[-2.48407517,55.20914998,254],[-2.48407112,55.20914998,254],[-2.4840992,55.20913474,254],[-2.48410086,55.20912712,254],[-2.48409512,55.20903947,254],[-2.48409346,55.20903185,254],[-2.48402985,55.20897086,254],[-2.48402819,55.20896705,254],[-2.48408152,55.20889085,254],[-2.48408581,55.20888323,254],[-2.48407319,55.2086813,252],[-2.48406795,55.20868511,252],[-2.48408555,55.20863939,252],[-2.48408817,55.20863177,252],[-2.48422606,55.20841079,250.6],[-2.48423368,55.20840317,251.2],[-2.48442976,55.20833459,256],[-2.48443309,55.20832697,256],[-2.48442976,55.20821265,252.53],[-2.48443047,55.20820121,252.26],[-2.48438782,55.2081593,252],[-2.48438449,55.20815168,252],[-2.4843769,55.20804497,252],[-2.48437381,55.20803735,252],[-2.48432831,55.20800687,252],[-2.4843276,55.20799925,252],[-2.48440976,55.20788111,252],[-2.48441285,55.2078773,252],[-2.48440858,55.20782015,252],[-2.48441048,55.20781253,252],[-2.48444408,55.20778205,252],[-2.48444694,55.20777443,252],[-2.48438955,55.20769442,252],[-2.48439145,55.2076868,252],[-2.48450823,55.20764108,252],[-2.48452062,55.20764108,252],[-2.48465876,55.20752677,252],[-2.48466734,55.20752296,252],[-2.4847784,55.20749629,252.26],[-2.4847896,55.20749248,252.33],[-2.48502954,55.20737437,252.46],[-2.48504146,55.20736675,252.46],[-2.4851089,55.20737056,254.93],[-2.48511176,55.20737437,255.13],[-2.48514369,55.20734389,255.73],[-2.48514941,55.20733627,255.46],[-2.48517179,55.20735151,253.06],[-2.4851818,55.2073477,252.8],[-2.48503403,55.20729815,252],[-2.48501949,55.20729053,252],[-2.48496851,55.20720287,252],[-2.48496613,55.20719525,252],[-2.48498541,55.2071762,252],[-2.4849947,55.20716858,252],[-2.48497352,55.2071381,252],[-2.48497423,55.20713048,252],[-2.48502275,55.20701618,252],[-2.48502394,55.20701237,252],[-2.48501756,55.20691712,252],[-2.48501803,55.20691331,252],[-2.48505971,55.20690188,252],[-2.48506638,55.20689807,252],[-2.48503636,55.2068714,252],[-2.48502683,55.20686759,252],[-2.48498942,55.20685997,252],[-2.48497536,55.20685997,251.86],[-2.48492581,55.20689045,250.8],[-2.48491485,55.20689426,250.66],[-2.48482429,55.20690569,250],[-2.48481357,55.2069095,250],[-2.48468916,55.20689426,249.6],[-2.48467963,55.20689045,249.46],[-2.48454163,55.20690188,248],[-2.48453973,55.20690188,248],[-2.4844971,55.20692093,248],[-2.48449639,55.20692093,248],[-2.48449592,55.20695522,248],[-2.48449639,55.20696284,248],[-2.48446875,55.20697427,248],[-2.48445397,55.20697046,248],[-2.48444015,55.20699714,248],[-2.48443872,55.20699714,248],[-2.4844611,55.20700095,248],[-2.48446133,55.20700095,248],[-2.48443204,55.20702381,247],[-2.48442394,55.20702762,246.66],[-2.48429454,55.20700476,243],[-2.48428405,55.20700095,243],[-2.48422805,55.20701619,243],[-2.48422019,55.20701619,243],[-2.48412396,55.20693237,241.2],[-2.48412301,55.20692856,240.6],[-2.48400626,55.2069057,234],[-2.48400388,55.20690189,234],[-2.48402173,55.20684855,241.2],[-2.48402387,55.20684474,241.8],[-2.48408795,55.20684093,239.33],[-2.48411226,55.20683712,238.6],[-2.4841201,55.20678376,229.33],[-2.48411653,55.20677995,228.8],[-2.48400716,55.20679138,224],[-2.48400025,55.20679519,224],[-2.48402,55.20674947,224],[-2.48401667,55.20674185,224],[-2.4838811,55.20671899,224],[-2.4838811,55.20673424,224],[-2.48391468,55.20671519,224],[-2.48391254,55.20671138,224],[-2.48369976,55.20674186,222.6],[-2.48370119,55.20674567,222.8],[-2.48385704,55.20672281,224],[-2.483863,55.20672281,224],[-2.48395593,55.20674948,224],[-2.48395522,55.20675329,224],[-2.48392304,55.20673424,224],[-2.4839209,55.20673805,224],[-2.48392972,55.20672281,224],[-2.48393019,55.20672281,224],[-2.48389373,55.20673043,223.2],[-2.48387943,55.20673043,223],[-2.48372476,55.2066809,221.8],[-2.48371809,55.20667709,222],[-2.48373881,55.20662756,223.6],[-2.483745,55.20661994,223.8],[-2.48379741,55.20661232,224],[-2.48379836,55.20661232,224],[-2.48384671,55.20665804,224],[-2.4838479,55.20665804,224],[-2.48382506,55.20670377,224],[-2.48382363,55.20670758,224],[-2.48385339,55.20665805,224],[-2.48385601,55.20665424,224],[-2.48375977,55.20662757,221.2],[-2.48374881,55.20663138,221],[-2.48362467,55.20671521,222],[-2.48361633,55.20671902,222.33],[-2.48353485,55.20682572,224],[-2.48352508,55.20683334,223.8],[-2.48343332,55.20686001,223],[-2.48342021,55.20686382,223],[-2.48335468,55.20691335,223],[-2.48335159,55.20692097,223.2],[-2.48335088,55.20692859,223.4],[-2.48335326,55.20694384,223.6],[-2.48341926,55.20696289,225.2],[-2.48343261,55.2069667,225.4],[-2.48355749,55.20695527,226],[-2.48356845,55.20695527,226],[-2.48358369,55.20697051,226],[-2.48358179,55.20697813,226],[-2.48359084,55.20695145,226],[-2.48359203,55.20695145,226],[-2.48357725,55.20695526,226],[-2.48357082,55.20695907,226],[-2.4836094,55.20697812,226],[-2.48363014,55.20698193,226],[-2.48362966,55.20700479,226],[-2.48363037,55.20701241,226],[-2.48360845,55.20702003,226],[-2.48359582,55.20702765,226],[-2.4836513,55.20702384,226],[-2.48365463,55.20702384,226],[-2.48367297,55.20694764,226],[-2.48367535,55.20694383,226],[-2.48364367,55.20689048,228.13],[-2.4836501,55.20688286,228.66],[-2.48372993,55.20686,232.93],[-2.48374304,55.20685619,233.46],[-2.48380834,55.20686762,234],[-2.48384362,55.20687906,233.46],[-2.48373089,55.20686001,226],[-2.48372064,55.20685239,226],[-2.48330475,55.2068562,223.4],[-2.48329522,55.2068562,223.6],[-2.48352141,55.20684858,223.33],[-2.4835307,55.20684477,223],[-2.48368652,55.20665041,221],[-2.48369152,55.20664279,221],[-2.48369272,55.20660469,221],[-2.48368796,55.20659707,221],[-2.48362912,55.20656278,221],[-2.48362746,55.20655897,221],[-2.48358149,55.20657421,221],[-2.48357911,55.20657421,221],[-2.48361177,55.20658564,221],[-2.48360176,55.20659326,221],[-2.48362702,55.2065704,221],[-2.4836325,55.20656278,221],[-2.48358867,55.20655517,221],[-2.48357413,55.20654755,221],[-2.48360772,55.20656279,221],[-2.48362035,55.20657804,221],[-2.48364892,55.20652468,220.86],[-2.48364869,55.20652468,220.73],[-2.48368799,55.20653992,220.6],[-2.48370157,55.20654373,220.6],[-2.48374709,55.20652468,220.6],[-2.48375686,55.20650561,220.6],[-2.48356981,55.20657419,221],[-2.48356171,55.206578,221],[-2.48350308,55.206578,221],[-2.48349236,55.20658181,221],[-2.48348545,55.20654367,221],[-2.4834845,55.20654748,221],[-2.48361415,55.20652462,221],[-2.48362678,55.20652081,221],[-2.48361581,55.20649033,221],[-2.48361628,55.20649033,221],[-2.4835915,55.20649414,221],[-2.48358602,55.20649033,221],[-2.48363128,55.20645985,221],[-2.48364177,55.20645604,221],[-2.48372826,55.20645985,221],[-2.48373326,55.20646366,221],[-2.48369895,55.20644841,221],[-2.483698,55.2064446,221],[-2.4837473,55.20636078,219.8],[-2.4837492,55.20634934,219.8],[-2.48373301,55.20618928,223],[-2.48373372,55.20618166,222.66],[-2.48379897,55.20604449,221],[-2.48379659,55.20604449,221],[-2.48381232,55.20604068,221],[-2.48381398,55.20604068,221],[-2.48383683,55.20609021,220.8],[-2.4838435,55.20609783,220.6],[-2.48389974,55.20611688,219.8],[-2.48391738,55.20612069,219.6],[-2.48411474,55.20609402,218],[-2.48413214,55.20609021,218],[-2.48430398,55.20610164,218.93],[-2.48431804,55.20610164,219],[-2.48448533,55.20602925,218.46],[-2.48449868,55.20602544,218.4],[-2.4845349,55.20591112,218],[-2.48454324,55.20589968,218],[-2.48483613,55.20572822,216.2],[-2.48484733,55.2057206,216],[-2.48485043,55.2056558,215.13],[-2.48485543,55.20564818,215.06],[-2.48492073,55.20560246,215],[-2.48493074,55.20559484,215],[-2.485032,55.20543475,213.26],[-2.485037,55.20542331,213.13],[-2.4850856,55.20539664,213],[-2.48510324,55.2053852,213],[-2.4850873,55.20539282,213],[-2.48508611,55.20539282,213],[-2.48505727,55.20533183,213],[-2.48505179,55.20532039,213],[-2.48506368,55.20520223,213.33],[-2.48506391,55.20519461,213.4],[-2.4850027,55.20509173,214],[-2.48499961,55.20508411,214],[-2.4850272,55.20498123,214],[-2.48502863,55.20496979,214],[-2.48500195,55.20493931,214],[-2.48499766,55.20493169,214],[-2.48499765,55.20488976,214.33],[-2.48500694,55.20489357,214.66],[-2.48484012,55.20492406,216.33],[-2.48483965,55.20492025,216],[-2.48510127,55.2047907,216],[-2.48511319,55.20478689,216],[-2.48512484,55.20469545,212.8],[-2.48512889,55.20468401,212.53],[-2.48516488,55.20465352,212.26],[-2.48516583,55.20465352,212.33],[-2.48517251,55.20460779,212.8],[-2.48517584,55.20459635,212.86],[-2.48525426,55.20454681,213],[-2.48526403,55.20453919,213],[-2.48527023,55.2044744,213],[-2.48527452,55.20446678,213],[-2.48534482,55.20437914,211.6],[-2.48535316,55.20437152,211.4],[-2.48544372,55.20436009,211.93],[-2.48544395,55.20436009,212.2],[-2.48538582,55.20430293,214],[-2.48537915,55.20429531,214],[-2.48539986,55.20418862,214],[-2.48540152,55.204181,214],[-2.48533247,55.20408956,213.33],[-2.48533318,55.20408194,213.2],[-2.48542517,55.20401334,212],[-2.48543113,55.20400572,212],[-2.48544564,55.20395618,212],[-2.48544873,55.20394856,212],[-2.48553377,55.20384949,212],[-2.48554044,55.20384187,212],[-2.48556139,55.20376947,212],[-2.48556806,55.20376185,212],[-2.48572316,55.20372375,210],[-2.48573508,55.20371994,210.13],[-2.48560575,55.20356369,212],[-2.48559741,55.20355607,212],[-2.48550922,55.20354464,212],[-2.48549611,55.20354083,212],[-2.48545729,55.20349892,212],[-2.4854561,55.2034913,212],[-2.48547968,55.20343033,212],[-2.48547945,55.20342271,212],[-2.48550876,55.20340747,212],[-2.48551543,55.20340366,212],[-2.48567724,55.20341509,212],[-2.4856789,55.20341128,212],[-2.48562719,55.20336556,211.6],[-2.48562719,55.20335412,211.46],[-2.48570747,55.20324358,210.4],[-2.48571414,55.20323596,210.4],[-2.48572009,55.2032169,210.4],[-2.4857208,55.20320546,210.4],[-2.48569125,55.20317117,210.4],[-2.48568982,55.20315973,210.26],[-2.48572147,55.2030759,211.2],[-2.4857229,55.20306828,211.33],[-2.48566481,55.2029997,210.66],[-2.48566862,55.20299208,210.53],[-2.48596435,55.20284349,209.13],[-2.4859765,55.20283587,209],[-2.48615931,55.20280158,208.2],[-2.48616813,55.20279777,208.06],[-2.48698205,55.20291969,209.13],[-2.48699945,55.2029235,209.13],[-2.48726402,55.20289302,211.4],[-2.48728094,55.20289302,211.66],[-2.48741751,55.20285492,213.13],[-2.48743396,55.20285111,213.26],[-2.4879469,55.2026301,213],[-2.48796454,55.20262248,213.06],[-2.48821576,55.20248526,213.66],[-2.48823316,55.20247764,213.33],[-2.48911167,55.2019326,213.2],[-2.48912597,55.20192116,213.4],[-2.4894749,55.20174208,214.33],[-2.4894892,55.20173446,214.6],[-2.48962622,55.20160103,217.4],[-2.48964195,55.20158959,217.6],[-2.48989296,55.20154768,220.2],[-2.48991107,55.20154387,220.4],[-2.49023571,55.20141432,222.6],[-2.49025597,55.2014067,222.53],[-2.49080921,55.2012543,215.46],[-2.49083162,55.20125049,215.13],[-2.49125688,55.20120477,214],[-2.49128048,55.20120096,214],[-2.49210261,55.2011781,213.26],[-2.4921274,55.2011781,213.33],[-2.49253714,55.20109809,216.66],[-2.49255931,55.20109428,216.93],[-2.49283486,55.20097614,215.46],[-2.49285154,55.20096852,215.33],[-2.49340808,55.20056437,217.2],[-2.49342572,55.20055293,217.4],[-2.49471089,55.19992787,219.8],[-2.49472972,55.19992025,219.6],[-2.49509752,55.19979833,217.8],[-2.4951185,55.19979071,217.86],[-2.49543957,55.19972213,220],[-2.4954739,55.19971832,220],[-2.495906,55.19958115,214.6],[-2.4959234,55.19957734,214.66],[-2.49598749,55.19953922,215],[-2.49600155,55.19953541,215],[-2.49613216,55.19951255,215],[-2.49614646,55.19950874,215],[-2.49618077,55.19952398,215],[-2.49618506,55.19953542,215],[-2.49619627,55.19951255,215],[-2.49620079,55.19950874,215],[-2.4962432,55.19951255,215],[-2.49624653,55.19951636,215],[-2.4966384,55.19941728,216.26],[-2.4966434,55.19941347,216.33],[-2.49711296,55.19933346,218],[-2.49713012,55.19932965,218],[-2.49712655,55.19926869,218.33],[-2.49714252,55.19926488,218.4],[-2.49734991,55.19925345,219.46],[-2.49737112,55.19924201,219.66],[-2.49759043,55.199303,220.73],[-2.49761093,55.19930681,220.86],[-2.49811602,55.19927252,222],[-2.49813628,55.19926871,222],[-2.49817203,55.19921915,222],[-2.49816798,55.19920771,222],[-2.49807269,55.19909334,222],[-2.4980734,55.19907809,222],[-2.49815632,55.19903999,222.2],[-2.49815703,55.19903999,222.26],[-2.49814536,55.19905143,222.46],[-2.49814559,55.19905524,222.53],[-2.49819157,55.19910861,222.93],[-2.49819896,55.19912005,223],[-2.49820278,55.19916581,223],[-2.49820564,55.19917725,223.13],[-2.49830831,55.19929544,225.53],[-2.49832547,55.19930306,225.8],[-2.4987097,55.1993564,227],[-2.4987302,55.19936021,227],[-2.49881409,55.19933354,227],[-2.498821,55.19932973,227],[-2.49894276,55.19934116,226.46],[-2.49895825,55.19934116,226.4],[-2.49920659,55.19947834,225.73],[-2.49920493,55.19947834,225.73],[-2.49930288,55.19948596,225.73],[-2.49931384,55.19949358,226.06],[-2.49927022,55.19958126,229.6],[-2.49927522,55.19958507,229.8],[-2.499565,55.19963079,228.13],[-2.49958168,55.1996346,228.06],[-2.49972278,55.19961174,228],[-2.49973613,55.19961174,228],[-2.49981858,55.19964984,227.6],[-2.4998293,55.19965746,227.53],[-2.4998624,55.19972606,227],[-2.49987598,55.19974894,227],[-2.49996082,55.1997337,227],[-2.49997631,55.1997337,227],[-2.50001443,55.19975275,226.93],[-2.50002277,55.19975656,226.86],[-2.5000335,55.19973369,226.6],[-2.50004852,55.19972988,226.53],[-2.50018057,55.19972226,225.86],[-2.50019749,55.19971845,225.73],[-2.50037982,55.19974131,224.4],[-2.50039817,55.19974512,224.66],[-2.50054094,55.19980227,227.86],[-2.50055333,55.19980989,228.2],[-2.50062006,55.19988233,229.4],[-2.50063102,55.19989377,229.33],[-2.5007304,55.19993187,229],[-2.50073731,55.19993568,229],[-2.50075565,55.19996616,229],[-2.50076399,55.19997378,229],[-2.50082043,55.19997378,229],[-2.5008302,55.19997378,229],[-2.50085949,55.1999433,229],[-2.50085616,55.19993949,229],[-2.50081828,55.19995092,229],[-2.50080446,55.19996236,229],[-2.50081924,55.19995093,229],[-2.50081352,55.19994712,229],[-2.50073391,55.19995474,229],[-2.50072557,55.19995855,229],[-2.5007961,55.19998522,229],[-2.50079729,55.19998903,229],[-2.50092169,55.1999395,227.53],[-2.50093814,55.19993569,227.4],[-2.50109212,55.19995093,226.33],[-2.50111047,55.19995474,226.2],[-2.50208414,55.20032054,227.13],[-2.50210583,55.20032816,227.4],[-2.50491753,55.2012502,234.8],[-2.50493684,55.20125401,234.73],[-2.50539639,55.20143311,233.2],[-2.50540235,55.20144455,233.13],[-2.50578297,55.20155885,236],[-2.50580085,55.20156266,236],[-2.50589212,55.20162745,235.6],[-2.50588783,55.20162745,235.53],[-2.50698882,55.20196273,234.33],[-2.50700884,55.20196654,234.26],[-2.50758831,55.20218373,234.2],[-2.50760786,55.20219135,234.13],[-2.50912889,55.20263712,236.53],[-2.50914987,55.20264093,236.53],[-2.50977721,55.20284286,233.4],[-2.50979461,55.20284667,233.2],[-2.50999861,55.20293812,232],[-2.51000695,55.20294193,232],[-2.51009749,55.20304487,231.73],[-2.5101044,55.20305249,231.6],[-2.51018342,55.2033003,230.4],[-2.51018437,55.20331174,230.4],[-2.51013675,55.20347188,230.4],[-2.5101358,55.20348713,230.26],[-2.51017677,55.20362823,230],[-2.51018106,55.2036473,230],[-2.51019272,55.20380362,230],[-2.51019295,55.20381887,230],[-2.510152,55.20407814,229],[-2.51015034,55.20409339,229],[-2.51014271,55.20441367,231.8],[-2.51014128,55.20442892,232.06],[-2.51007774,55.20481018,233.73],[-2.51007774,55.20482543,233.8],[-2.51012528,55.20522194,232.46],[-2.51012766,55.20523719,232.33],[-2.51022029,55.20558414,233.46],[-2.51022625,55.20559939,233.53],[-2.51074948,55.20637339,231.2],[-2.51075997,55.20639246,231.26],[-2.51092703,55.20657166,230],[-2.51093489,55.2065831,229.8],[-2.51111505,55.20672792,230.2],[-2.51112697,55.20673554,230.2],[-2.5111894,55.20682324,230],[-2.51120132,55.20683849,229.8],[-2.51134718,55.20696051,229],[-2.51136267,55.20697195,229.2],[-2.51181246,55.20717016,230.73],[-2.51183344,55.20717778,230.46],[-2.51195016,55.20703676,227],[-2.5119554,55.20702914,227],[-2.51192303,55.20686905,227],[-2.51191707,55.20687286,227],[-2.512347,55.20672427,220.13],[-2.51236321,55.20671665,220],[-2.51253554,55.20668998,220],[-2.51254698,55.20668998,220],[-2.51255697,55.20663282,219.33],[-2.51256817,55.20662901,219.26],[-2.51281319,55.20664806,219],[-2.51282153,55.20665568,219],[-2.51271859,55.20671284,219],[-2.5127124,55.20672046,219],[-2.51270312,55.20674332,219],[-2.51270122,55.20675476,219],[-2.51273815,55.20677,219.4],[-2.51274029,55.20677,219.46],[-2.51245857,55.20676238,222.66],[-2.51245357,55.20677,223],[-2.51246858,55.2068043,224],[-2.5124793,55.20681574,224],[-2.51255533,55.20683098,222.26],[-2.51257082,55.20683479,221.86],[-2.51267779,55.20677001,222.4],[-2.51268017,55.20677001,222.8],[-2.51263088,55.20684624,224.4],[-2.51262826,55.20685005,224.4],[-2.51266922,55.20687672,224.66],[-2.51268948,55.20689197,224.73],[-2.51256911,55.20688054,224.53],[-2.51253812,55.20688435,224.46],[-2.51265611,55.20691865,224],[-2.51266111,55.20692246,224],[-2.51271306,55.20689959,224],[-2.51272545,55.20689197,224],[-2.5127445,55.20684241,224],[-2.51273807,55.2068386,224],[-2.51265705,55.20683098,224],[-2.51265515,55.20683098,224],[-2.51273354,55.20685384,224.4],[-2.51274236,55.20685384,224.4],[-2.51262654,55.20684241,223.66],[-2.51260246,55.2068386,223.26],[-2.51264177,55.20685003,221.66],[-2.51265535,55.20685003,221.33],[-2.51280218,55.20677762,219],[-2.51281982,55.20677,219],[-2.51282531,55.20675476,219],[-2.51281912,55.20674714,219],[-2.5127567,55.20671666,219],[-2.51273811,55.20671285,219],[-2.51275621,55.20672428,219],[-2.51276956,55.20672809,219],[-2.51285108,55.20668233,219.13],[-2.51284512,55.20667852,219.2],[-2.51245615,55.20681189,221],[-2.51245425,55.20681189,220.66],[-2.5124683,55.20678903,220],[-2.51247664,55.20678141,220],[-2.51271774,55.20667089,219],[-2.51271797,55.2066747,219],[-2.51269463,55.20666327,219.33],[-2.51268605,55.20664802,219.4],[-2.51257505,55.2066404,220],[-2.51257291,55.2066404,220],[-2.51260982,55.20663659,220],[-2.51261911,55.20663278,220],[-2.51257219,55.20663278,220],[-2.51257409,55.20663659,220],[-2.51258551,55.20661754,219.46],[-2.51258408,55.20661373,219.4],[-2.5126215,55.20660992,219.33],[-2.51263508,55.20660611,219.33],[-2.51267844,55.206568,219.6],[-2.51267606,55.20656419,219.66],[-2.51262676,55.20658705,220],[-2.51261675,55.20659086,220],[-2.51255052,55.20657181,219.53],[-2.51255385,55.206568,219.46],[-2.51274236,55.20655276,217.2],[-2.51275213,55.20655276,217],[-2.51298663,55.20648037,216],[-2.51298901,55.20648037,216],[-2.51296735,55.20648799,216],[-2.51296592,55.20648418,216],[-2.51299089,55.20644227,216],[-2.51299303,55.20643465,216],[-2.51298491,55.20635461,215.4],[-2.51298657,55.2063508,215.33],[-2.51291603,55.20633936,215],[-2.51290435,55.20633936,215.06],[-2.51288672,55.20637366,215.53],[-2.51288625,55.20637747,215.6],[-2.51295914,55.2064499,216],[-2.51296867,55.20645752,216],[-2.5131038,55.20644609,217.6],[-2.51311882,55.20644609,217.8],[-2.51324512,55.2065223,219],[-2.5132537,55.2065223,219],[-2.51343171,55.20643086,220.46],[-2.51344434,55.20642324,220.6],[-2.51352775,55.20634702,221],[-2.51353442,55.2063394,221],[-2.51369983,55.20630511,220.33],[-2.51371485,55.2063013,220.2],[-2.5138128,55.20624415,219],[-2.51381732,55.20624415,219],[-2.51386544,55.20618319,219],[-2.5138764,55.20617557,219],[-2.51398913,55.20615271,217.66],[-2.51400105,55.20615271,217.53],[-2.51415334,55.20608032,217],[-2.5141674,55.2060727,217],[-2.51424462,55.20606889,216.73],[-2.51425439,55.2060727,216.6],[-2.51427438,55.20612604,215.53],[-2.51428034,55.20613366,215.4],[-2.51433395,55.20616033,215],[-2.514338,55.20616033,215.13],[-2.51436657,55.20610316,215.8],[-2.51436586,55.20609554,215.8],[-2.51429318,55.20607268,215.53],[-2.51429295,55.20606887,215.4],[-2.51445667,55.2060041,215],[-2.51446501,55.20600029,214.53],[-2.51443715,55.20598505,210.4],[-2.51443358,55.20598886,209.8],[-2.51446002,55.20596981,206.8],[-2.51447384,55.20596219,206.66],[-2.5149148,55.20583265,205],[-2.51493172,55.20582884,205],[-2.51500869,55.20576403,204.86],[-2.51501918,55.20575641,204.8],[-2.51521173,55.20569164,200],[-2.51522841,55.20568402,200],[-2.51534923,55.20560782,200],[-2.51535423,55.2056002,200],[-2.51546145,55.20556591,200],[-2.51547527,55.2055621,200],[-2.51555224,55.20550114,199.06],[-2.51556845,55.2054897,198.93],[-2.51573505,55.20549351,198],[-2.51574363,55.20549351,198],[-2.51577198,55.20547065,198],[-2.51577364,55.20546684,198],[-2.51586372,55.20545541,198],[-2.51587397,55.2054516,198],[-2.51588971,55.20539062,197.46],[-2.51589924,55.205383,197.4],[-2.51607728,55.20534871,197],[-2.516088,55.20534871,197],[-2.51610326,55.20531442,197],[-2.51609969,55.2053068,197],[-2.51613685,55.20528775,197],[-2.51614757,55.20528013,197],[-2.51599196,55.20522297,197.86],[-2.51597623,55.20521535,197.93],[-2.51587423,55.20519249,198],[-2.51586279,55.20518868,198],[-2.51580441,55.20520011,197.86],[-2.51578939,55.20520011,197.8],[-2.5156104,55.20514677,197],[-2.51558251,55.20514296,196.93],[-2.5154352,55.20507816,196.53],[-2.51541542,55.20506672,196.46],[-2.51545405,55.20505148,196.26],[-2.51544619,55.20504767,196.2],[-2.51488674,55.20492956,195.13],[-2.51485718,55.20492194,195],[-2.51433207,55.20474287,195.73],[-2.514313,55.20473906,195.86],[-2.51345087,55.20438084,199.53],[-2.51343562,55.20437322,199.6],[-2.51337605,55.20431603,199.93],[-2.51336509,55.20430459,200],[-2.51333507,55.20423596,200],[-2.5133365,55.20422071,199.8],[-2.51336008,55.20416733,199],[-2.51337033,55.20415589,198.93],[-2.51356695,55.20400723,199],[-2.51357767,55.20399961,199],[-2.51366131,55.2039081,198.6],[-2.5136718,55.20389666,198.73],[-2.5137931,55.20375176,200.73],[-2.51380359,55.20374032,201],[-2.51385911,55.20362974,201],[-2.51386673,55.2036183,201],[-2.51388816,55.2035154,203.66],[-2.51389006,55.20351159,204],[-2.51386675,55.20344679,206],[-2.51386794,55.20343154,206],[-2.51391102,55.20324472,207.33],[-2.51391197,55.20323328,207.46],[-2.51389057,55.20300068,206.4],[-2.51389676,55.20298924,205.93],[-2.51411265,55.20277189,200.2],[-2.51412576,55.20276045,200],[-2.51423489,55.20261174,196.2],[-2.51424561,55.2026003,196],[-2.51450203,55.20235625,193],[-2.51450918,55.20234481,193],[-2.51451774,55.20227999,193],[-2.51451345,55.20226474,193],[-2.51437524,55.20213511,193],[-2.51436619,55.20212367,193],[-2.51432239,55.20198641,193],[-2.51432168,55.20196734,193],[-2.51434595,55.20186058,192.66],[-2.51435047,55.20184914,192.6],[-2.51438932,55.20182627,192.4],[-2.51440124,55.20182246,192.33],[-2.51438647,55.20181484,192.2],[-2.51438457,55.20181484,192.13],[-2.51437696,55.20170046,192],[-2.51437553,55.20168521,192],[-2.51439268,55.20159752,192],[-2.51439911,55.20158227,192],[-2.51454448,55.20141831,191.4],[-2.51455544,55.20140687,191.4],[-2.51465431,55.20122386,192],[-2.51465597,55.20121242,192],[-2.51465264,55.2010256,192.66],[-2.51464835,55.20101035,192.8],[-2.51447846,55.2007625,194.6],[-2.51447012,55.20075106,194.66],[-2.51439627,55.20058329,195],[-2.51439532,55.20057185,195.13],[-2.51442817,55.20049177,196.06],[-2.51443961,55.20047652,196.2],[-2.51456641,55.20036976,196.73],[-2.51457284,55.20035832,196.73],[-2.51457306,55.20012573,197.8],[-2.51457449,55.20011048,197.66],[-2.51461068,55.19997322,197.8],[-2.51461711,55.19995797,197.93],[-2.51477934,55.19968726,201.13],[-2.51478696,55.19967201,201.4],[-2.51485817,55.19945087,202.13],[-2.51486556,55.19943943,202.33],[-2.51499305,55.19927166,206],[-2.5150052,55.19926022,206],[-2.51520658,55.19911918,207.33],[-2.5152111,55.19911156,207.66],[-2.51520226,55.19887142,211.66],[-2.51520203,55.19885998,211.8],[-2.51522822,55.19877991,212.6],[-2.51523561,55.19876466,212.73],[-2.51545156,55.19861214,213.4],[-2.51546491,55.1986007,213.46],[-2.51565128,55.1983986,213.26],[-2.51566272,55.19838716,213.2],[-2.51600545,55.19810118,211],[-2.51601808,55.19808974,211],[-2.51622659,55.19784189,209.2],[-2.51623159,55.19783045,209.06],[-2.5163009,55.19762455,208],[-2.51630447,55.1976093,208],[-2.51630209,55.19751017,208.73],[-2.5163009,55.19749873,208.93],[-2.51624181,55.19735384,211],[-2.51623323,55.19733859,211],[-2.51612028,55.19719751,211.4],[-2.51611432,55.19718607,211.46],[-2.51609271,55.19699924,211.93],[-2.51609248,55.1969878,211.86],[-2.51615393,55.19678192,211],[-2.51615607,55.19677048,211],[-2.51615941,55.19656841,211.8],[-2.51616107,55.19655316,211.86],[-2.51621559,55.19633202,214.53],[-2.51622059,55.19631677,214.86],[-2.51627754,55.19625195,216.73],[-2.5162885,55.19624051,217],[-2.51627015,55.19620621,217],[-2.51625657,55.19619096,217],[-2.51709194,55.19556183,209.4],[-2.51710529,55.19555039,209.2],[-2.51721514,55.19542075,207.2],[-2.51722324,55.19541313,207],[-2.51735714,55.19517676,208.86],[-2.51736143,55.19516532,209],[-2.51738428,55.19501662,211.13],[-2.51738309,55.19500137,211.66],[-2.51730475,55.19478023,217.26],[-2.51729975,55.19476879,217.53],[-2.51730143,55.19465822,216.6],[-2.51730381,55.19464678,216.46],[-2.51740437,55.19449045,215],[-2.5174139,55.1944752,215],[-2.51759334,55.19431506,214.26],[-2.51760168,55.19430744,214.06],[-2.5176443,55.19415874,214.93],[-2.5176443,55.1941473,215.2],[-2.51758211,55.19402911,216],[-2.51756733,55.19401386,216],[-2.51717786,55.1937622,213.4],[-2.51717,55.19375076,213.2],[-2.51715238,55.1936745,213],[-2.51715404,55.19365925,212.86],[-2.51721428,55.19341142,211.13],[-2.51722071,55.19339617,211.2],[-2.51726574,55.19332754,210.93],[-2.51727837,55.19331229,210.8],[-2.51748334,55.19315595,209],[-2.51749454,55.19314451,209],[-2.51760486,55.19294625,208.2],[-2.51761344,55.192931,208.13],[-2.51801524,55.19253064,205.73],[-2.51802477,55.1925192,205.6],[-2.51807667,55.19235906,204],[-2.51807786,55.19234762,204],[-2.51804235,55.19224086,204],[-2.51804473,55.19222561,204],[-2.51810217,55.19214172,204],[-2.51811266,55.19213028,204],[-2.51827186,55.19202736,204],[-2.51828544,55.19201592,204],[-2.51841749,55.19195876,204],[-2.51843823,55.19194732,203.93],[-2.51859937,55.19189016,203.46],[-2.51862201,55.19187872,203.4],[-2.51886038,55.19182538,202.33],[-2.51888136,55.19182157,202.2],[-2.5190091,55.19176059,201.26],[-2.51902459,55.19175297,201.13],[-2.51911729,55.19165764,200.66],[-2.51912587,55.1916462,200.6],[-2.51921212,55.19144793,200],[-2.51921831,55.19143649,200],[-2.51921212,55.19140981,200],[-2.51919758,55.19140219,200],[-2.51914159,55.191406,200],[-2.51913683,55.19140219,200],[-2.51915683,55.19128781,200],[-2.51915517,55.19127637,200],[-2.5190706,55.19117345,201.33],[-2.51906345,55.19116201,201.46],[-2.51849438,55.19071599,204.6],[-2.51848461,55.19070455,204.73],[-2.51842578,55.19058253,205.06],[-2.51842245,55.19057109,205.13],[-2.51841269,55.19044526,205.26],[-2.51841745,55.19043382,205.26],[-2.51850467,55.19034612,204.86],[-2.51852064,55.19033468,204.73],[-2.5190026,55.19016323,203.6],[-2.51902119,55.19015561,203.66],[-2.51924573,55.19001075,201.8],[-2.51926313,55.18999931,201.6],[-2.51971103,55.18979349,200],[-2.51973034,55.18978587,200],[-2.51982471,55.18970198,200],[-2.519829,55.18969054,200],[-2.51980972,55.18959522,200],[-2.51980114,55.18957997,200],[-2.51923706,55.18901944,201],[-2.51922896,55.189008,201],[-2.51917469,55.18882497,199.4],[-2.51917136,55.18881353,199.2],[-2.51906654,55.18859618,198.4],[-2.51906154,55.18858474,198.26],[-2.5189219,55.1883979,196],[-2.51891213,55.18838646,196.2],[-2.51881895,55.1883064,198],[-2.51880584,55.18829878,198.2],[-2.51849574,55.18819591,194.13],[-2.51847691,55.1881921,193.8],[-2.51831985,55.18811588,194],[-2.51831103,55.18811207,194],[-2.51832079,55.18809302,194],[-2.51832651,55.18809302,194],[-2.51832509,55.18811207,195.06],[-2.51831866,55.18811588,195.33],[-2.51816207,55.18809302,198.13],[-2.51814586,55.18808921,198.26],[-2.51788342,55.18799015,200.26],[-2.51786244,55.18798253,200.33],[-2.51761669,55.187933,195.4],[-2.51759595,55.18792919,195],[-2.51709203,55.18777679,197.46],[-2.51706962,55.18776917,197.8],[-2.51682148,55.18772726,200.6],[-2.51679216,55.18772345,201],[-2.5160406,55.18768916,205.8],[-2.51601557,55.18768916,205.86],[-2.51477625,55.18759391,195.6],[-2.51475384,55.1875901,195.53],[-2.51439388,55.18758629,195],[-2.5143729,55.18758629,195],[-2.51354673,55.18748342,195],[-2.51352337,55.18747961,194.93],[-2.51326857,55.1874758,194.26],[-2.51324283,55.1874758,194.2],[-2.51305476,55.18752533,193.46],[-2.51303355,55.18753295,193.4],[-2.51268934,55.18757867,193.26],[-2.51268148,55.18757867,193.66],[-2.51229277,55.18772726,196.4],[-2.51227847,55.18773488,196.2],[-2.5121314,55.18775774,194.6],[-2.51211305,55.18775774,194.4],[-2.51169597,55.18787204,193.53],[-2.51167571,55.18787585,193.8],[-2.5110596,55.18816166,197.2],[-2.51104554,55.1881731,197.66],[-2.51094423,55.18819596,200],[-2.51094328,55.18819596,200],[-2.5108282,55.18826454,199.33],[-2.51081557,55.18827216,199.2],[-2.51069973,55.18829883,198.26],[-2.5106964,55.18829883,198.13],[-2.51035198,55.18845504,202.2],[-2.5103384,55.18846266,202.53],[-2.5094763,55.18873317,198.93],[-2.50945556,55.18873698,199.26],[-2.50931111,55.18875222,198.06],[-2.50928847,55.18875603,197.4],[-2.50851948,55.18875222,194.4],[-2.50849874,55.18875222,194.2],[-2.50817101,55.18879032,193],[-2.50815003,55.18879032,192.93],[-2.50803466,55.18881318,192.53],[-2.50801774,55.18881699,192.46],[-2.50783994,55.18890843,192],[-2.50782612,55.18891605,192],[-2.50772004,55.18893129,192],[-2.50769239,55.18893129,192],[-2.5075651,55.18890843,192],[-2.50754269,55.18890462,192],[-2.50725118,55.18880175,189],[-2.50723283,55.18879413,188.66],[-2.50718731,55.18875982,187.33],[-2.50718326,55.18874838,187.06],[-2.5072345,55.18869501,187.4],[-2.50724785,55.1886912,187.46],[-2.50755104,55.1887293,190.13],[-2.50756915,55.1887293,190.4],[-2.50796934,55.18882836,192.2],[-2.50485488,55.18920601,192.13],[-2.49960634,55.18945778,192.06],[-2.49889566,55.18954925,194.66],[-2.49887635,55.18955306,194.93],[-2.49885895,55.18957592,195.73],[-2.49886371,55.18958736,196.06],[-2.49890899,55.18962165,196.4],[-2.49892162,55.18962927,196.46],[-2.49941429,55.18980453,200.53],[-2.49943121,55.18980834,201.06],[-2.49964642,55.18990359,205],[-2.49966048,55.1899074,205],[-2.49973341,55.18996457,204.93],[-2.49973913,55.18997601,204.86],[-2.49973174,55.19001033,204.66],[-2.49972173,55.19002177,204.6],[-2.49966382,55.19005607,204.33],[-2.49964737,55.19006369,204.26],[-2.49909895,55.19021229,209],[-2.49909228,55.19021991,209],[-2.49912566,55.1902542,209],[-2.49913924,55.19026182,209],[-2.4992982,55.19029611,209],[-2.49931131,55.19029992,209],[-2.49934085,55.1903304,209.33],[-2.49934347,55.19034184,209.66],[-2.49931969,55.19040283,213],[-2.49931922,55.19041045,213.33],[-2.4993535,55.19058197,214.8],[-2.49935493,55.19059341,215.06],[-2.49928995,55.19081835,218.53],[-2.49928805,55.1908336,218.66],[-2.49930066,55.19095942,219.86],[-2.49930089,55.19097849,220],[-2.49925637,55.19121873,220.33],[-2.49925471,55.19123398,220.33],[-2.49927425,55.19129117,220.2],[-2.4992864,55.19130642,220.13],[-2.49941153,55.19135978,219.06],[-2.49943441,55.19136359,218.93],[-2.50002077,55.19135597,220.2],[-2.50004175,55.19135597,220.33],[-2.50077685,55.19141693,220],[-2.50078805,55.19141693,220],[-2.5008462,55.1914398,220.26],[-2.50084667,55.19144361,220.33],[-2.50082025,55.19157321,221.26],[-2.50081286,55.19158465,221.33],[-2.50069227,55.19167231,222],[-2.50067725,55.19167993,222],[-2.50029418,55.19171422,221.13],[-2.50026939,55.19171803,221.2],[-2.50013018,55.19175613,221.6],[-2.50010944,55.19176375,221.8],[-2.49998479,55.19182853,223],[-2.49997287,55.19183997,223],[-2.49989567,55.1919658,223.33],[-2.49989353,55.19197724,223.4],[-2.49989615,55.19232423,221.6],[-2.49989662,55.19233948,221.33],[-2.49987662,55.1924043,220.6],[-2.49986089,55.19241192,220.6],[-2.49978867,55.19241573,221.2],[-2.49977127,55.19241192,221.33],[-2.4992984,55.19221379,221],[-2.499281,55.19220617,221],[-2.49914442,55.19220617,220.2],[-2.49913012,55.19221379,219.8],[-2.49910605,55.19223285,219],[-2.49909604,55.19224429,218.6],[-2.49906293,55.1923358,215.8],[-2.49906079,55.19234724,215.4],[-2.49902751,55.19279716,203.93],[-2.49902656,55.19281241,203.53],[-2.49904133,55.19294586,200],[-2.49903657,55.19296111,200],[-2.49891526,55.19305641,200.66],[-2.49889834,55.19306785,200.8],[-2.49868835,55.19313644,203.06],[-2.49866618,55.19314025,203.33],[-2.4983718,55.1931212,206.93],[-2.49835202,55.19311739,207.4],[-2.49824786,55.19307167,210.2],[-2.49823618,55.19306405,210.73],[-2.49815277,55.19297635,213.6],[-2.49814443,55.19296491,213.66],[-2.49813324,55.19292678,213.86],[-2.49813419,55.19291916,213.93],[-2.49817918,55.19278189,211.46],[-2.49818275,55.19276664,211.13],[-2.49820605,55.19251499,209],[-2.49820771,55.19250355,209],[-2.49827202,55.19233578,209],[-2.49827511,55.19232434,209],[-2.49828794,55.19221758,208],[-2.49828817,55.19220233,207.8],[-2.49827198,55.19212989,207.13],[-2.49826698,55.19211464,207],[-2.49797913,55.19176383,201.6],[-2.49796721,55.19174095,201.8],[-2.49756301,55.19148562,206],[-2.49755419,55.191478,206],[-2.49751157,55.19130642,204.2],[-2.49750728,55.19129498,204.33],[-2.49745106,55.19122254,205.66],[-2.49743938,55.1912111,206],[-2.49724205,55.19107386,206.8],[-2.49722942,55.19106242,206.4],[-2.49704733,55.19096713,202],[-2.49703565,55.19095951,202],[-2.49665577,55.19057438,195],[-2.49663575,55.19056294,195],[-2.49652801,55.19051338,195],[-2.4965025,55.19050576,195],[-2.49576499,55.19036479,192],[-2.49574568,55.19036098,192],[-2.49539456,55.19026573,192.8],[-2.49537335,55.19026192,192.73],[-2.4952413,55.19019712,192.26],[-2.49522295,55.1901895,192.2],[-2.4949298,55.18998362,192],[-2.49491288,55.18997218,191.8],[-2.49468621,55.18986928,189.4],[-2.49466428,55.18986166,189.2],[-2.49442734,55.18981213,189],[-2.4944047,55.18980832,189],[-2.49412198,55.18978927,189],[-2.49409838,55.18978546,189],[-2.4935368,55.18981213,189],[-2.49351272,55.18981213,189],[-2.4924496,55.18969402,191],[-2.49242672,55.18969021,191],[-2.49168158,55.18967497,192],[-2.49165822,55.18967497,192],[-2.49130235,55.18959496,191.2],[-2.49127756,55.18958734,191.13],[-2.49077246,55.18951495,191.73],[-2.4907491,55.18951114,191.8],[-2.49008953,55.18949971,193],[-2.49006545,55.18949971,193],[-2.4892016,55.18937779,193],[-2.48917562,55.18937398,193],[-2.4886338,55.18937017,191.53],[-2.48861092,55.18937017,191.46],[-2.48822885,55.18941208,191],[-2.48822599,55.18941208,191],[-2.48811376,55.18947685,191.53],[-2.48809898,55.18948447,191.66],[-2.48778437,55.18953019,193.46],[-2.48777818,55.18953019,193.93],[-2.4877434,55.18956068,196.73],[-2.48773411,55.18956449,197.2],[-2.48731655,55.18967498,203],[-2.48730034,55.18967879,203],[-2.48712731,55.18977025,204.2],[-2.48711206,55.18977787,204.4],[-2.48676551,55.19001809,202.2],[-2.48674716,55.19002953,201.8],[-2.48622897,55.19025819,192],[-2.48621372,55.19026963,192],[-2.48613078,55.19034208,192],[-2.48611839,55.19035733,192],[-2.48605644,55.1904679,192],[-2.48604929,55.19047934,192],[-2.48600546,55.19058991,191.53],[-2.48600213,55.19060516,191.46],[-2.48601213,55.19069285,191.06],[-2.48601999,55.1907081,191],[-2.48620659,55.19087588,191],[-2.48621541,55.19088732,191],[-2.48627496,55.19108177,191],[-2.48628235,55.19109702,191],[-2.48648705,55.19135629,190.93],[-2.48649944,55.19137154,190.86],[-2.48666364,55.19152406,190.46],[-2.48667866,55.19153931,190.46],[-2.48705428,55.19179861,190.86],[-2.48706786,55.19181005,190.86],[-2.48720798,55.19198163,191],[-2.4872218,55.19199307,191],[-2.4876494,55.19231337,191],[-2.48766179,55.19232481,191],[-2.48780976,55.19254595,191],[-2.48782263,55.1925612,191],[-2.4880326,55.19274042,191],[-2.48804356,55.19275186,190.86],[-2.48815745,55.1929387,190.46],[-2.48816722,55.19295014,190.6],[-2.4885271,55.19321702,190],[-2.48853759,55.19322464,190],[-2.48868294,55.19340384,190.06],[-2.48869128,55.19341528,190.13],[-2.48911393,55.1940368,189],[-2.48911989,55.19404824,189],[-2.4892049,55.1943342,189.26],[-2.4892099,55.19434945,189.4],[-2.48934832,55.19458584,191],[-2.4893538,55.19459728,191],[-2.48942429,55.1948413,191],[-2.48943025,55.19485655,191],[-2.48957632,55.19506627,191.2],[-2.48957965,55.19507771,191.2],[-2.48959558,55.19518828,191],[-2.48959629,55.19519972,191],[-2.4895506,55.19545517,191],[-2.48954917,55.19546661,191],[-2.48956131,55.19556575,191.33],[-2.4895656,55.195581,191.4],[-2.48993896,55.19612246,192],[-2.48994778,55.1961339,192],[-2.49033239,55.19653802,193.2],[-2.49034311,55.19654946,193.4],[-2.49055067,55.19680494,193.8],[-2.49056259,55.19681638,193.8],[-2.49072775,55.19690785,195],[-2.49073275,55.19691547,195],[-2.49108453,55.19704882,196.6],[-2.49110217,55.19705644,196.6],[-2.49138579,55.1972318,198.46],[-2.49140081,55.19723942,198.53],[-2.49160076,55.19742626,199],[-2.4916122,55.1974377,199],[-2.49165055,55.19753302,198.53],[-2.4916546,55.19754446,198.46],[-2.49165103,55.19760165,198.2],[-2.49164436,55.1976169,198.13],[-2.49158455,55.19768554,198],[-2.49158098,55.19770079,198],[-2.49162125,55.19781137,196.93],[-2.49161458,55.19782281,196.8],[-2.49146394,55.19788758,196],[-2.49145274,55.1978952,196],[-2.49140345,55.1980096,196],[-2.4913994,55.19802104,196],[-2.49136389,55.19802866,196],[-2.49136318,55.19802104,196],[-2.49149163,55.19808964,197.33],[-2.49149902,55.19810108,197.4],[-2.49153165,55.19818878,197.66],[-2.49153331,55.19820022,197.53],[-2.49151928,55.19828029,197],[-2.49151309,55.19829554,197],[-2.49145947,55.19835274,196.2],[-2.49144398,55.19836418,196],[-2.49128642,55.19841752,194.4],[-2.49126687,55.19842133,194.2],[-2.4911794,55.19847851,194],[-2.49117178,55.19848995,194],[-2.49117584,55.19870348,193.33],[-2.49117179,55.19871492,193.26],[-2.49103928,55.19885219,193],[-2.49103046,55.19886363,193],[-2.49095354,55.19911146,190],[-2.49094973,55.19912671,190.06],[-2.49082966,55.19933642,191],[-2.49082537,55.19934786,191],[-2.49084037,55.19938979,191],[-2.49084609,55.19940504,191],[-2.49059774,55.19957275,193.2],[-2.49057748,55.19958419,193.46],[-2.49045591,55.19963373,193.86],[-2.49043422,55.19964135,193.93],[-2.49034532,55.19964516,194],[-2.4903253,55.19964516,193.6],[-2.48975321,55.19951943,186.53],[-2.48972961,55.19951562,186.46],[-2.48950531,55.19943559,186.4],[-2.48948147,55.19942797,186.46],[-2.48937112,55.19942416,186.8],[-2.48934871,55.19942416,186.93],[-2.48914418,55.19937844,187.13],[-2.48912106,55.19937463,187.06],[-2.48871155,55.19926032,186.26],[-2.48865267,55.19924888,186.33],[-2.48838785,55.1991269,188.6],[-2.48836306,55.19911546,188.86],[-2.48820145,55.19898581,190.2],[-2.48818429,55.19896674,190.2],[-2.48815808,55.19891717,189.53],[-2.48815665,55.19890573,189.33],[-2.48817498,55.19883329,188.33],[-2.48818189,55.19881804,188.13],[-2.48833154,55.19866933,188],[-2.48834298,55.19865789,188],[-2.4884204,55.19854355,187.73],[-2.4884254,55.19853593,187.6],[-2.48848448,55.19841391,186],[-2.4884921,55.19840247,186],[-2.48851546,55.19824614,188.13],[-2.48851784,55.1982347,188.53],[-2.48851858,55.19815844,190.66],[-2.4885212,55.198147,190.93],[-2.48841681,55.19807839,192],[-2.48841181,55.19807077,192],[-2.48843849,55.19801357,192],[-2.4884392,55.19800213,192],[-2.48834842,55.19784198,191.93],[-2.4883408,55.19782291,191.86],[-2.48833533,55.19771995,191.46],[-2.48832866,55.1977047,191.4],[-2.48821353,55.19761321,191],[-2.48821067,55.19760177,191],[-2.48826716,55.19751408,190.2],[-2.48827788,55.19749883,190],[-2.48831144,55.19735012,188],[-2.48832193,55.19733868,188],[-2.48823517,55.19727386,188.13],[-2.48822349,55.19725861,188.2],[-2.48822086,55.19713279,188.73],[-2.48821729,55.19711754,188.8],[-2.48811219,55.19699553,189],[-2.48810266,55.19698028,189],[-2.48788509,55.19679348,193],[-2.48787246,55.19678204,193],[-2.48766605,55.19669059,191.66],[-2.4876558,55.19667915,191.4],[-2.48764819,55.19662958,190.6],[-2.48764914,55.19661051,190.33],[-2.48772936,55.19629022,185],[-2.48773055,55.19627497,184.66],[-2.48772389,55.19618346,185],[-2.48772032,55.19616821,185.33],[-2.48768839,55.19609958,186.46],[-2.48767934,55.19608433,186.66],[-2.48745439,55.19585173,187.66],[-2.48744247,55.19584029,187.93],[-2.48734621,55.19564203,191],[-2.48733644,55.19562296,191],[-2.4871222,55.19539418,192.6],[-2.48711076,55.19538274,192.73],[-2.48670869,55.19516552,194.4],[-2.48669701,55.1951579,194.26],[-2.48666126,55.19510833,194],[-2.48665745,55.19509689,194],[-2.48663486,55.19489483,192.66],[-2.48663153,55.19488339,192.66],[-2.486551,55.19479573,193.6],[-2.48654171,55.19478811,193.73],[-2.48629907,55.19466236,196.2],[-2.48628024,55.19465092,196.2],[-2.4860817,55.19459377,195.8],[-2.48606168,55.19458615,195.73],[-2.48508462,55.19444137,203.6],[-2.48506603,55.19443756,203.4],[-2.48501694,55.194388,202.4],[-2.48501289,55.19437656,202.2],[-2.48503454,55.19424692,201],[-2.48503525,55.19423548,201],[-2.48502288,55.1941516,200.6],[-2.48501692,55.19413635,200.6],[-2.48496807,55.19407534,200.6],[-2.48495401,55.1940639,200.6],[-2.48484843,55.19400672,201.13],[-2.48482865,55.19399528,201.26],[-2.48430189,55.19380477,205.13],[-2.48428211,55.19380096,205.26],[-2.48394435,55.1937781,207.4],[-2.48392266,55.1937781,207.46],[-2.48345046,55.19381239,208.06],[-2.4834302,55.19380858,207.93],[-2.48335655,55.1937781,207.66],[-2.4833401,55.19377048,207.6],[-2.48313608,55.1936256,208.13],[-2.48312106,55.19361416,208.2],[-2.48227876,55.19324836,208.4],[-2.48226184,55.19324074,208.26],[-2.48189956,55.19302342,207],[-2.4818855,55.19301198,206.86],[-2.48166602,55.19273363,204.4],[-2.48165768,55.19272219,204.2],[-2.4815412,55.19246673,202.4],[-2.48153477,55.19245529,202.26],[-2.48149626,55.1921007,200.13],[-2.48149483,55.19208926,200.06],[-2.48153623,55.1918643,196.66],[-2.48154219,55.19184905,196.53],[-2.48174568,55.19157451,193.8],[-2.48175211,55.19155926,193.6],[-2.48176258,55.19147538,193],[-2.48176211,55.19146394,193],[-2.4817395,55.19131906,192.26],[-2.48174546,55.19130381,192.13],[-2.48179099,55.19125805,191.6],[-2.48180934,55.19125043,191.46],[-2.4819166,55.19125043,191.06],[-2.4819371,55.19124281,191],[-2.4820086,55.19115511,190.86],[-2.48201241,55.19114367,190.8],[-2.48201763,55.1910026,190.13],[-2.48201692,55.19098735,190.06],[-2.4819867,55.19087678,189.93],[-2.48198146,55.19086153,189.8],[-2.48190068,55.19077383,188.86],[-2.48188805,55.19075858,188.73],[-2.4817958,55.19070138,187.93],[-2.48177602,55.19068994,187.8],[-2.4816914,55.19065946,187.53],[-2.48167019,55.19065184,187.46],[-2.48151145,55.1906366,186.8],[-2.48148857,55.19063279,186.73],[-2.48097157,55.19067089,187.13],[-2.48094821,55.1906747,187.2],[-2.47967297,55.19064422,190.66],[-2.47965056,55.19064422,190.73],[-2.47916886,55.19054516,194.4],[-2.47915241,55.19054135,194.6],[-2.47836724,55.19030132,197],[-2.47834984,55.1902937,197.2],[-2.47801995,55.19022893,198.46],[-2.47800637,55.19022512,198.2],[-2.47768104,55.19003454,195],[-2.4776758,55.19002692,195],[-2.47751946,55.18998882,195],[-2.47749729,55.18998501,195],[-2.47680437,55.19000787,192.93],[-2.47677982,55.19000787,192.86],[-2.47655813,55.1900574,193.13],[-2.47654288,55.19006121,193.4],[-2.47628522,55.19016028,195.2],[-2.4762652,55.1901679,195],[-2.4758943,55.19017171,194],[-2.47587166,55.19017171,194],[-2.47555775,55.19025934,195.06],[-2.47553677,55.19026696,195.2],[-2.47535848,55.19028982,196],[-2.47533584,55.19028982,196],[-2.47520475,55.19024027,195.93],[-2.47519355,55.19022883,196.06],[-2.47505563,55.1899238,195.33],[-2.4750492,55.18991236,195.06],[-2.47502253,55.18981323,194],[-2.47502206,55.18979798,194],[-2.47507494,55.18963021,192.53],[-2.47507471,55.18961877,192.4],[-2.47503065,55.18949676,192.8],[-2.47502064,55.18948151,193],[-2.47491434,55.18940145,194],[-2.47489646,55.18939001,194.13],[-2.47448051,55.18925284,194.53],[-2.47446907,55.18924903,194.66],[-2.47410581,55.18924903,196],[-2.47408245,55.18924903,196],[-2.47315903,55.18918426,193.66],[-2.47312637,55.18918426,193.6],[-2.47286178,55.18923379,194.8],[-2.47284104,55.1892376,194.93],[-2.47273855,55.18931002,196],[-2.4727221,55.18931764,195.8],[-2.47250993,55.18939006,195],[-2.47248061,55.1894015,195],[-2.47217597,55.18942436,195],[-2.47215404,55.18942436,195],[-2.47198099,55.18937864,194.26],[-2.47196407,55.18937102,194.2],[-2.47172739,55.18918037,194.26],[-2.47171237,55.18917275,194.33],[-2.47141822,55.18906988,193.06],[-2.47139653,55.18906226,192.73],[-2.47077323,55.1889251,190],[-2.47074868,55.18891748,190.06],[-2.47042998,55.188887,190.93],[-2.47040614,55.188887,191],[-2.47029149,55.18890986,191.13],[-2.47026932,55.18891367,191.26],[-2.47013631,55.18897083,192.2],[-2.47012201,55.18897845,192.33],[-2.46983987,55.18924531,193.06],[-2.46982319,55.18925293,193.13],[-2.46968186,55.18929103,193.66],[-2.46966375,55.18929484,193.73],[-2.46947735,55.18929103,194.8],[-2.46945661,55.18929103,194.93],[-2.46928928,55.18924912,196],[-2.46926902,55.18924531,196.13],[-2.46885263,55.18905858,195.6],[-2.46883809,55.18905096,195.46],[-2.46875422,55.18896328,195.86],[-2.46874636,55.18895184,196],[-2.46872158,55.1888489,196],[-2.46871729,55.18884128,196],[-2.46866128,55.18880317,194.93],[-2.46864507,55.18879555,194.66],[-2.46768019,55.18855552,195],[-2.4676585,55.1885479,195.2],[-2.46738321,55.18849837,192.33],[-2.46736033,55.18849456,192.13],[-2.46682307,55.18834216,195.06],[-2.46679947,55.18833454,195.4],[-2.46586936,55.18819738,192.46],[-2.46584409,55.18819357,192],[-2.46519237,55.18815547,193.8],[-2.46517068,55.18815547,193.86],[-2.4647638,55.18807165,194.46],[-2.4647402,55.18806403,194.53],[-2.46449921,55.18803736,195],[-2.46447561,55.18803355,195],[-2.46425799,55.18803736,195],[-2.46423892,55.18803736,195],[-2.46400606,55.18810975,194.86],[-2.46398771,55.18811356,194.8],[-2.46363612,55.18814785,194],[-2.46361538,55.18814785,194],[-2.46336415,55.18804878,193.6],[-2.46334627,55.18804116,193.53],[-2.46265048,55.18785447,190.53],[-2.46262831,55.18785066,190.53],[-2.46259327,55.18783542,190.4],[-2.46258612,55.18782398,190.33],[-2.46262043,55.18781636,190.13],[-2.46263044,55.18781636,190.06],[-2.46267239,55.1878316,190.06],[-2.46267691,55.1878316,190.13],[-2.46265499,55.1878316,190.4],[-2.46265261,55.1878316,190.33],[-2.46265736,55.18786209,190.06],[-2.4626557,55.18788116,190],[-2.46262568,55.18787735,190.13]]}}]}