{
"type": "FeatureCollection",
"name": "Slaggan",
"crs": { "type": "name", "properties": { "name": "urn:ogc:def:crs:OGC:1.3:CRS84" } },
"features": [
{ "type": "Feature", "properties": { "name": "22 Apr 2026 14:10:47", "cmt": null, "desc": null, "src": "FitoTrack", "link1_href": null, "link1_text": null, "link1_type": null, "link2_href": null, "link2_text": null, "link2_type": null, "number": 0, "type": "hiking" }, "geometry": { "type": "MultiLineString", "coordinates": [ [ [ -5.56538625, 57.88623715, 90.809287466290627 ], [ -5.56536009, 57.88619045, 89.490508883308976 ], [ -5.56534299, 57.88614223, 89.538730365479921 ], [ -5.56532392, 57.88608736, 89.40978740961512 ], [ -5.56530323, 57.88603444, 89.516631323300317 ], [ -5.56528112, 57.88598218, 89.992320546618714 ], [ -5.56527307, 57.88593388, 89.913526458499604 ], [ -5.56528433, 57.88588464, 89.812016609705822 ], [ -5.56526397, 57.88583149, 89.462859003853424 ], [ -5.56520818, 57.88578483, 89.20542579375298 ], [ -5.56514523, 57.88573485, 88.818898868529772 ], [ -5.56507697, 57.8856945, 88.470496027779205 ], [ -5.56500522, 57.88566282, 88.364050170322457 ], [ -5.56492795, 57.88562311, 88.018666934936022 ], [ -5.56489594, 57.88557997, 88.208156027081671 ], [ -5.5649285, 57.88553246, 88.72302244728256 ], [ -5.5650073, 57.88550185, 88.566373538939928 ], [ -5.5650765, 57.88547229, 88.528249454467272 ], [ -5.565145, 57.8854397, 88.256850092720612 ], [ -5.56522231, 57.88540569, 87.660828712977306 ], [ -5.56529982, 57.88537013, 87.531357342825245 ], [ -5.5653724, 57.88532838, 87.350172846626862 ], [ -5.56544664, 57.88529797, 87.2599579810786 ], [ -5.56551825, 57.88527273, 87.088965266060455 ], [ -5.56559777, 57.88524981, 86.920992156406442 ], [ -5.56567826, 57.88521918, 86.726218618634405 ], [ -5.56575097, 57.88518989, 86.575608921020006 ], [ -5.56585692, 57.88517812, 86.267972660033678 ], [ -5.56593756, 57.88514206, 86.049041189435187 ], [ -5.56602052, 57.88510994, 85.875783634154772 ], [ -5.56611072, 57.88507904, 85.706300449340318 ], [ -5.56619876, 57.88504975, 85.52964563366649 ], [ -5.56628821, 57.88501728, 85.360917758910631 ], [ -5.56637164, 57.88497829, 85.185395363367917 ], [ -5.56645925, 57.88494703, 84.97250364845442 ], [ -5.56654911, 57.88491475, 84.700727176635226 ], [ -5.56663666, 57.88488222, 84.378369998900851 ], [ -5.5667282, 57.88485351, 84.226250771082761 ], [ -5.56682066, 57.88482469, 84.115275233101457 ], [ -5.56689279, 57.88479958, 84.033742073572995 ], [ -5.56698766, 57.88476787, 84.001657199828585 ], [ -5.56705477, 57.88474014, 84.049595955408932 ], [ -5.5671283, 57.8847172, 83.949189308680417 ], [ -5.56721785, 57.88468684, 83.672882611379919 ], [ -5.56729702, 57.88465211, 83.315798609566301 ], [ -5.56739047, 57.88462146, 83.077238341709162 ], [ -5.5674788, 57.8845912, 82.882842458966408 ], [ -5.56755125, 57.88456578, 82.781303392106764 ], [ -5.56761931, 57.88453753, 82.712981619122658 ], [ -5.56768719, 57.88450974, 82.702789837942419 ], [ -5.56778022, 57.88447663, 82.785832527674557 ], [ -5.56786662, 57.88444289, 82.743178217720597 ], [ -5.56795589, 57.88440622, 82.729212066074396 ], [ -5.56805151, 57.88437761, 82.586151654348669 ], [ -5.56813673, 57.88434812, 82.477440956629636 ], [ -5.56823204, 57.88431826, 82.424595410452184 ], [ -5.56831185, 57.88428461, 82.150553553413957 ], [ -5.56840254, 57.88425689, 82.183770847289523 ], [ -5.56849999, 57.88423381, 82.352876377074679 ], [ -5.56859121, 57.88420955, 82.391001551460832 ], [ -5.56867107, 57.88418, 82.415914794345881 ], [ -5.56875915, 57.88416396, 82.359672532731764 ], [ -5.56885256, 57.88415003, 82.423086970162004 ], [ -5.56895211, 57.88413431, 82.441959912405309 ], [ -5.56903246, 57.88411919, 82.497825063946877 ], [ -5.56912623, 57.88409408, 82.357030037440182 ], [ -5.5692248, 57.88407608, 82.298145280534499 ], [ -5.56932403, 57.88406152, 82.337779985124342 ], [ -5.56941458, 57.88404282, 82.29135130470442 ], [ -5.56951563, 57.88403926, 82.006362901384108 ], [ -5.56960428, 57.88402694, 82.101862212558771 ], [ -5.56969149, 57.88401769, 82.059208447561559 ], [ -5.56977576, 57.88401247, 81.851600633317702 ], [ -5.56986055, 57.88401614, 81.780636365042028 ], [ -5.56996867, 57.88400661, 81.643237509015236 ], [ -5.57007593, 57.88401464, 81.53943414685007 ], [ -5.57017667, 57.88402384, 81.315218230625177 ], [ -5.57027657, 57.88402894, 81.208017608066584 ], [ -5.57038136, 57.88403626, 80.928691850358717 ], [ -5.57048974, 57.88404739, 80.909063598056818 ], [ -5.57057487, 57.8840541, 80.826398018397214 ], [ -5.57067651, 57.88406629, 80.496868119889967 ], [ -5.57078136, 57.88407518, 80.178285312621554 ], [ -5.57087796, 57.88408352, 80.137896387886613 ], [ -5.57096901, 57.8840975, 79.905376420671217 ], [ -5.57106061, 57.88410459, 79.748349312342526 ], [ -5.57114162, 57.88412378, 79.646810790439631 ], [ -5.5712224, 57.88413757, 79.410515362844762 ], [ -5.57131384, 57.88416198, 79.274627126935158 ], [ -5.57140616, 57.88418283, 79.024365547694089 ], [ -5.57148527, 57.8842034, 78.848465497122106 ], [ -5.57156886, 57.88421396, 78.598959227939631 ], [ -5.57166377, 57.88422811, 78.592541817225339 ], [ -5.57175651, 57.88423417, 78.527616759677912 ], [ -5.57186456, 57.88424459, 78.387953063388849 ], [ -5.57196584, 57.88426121, 78.497796726195773 ], [ -5.57207195, 57.8842748, 78.632175431901686 ], [ -5.57217877, 57.88428232, 78.713708591430148 ], [ -5.57227996, 57.88428606, 78.939056927786169 ], [ -5.57238068, 57.88428714, 79.054184491262731 ], [ -5.57248273, 57.88428996, 79.275757367239294 ], [ -5.57258037, 57.88429007, 79.164027064156144 ], [ -5.57267514, 57.88428561, 78.996809264560724 ], [ -5.57277115, 57.88427713, 79.354271466360387 ], [ -5.57285885, 57.88426838, 79.613215296578019 ], [ -5.57295379, 57.88425714, 79.931043883701349 ], [ -5.57305508, 57.88424179, 80.205840505841408 ], [ -5.57315161, 57.88423251, 80.510080051391085 ], [ -5.57323844, 57.88422103, 80.690132672415075 ], [ -5.57332295, 57.88420039, 80.887170505492648 ], [ -5.57341349, 57.88418234, 80.917745849033381 ], [ -5.57350594, 57.88416888, 80.979273646187394 ], [ -5.57360094, 57.88415839, 80.987955897163957 ], [ -5.57370842, 57.88414388, 80.810169206315749 ], [ -5.57381531, 57.88413059, 80.722219725986506 ], [ -5.57391039, 57.88411613, 80.894722516165075 ], [ -5.57401254, 57.88410803, 81.160459777256037 ], [ -5.57412118, 57.8841, 80.778839642629919 ], [ -5.57422702, 57.88410184, 80.601807171926794 ], [ -5.57433252, 57.88410196, 80.63993125639945 ], [ -5.57443099, 57.88410242, 80.07976912086653 ], [ -5.57453134, 57.88410562, 79.679653154069655 ], [ -5.57463166, 57.88410102, 79.408630902395544 ], [ -5.57474195, 57.88410336, 79.287464128190749 ], [ -5.57484898, 57.88410815, 79.378810868913405 ], [ -5.5749527, 57.8841067, 78.836012145420099 ], [ -5.57506262, 57.88409806, 78.736737373865964 ], [ -5.57517035, 57.8841022, 78.76995466774153 ], [ -5.57526761, 57.88411116, 78.499687726126012 ], [ -5.57536011, 57.88411426, 78.447597490007155 ], [ -5.57546807, 57.88411593, 78.289816161533381 ], [ -5.57557734, 57.88411341, 78.432121808157262 ], [ -5.57568766, 57.88411668, 78.494025625470314 ], [ -5.57579661, 57.88411449, 78.031627641374342 ], [ -5.57590587, 57.88410901, 78.276604230032262 ], [ -5.57601459, 57.88410998, 78.175065708129367 ], [ -5.57612356, 57.88410927, 78.128637572666193 ], [ -5.57623662, 57.88410361, 77.889323084663957 ], [ -5.57634871, 57.88410514, 77.633022294694655 ], [ -5.57645854, 57.88410892, 78.063712515118752 ], [ -5.57655752, 57.88411263, 78.008980328665075 ], [ -5.57666134, 57.88412012, 78.042574732613176 ], [ -5.57676684, 57.88412687, 78.1860127993682 ], [ -5.57687773, 57.8841252, 78.25357980725046 ], [ -5.57696398, 57.88412279, 78.377388531790075 ], [ -5.57707375, 57.88412575, 78.408340985403356 ], [ -5.57717933, 57.88411891, 78.337754917113742 ], [ -5.57727499, 57.88413282, 78.646901253260495 ], [ -5.57736545, 57.88414484, 78.730699253051242 ], [ -5.57745189, 57.88414602, 78.97605295178171 ], [ -5.57755344, 57.88415579, 79.121755858799006 ], [ -5.5776436, 57.88415967, 79.236883422275568 ], [ -5.57780514, 57.88416998, 79.208951118983151 ], [ -5.57789392, 57.88417201, 79.173468984845314 ], [ -5.57799989, 57.88416989, 79.138742160766085 ], [ -5.57810611, 57.88416663, 79.229711791416193 ], [ -5.57821492, 57.88416299, 79.360315036742648 ], [ -5.57832164, 57.88416832, 79.418822683575783 ], [ -5.57843332, 57.88416848, 79.579624162370436 ], [ -5.57853586, 57.88418032, 79.619257777046769 ], [ -5.57863497, 57.8841919, 79.675123473545099 ], [ -5.57872912, 57.88419817, 79.768357944457492 ], [ -5.57882945, 57.88420469, 79.8929219790557 ], [ -5.57893501, 57.88421211, 80.043908786742648 ], [ -5.57902502, 57.88422105, 80.274163913695773 ], [ -5.57912425, 57.88422372, 80.547449915718644 ], [ -5.57921525, 57.8842307, 80.882263714895544 ], [ -5.57929663, 57.88424823, 81.248029967685724 ], [ -5.57938312, 57.88426077, 81.544719682389967 ], [ -5.57946287, 57.8842793, 81.745532430890236 ], [ -5.57954191, 57.88429669, 81.921055371389684 ], [ -5.57962488, 57.88430849, 82.22378429682216 ], [ -5.5797024, 57.88433577, 82.293616144966691 ], [ -5.57979871, 57.88435463, 82.488767337768039 ], [ -5.57987857, 57.88437567, 82.661270127946608 ], [ -5.57996616, 57.88438721, 82.726571205653073 ], [ -5.58004789, 57.88441154, 82.811879280604245 ], [ -5.58013649, 57.88443843, 82.785456507515519 ], [ -5.58023714, 57.88445751, 82.734875801600339 ], [ -5.58033032, 57.8844759, 82.675991044694655 ], [ -5.58042217, 57.88449115, 82.661269582989846 ], [ -5.58051913, 57.88451491, 82.561995901349221 ], [ -5.58061616, 57.88453492, 82.825090667148615 ], [ -5.58071125, 57.88455421, 82.857175540893039 ], [ -5.58080122, 57.88457356, 82.83716908860508 ], [ -5.58090362, 57.88459681, 82.814898341011613 ], [ -5.58100426, 57.88461218, 82.886239174403073 ], [ -5.58109965, 57.8846381, 82.551047175240129 ], [ -5.58118315, 57.88464977, 82.646545941458044 ], [ -5.58132596, 57.88466935, 82.488764612984269 ], [ -5.58141025, 57.88468839, 82.299276065795382 ], [ -5.58148708, 57.88470877, 82.366843073677629 ], [ -5.58156576, 57.88473181, 82.228689997505754 ], [ -5.5816476, 57.88475346, 82.087139660940466 ], [ -5.58173599, 57.88477548, 81.968991947143039 ], [ -5.58183914, 57.88479201, 81.913126250644709 ], [ -5.58194243, 57.88480546, 81.335223048042863 ], [ -5.58202435, 57.88482019, 81.169892433680417 ], [ -5.58212296, 57.88483568, 80.912082113507424 ], [ -5.58222482, 57.88485254, 80.514231531929582 ], [ -5.58233187, 57.88487241, 80.303982312307653 ], [ -5.58241296, 57.88488512, 80.342861706838903 ], [ -5.58249534, 57.88489662, 79.980115059412839 ], [ -5.58259405, 57.88491103, 79.840452453037287 ], [ -5.58269974, 57.8849245, 79.795910957850339 ], [ -5.58279954, 57.88493798, 79.633977058924557 ], [ -5.58289851, 57.88494628, 79.620765127423439 ], [ -5.58300112, 57.8849502, 79.472420270071325 ], [ -5.58309069, 57.8849608, 79.400324671578019 ], [ -5.58319703, 57.88497384, 79.257264804809054 ], [ -5.58330527, 57.88497405, 79.342949444876012 ], [ -5.58341672, 57.8849695, 79.122886099103127 ], [ -5.58349392, 57.88493353, 79.018705626865412 ], [ -5.58360424, 57.88497671, 78.834500435389401 ], [ -5.58369739, 57.88498293, 78.695214939086398 ], [ -5.58379563, 57.88498571, 78.581975105799557 ], [ -5.58389934, 57.88498821, 78.463073171857033 ], [ -5.58399517, 57.88498593, 78.110895960640519 ], [ -5.58410053, 57.88498633, 77.423904950247106 ], [ -5.58419746, 57.88497939, 76.638017368285617 ], [ -5.58430834, 57.88497416, 76.00840158459421 ], [ -5.58441844, 57.88496841, 75.455033969848117 ], [ -5.58453468, 57.88497117, 74.724256774326349 ], [ -5.58462353, 57.88496834, 74.058026436365964 ], [ -5.58473667, 57.88495834, 73.757185241123224 ], [ -5.58482233, 57.88495805, 73.398967729264967 ], [ -5.58491028, 57.88495847, 73.088688972987057 ], [ -5.58499989, 57.88495819, 72.774258736170651 ], [ -5.58508451, 57.88495554, 72.397168282069089 ], [ -5.58519105, 57.88495082, 72.161628164532814 ], [ -5.58529836, 57.88494724, 72.014038617239279 ], [ -5.58540172, 57.88494324, 72.206546769792297 ], [ -5.58550842, 57.88493715, 72.559479291067404 ], [ -5.58561413, 57.88493218, 72.799926199200783 ], [ -5.58572411, 57.88493012, 73.08038492199654 ], [ -5.58583489, 57.88492999, 73.335930401907262 ], [ -5.58593643, 57.88492648, 73.660929529976457 ], [ -5.58604434, 57.88492255, 74.100302001377131 ], [ -5.58612919, 57.88492117, 74.145220606636613 ], [ -5.58624032, 57.88492077, 74.309042235752131 ], [ -5.58634911, 57.88491375, 74.249780368773898 ], [ -5.58644542, 57.88490917, 74.48418806617903 ], [ -5.58655082, 57.88490255, 74.306400285417311 ], [ -5.58665761, 57.88490342, 74.470976134677912 ], [ -5.58675257, 57.88489585, 74.477770655464738 ], [ -5.58685602, 57.88490014, 74.147486536812394 ], [ -5.58695999, 57.88489231, 74.125593444248224 ], [ -5.58706294, 57.88489125, 74.069728837663405 ], [ -5.58716093, 57.88488547, 73.999896989518874 ], [ -5.58726836, 57.8848794, 74.11577986305403 ], [ -5.58735286, 57.88487555, 74.289037963291193 ], [ -5.58745845, 57.88486605, 74.245251778162839 ], [ -5.58754393, 57.88486096, 74.099927071131589 ], [ -5.58764382, 57.88485005, 74.159188938109835 ], [ -5.58772946, 57.88485106, 74.354339040997658 ], [ -5.58783001, 57.88484421, 74.477770655464738 ], [ -5.58792236, 57.88482359, 74.872602721591974 ], [ -5.58802952, 57.8848069, 74.554775224382155 ], [ -5.5881162, 57.88480122, 74.553264604264967 ], [ -5.58822284, 57.88479224, 74.677073328804582 ], [ -5.58832948, 57.88478096, 74.707647582431818 ], [ -5.58842194, 57.88477026, 74.676316928832492 ], [ -5.58851457, 57.88476014, 74.600822980032262 ], [ -5.58860388, 57.88474387, 74.52872629162546 ], [ -5.58870326, 57.88473109, 74.230904156790075 ], [ -5.58880439, 57.88471487, 74.201461233380471 ], [ -5.58890478, 57.88470474, 74.057646056552912 ], [ -5.58900516, 57.88468819, 73.925532191109269 ], [ -5.58911243, 57.88468579, 73.62959778646362 ], [ -5.58920546, 57.88467816, 73.438976274186842 ], [ -5.58930045, 57.88467167, 73.320073250330807 ], [ -5.58939684, 57.88466075, 73.539381286045099 ], [ -5.589494, 57.88464701, 73.431425353427912 ], [ -5.58959908, 57.88464125, 73.568824209454689 ], [ -5.58970702, 57.88463155, 73.517489283394426 ], [ -5.58980954, 57.88461884, 73.691124493704137 ], [ -5.5899028, 57.88460604, 74.048586695503801 ], [ -5.59001077, 57.8846021, 74.302622645210832 ], [ -5.59010962, 57.88458882, 74.549108764072443 ], [ -5.59021129, 57.88457353, 74.447947352242082 ], [ -5.59036417, 57.88455883, 74.701605101963068 ], [ -5.59046309, 57.884551, 74.775211320573561 ], [ -5.59056386, 57.88454337, 75.130408682110939 ], [ -5.59065139, 57.88453807, 75.391994462663405 ], [ -5.59074177, 57.88452152, 75.618098109078019 ], [ -5.59082759, 57.88450995, 75.406338814295651 ], [ -5.59092409, 57.88450243, 75.465978881259943 ], [ -5.59103267, 57.88449766, 75.394637502911721 ], [ -5.59113299, 57.88448878, 75.634706211059054 ], [ -5.59121693, 57.88448219, 75.621495369471432 ], [ -5.5913248, 57.88447109, 75.558836242099787 ], [ -5.59143068, 57.88446833, 75.340660626516637 ], [ -5.59153061, 57.88445712, 75.352361937900568 ], [ -5.59162891, 57.88444665, 75.582617064853693 ], [ -5.59172942, 57.88443849, 75.511652796578019 ], [ -5.59182747, 57.88443376, 75.585637215174557 ], [ -5.5919386, 57.88442414, 75.566763183017756 ], [ -5.59204754, 57.88441418, 75.496554224800676 ], [ -5.5921551, 57.88440195, 75.519202627423439 ], [ -5.59225568, 57.88439211, 75.960839939086398 ], [ -5.59235368, 57.88438159, 75.919695704292863 ], [ -5.5924523, 57.8843726, 76.011420645001564 ], [ -5.59255047, 57.88435464, 75.854394626586398 ], [ -5.59265245, 57.88434803, 76.076722812621554 ], [ -5.5927521, 57.88433194, 76.166560023140519 ], [ -5.59285665, 57.88432157, 76.107297066248776 ], [ -5.59295933, 57.88431391, 75.992169502772214 ], [ -5.59306643, 57.88430814, 75.966502039742082 ], [ -5.59317028, 57.88430582, 76.200532627074679 ], [ -5.59327618, 57.8843015, 76.30924277983695 ], [ -5.5933787, 57.88430249, 76.128058828595314 ], [ -5.59347585, 57.88429914, 76.065021501237624 ], [ -5.59357828, 57.88430138, 76.085026863612057 ], [ -5.59367727, 57.88431257, 76.229597350498224 ], [ -5.59377035, 57.88432395, 76.422483703037287 ], [ -5.5938703, 57.8843367, 76.506280612914523 ], [ -5.59397217, 57.88434964, 76.772772094150568 ], [ -5.59406862, 57.88435803, 76.990948799647214 ], [ -5.59416355, 57.88435862, 77.128724765746554 ], [ -5.594266, 57.8843626, 77.241587488960832 ], [ -5.59436648, 57.88435529, 77.417487539532814 ], [ -5.5944606, 57.88434316, 77.555640615704689 ], [ -5.5945597, 57.88433392, 77.534502833199113 ], [ -5.59466103, 57.88432374, 77.634154714825783 ], [ -5.59476077, 57.88431076, 78.077301556692419 ], [ -5.59486042, 57.88430257, 78.068997505701901 ], [ -5.59496476, 57.88429575, 78.063712515118752 ], [ -5.59506825, 57.88428743, 77.995390197177912 ], [ -5.59517111, 57.88428673, 78.28981507161987 ], [ -5.59527907, 57.88427361, 78.500443036184606 ], [ -5.59538163, 57.8842652, 78.338132027186276 ], [ -5.59548919, 57.8842631, 78.30944441383528 ], [ -5.59559051, 57.88424501, 78.382295322387179 ], [ -5.5956919, 57.88423895, 78.678229727032814 ], [ -5.59579702, 57.88424063, 79.219518375365695 ], [ -5.59589528, 57.88424144, 79.308978475812111 ], [ -5.59599231, 57.88425413, 79.536968762502966 ], [ -5.59608869, 57.88426751, 79.780057620971164 ], [ -5.59617976, 57.88427743, 79.897450024709997 ], [ -5.59627155, 57.88428994, 80.496491009817419 ], [ -5.59636684, 57.88430643, 80.880375984705807 ], [ -5.59645294, 57.88432083, 81.223117269757424 ], [ -5.59653741, 57.8843304, 81.443181160487057 ], [ -5.59662216, 57.88434299, 81.997680650407545 ], [ -5.596714, 57.88435136, 82.537459768536721 ], [ -5.5967464, 57.88440071, 82.88548495425799 ], [ -5.59691105, 57.88441347, 83.118759686575231 ], [ -5.59700443, 57.88441394, 83.50264466146362 ], [ -5.5970913, 57.88441932, 83.512081677542028 ], [ -5.59719913, 57.8844216, 83.756680611170651 ], [ -5.59729833, 57.88442813, 84.138677855869318 ], [ -5.59739292, 57.88442983, 84.363270882166745 ], [ -5.59748161, 57.88444683, 84.744513361763566 ], [ -5.5975591, 57.8844828, 84.969861698119601 ], [ -5.59761846, 57.88452803, 85.206534235787004 ], [ -5.59770359, 57.88454314, 85.518700177297887 ], [ -5.59779223, 57.88455652, 85.889750875714483 ], [ -5.59787217, 57.88457224, 85.96675435471839 ], [ -5.59795977, 57.88459299, 86.240418556727306 ], [ -5.5980341, 57.8846268, 86.619395651105108 ], [ -5.59809677, 57.88466043, 86.948547894583058 ], [ -5.59818754, 57.88468235, 87.264488206559903 ], [ -5.59826423, 57.88470166, 87.623837048635792 ], [ -5.59833443, 57.88473155, 88.225520529034796 ], [ -5.59842318, 57.88474868, 88.367825630701915 ], [ -5.59851854, 57.88477055, 88.463324941876593 ], [ -5.59860628, 57.88478209, 88.785682119610968 ], [ -5.59869912, 57.8847949, 88.992156968766935 ], [ -5.59878733, 57.88480991, 89.253364549333341 ], [ -5.59887696, 57.8848245, 89.392272390607062 ], [ -5.59896707, 57.88483895, 89.184287466290655 ], [ -5.59906024, 57.8848532, 89.22090202055962 ], [ -5.59915045, 57.88487182, 89.419449928797619 ], [ -5.59924451, 57.88488839, 89.548166533847848 ], [ -5.59933614, 57.8849027, 89.162016718697174 ], [ -5.59942579, 57.88491754, 89.138614095929327 ], [ -5.59952892, 57.88493133, 89.24430518828423 ], [ -5.59961276, 57.88495798, 89.283939347917325 ], [ -5.59970793, 57.88497683, 89.445117936784513 ], [ -5.59981066, 57.88499477, 89.718782138793443 ], [ -5.59991542, 57.88501328, 89.439456381085577 ], [ -5.60001297, 57.88502172, 89.461727128679044 ], [ -5.60010507, 57.88503312, 89.642156314818834 ], [ -5.60020422, 57.88505122, 89.913933331594777 ], [ -5.60029907, 57.88506895, 90.107952104264982 ], [ -5.60038961, 57.88507891, 90.411435794799303 ], [ -5.60049709, 57.88506614, 90.587712955443834 ], [ -5.60057794, 57.88508773, 90.783241258317716 ], [ -5.60067045, 57.88509853, 91.575923361066046 ], [ -5.60077085, 57.88510361, 91.769186823677643 ], [ -5.60087709, 57.88510549, 92.042473370657277 ], [ -5.60097534, 57.88510959, 92.014540522408112 ], [ -5.60106125, 57.88509961, 92.33765301020108 ], [ -5.60117705, 57.8851023, 92.463727119959728 ], [ -5.60126991, 57.8851067, 93.128825037788971 ], [ -5.60137273, 57.88511351, 93.323598030604259 ], [ -5.60147659, 57.88511673, 93.351530878853424 ], [ -5.60158209, 57.88512247, 93.36549703049964 ], [ -5.6016826, 57.88513252, 93.661431435145275 ], [ -5.60177853, 57.88514162, 93.773162283185187 ], [ -5.60187537, 57.88514168, 93.912070669415655 ], [ -5.60198032, 57.88515052, 94.041164929495167 ], [ -5.60207953, 57.88515137, 94.172146374807667 ], [ -5.60218803, 57.88515785, 94.538667392699693 ], [ -5.60227441, 57.88516773, 94.343139089825812 ], [ -5.60238148, 57.88517203, 94.457889543229825 ], [ -5.60248392, 57.88518071, 94.59981753482441 ], [ -5.6025713, 57.885184, 94.976907988925973 ], [ -5.602684, 57.88518976, 94.647756290404772 ], [ -5.60279342, 57.88518621, 94.728534684831388 ], [ -5.60290161, 57.88519038, 94.707774012398346 ], [ -5.60300212, 57.88520289, 94.765904004202199 ], [ -5.60310157, 57.88520654, 94.81006784435985 ], [ -5.60319072, 57.885215, 95.024091979404488 ], [ -5.60329652, 57.88522572, 95.14563640863858 ], [ -5.60339474, 57.88523576, 94.645869105171784 ], [ -5.60350308, 57.8852465, 94.44128144124879 ], [ -5.60360492, 57.88525281, 94.265759045706105 ], [ -5.60370726, 57.88527257, 94.592268793892487 ], [ -5.60381212, 57.8852835, 94.966339097673185 ], [ -5.60390934, 57.88529791, 94.706263937237921 ], [ -5.60401252, 57.88531327, 94.596798474417042 ], [ -5.60411595, 57.88531988, 95.118081215418712 ], [ -5.60421402, 57.88533546, 94.24160111287965 ], [ -5.60432043, 57.88534591, 94.567355551007452 ], [ -5.6044188, 57.88535774, 94.854231139560738 ], [ -5.60452574, 57.88536409, 94.999933501621285 ], [ -5.60462541, 57.88537256, 95.091657897373238 ], [ -5.60472982, 57.88537671, 95.028243459942999 ], [ -5.6048252, 57.88538863, 95.572929368669278 ], [ -5.60491786, 57.88539963, 95.712592520001593 ], [ -5.60506159, 57.88540867, 95.922086974521676 ], [ -5.60515405, 57.88541053, 95.940582806692433 ], [ -5.60524814, 57.88542468, 95.842818655255499 ], [ -5.60533966, 57.88543335, 95.807336521117662 ], [ -5.60543831, 57.88543134, 95.798654815097848 ], [ -5.60554203, 57.88543952, 95.554433536498522 ], [ -5.60564946, 57.88544894, 96.392034244506334 ], [ -5.60575848, 57.88545472, 96.004374899151983 ], [ -5.6058675, 57.8854608, 95.757888235333624 ], [ -5.60597169, 57.88546545, 95.676355075805162 ], [ -5.60607126, 57.88547784, 95.488376058819952 ], [ -5.60615769, 57.8854808, 95.523858192957775 ], [ -5.60626846, 57.88548992, 95.574816008945504 ], [ -5.60637546, 57.88549728, 95.613695403476754 ], [ -5.60648197, 57.88550362, 95.39891650333027 ], [ -5.60659084, 57.8855073, 95.361924838988756 ], [ -5.60669414, 57.8855183, 95.095810467825245 ], [ -5.60680502, 57.88553077, 95.22226223261319 ], [ -5.60689323, 57.88552897, 95.11619348522899 ], [ -5.60697833, 57.88553176, 95.173568166974249 ], [ -5.6070607, 57.88554449, 95.464595781022794 ], [ -5.60716392, 57.88556562, 95.802806840593107 ], [ -5.60725851, 57.88558211, 96.002110058889699 ], [ -5.60736499, 57.88558945, 95.953417083164254 ], [ -5.6074735, 57.88559903, 95.918690259085011 ], [ -5.60757408, 57.88561454, 95.509892586268322 ], [ -5.60766756, 57.8856345, 94.138929625888863 ], [ -5.6077604, 57.88565415, 94.134022290335011 ], [ -5.60784438, 57.88566596, 94.201211098231212 ], [ -5.60795357, 57.88568509, 94.129869719883004 ], [ -5.60803579, 57.88569975, 94.159689208408395 ], [ -5.6081443, 57.8857137, 94.217819200212247 ], [ -5.60824535, 57.88572877, 94.261983040369884 ], [ -5.60834802, 57.88573374, 94.070607307948009 ], [ -5.60845223, 57.88573998, 94.057395921403653 ], [ -5.60854855, 57.88573551, 93.992849063842272 ], [ -5.60864928, 57.88573597, 93.560648223300973 ], [ -5.60873219, 57.88572355, 93.42853435785733 ], [ -5.60880915, 57.88570373, 93.142036424333341 ], [ -5.60890841, 57.88569029, 93.474208273175421 ], [ -5.60901136, 57.88567408, 94.472233349905324 ], [ -5.6091155, 57.88566206, 94.26273889538524 ], [ -5.60921824, 57.88565315, 94.257454449758839 ], [ -5.60932961, 57.88564986, 94.24348775315589 ], [ -5.60943797, 57.88565099, 94.462796878783678 ], [ -5.60952622, 57.88564688, 94.246130248447457 ], [ -5.60963166, 57.88564816, 94.349178845510792 ], [ -5.609717, 57.88564724, 94.468458434482613 ], [ -5.60982503, 57.88564595, 94.177430820434068 ], [ -5.60992915, 57.88563804, 94.105334676984015 ], [ -5.61003222, 57.88564218, 95.4883766037767 ], [ -5.61013867, 57.8856459, 94.768923609566315 ], [ -5.61024353, 57.88565697, 95.117326450316881 ], [ -5.61035051, 57.8856607, 95.170171451537584 ], [ -5.61045198, 57.88567196, 95.353997898070787 ], [ -5.61054723, 57.88568158, 95.717121655569386 ], [ -5.61063853, 57.88569692, 95.811111436540372 ], [ -5.61073635, 57.88570295, 95.799410125156442 ], [ -5.61083586, 57.88571183, 95.736372797798737 ], [ -5.61092809, 57.88572103, 95.979462201223683 ], [ -5.61102197, 57.8857289, 96.006639739414254 ], [ -5.61108186, 57.88569477, 95.999845218627428 ], [ -5.61114653, 57.88573797, 96.189333765816315 ], [ -5.61123785, 57.88574366, 96.162910992727589 ], [ -5.61134381, 57.88575684, 95.09807421817402 ], [ -5.61144666, 57.88577046, 96.005506229369615 ], [ -5.61153988, 57.88578456, 95.967381599940197 ], [ -5.61162361, 57.88580078, 95.763926901105108 ], [ -5.6117163, 57.88582063, 95.705796909301256 ], [ -5.61181449, 57.88583056, 95.381552546333893 ], [ -5.61191148, 57.88584598, 95.351354857822457 ], [ -5.6120003, 57.88586313, 95.258120386910065 ], [ -5.61209472, 57.88588236, 95.054288033045665 ], [ -5.61219123, 57.8859034, 94.887447343522794 ], [ -5.61229029, 57.88590163, 94.682482569527252 ], [ -5.6123519, 57.88594973, 94.499788543125192 ], [ -5.61243615, 57.88597478, 94.086084079711412 ], [ -5.61252973, 57.88596964, 94.002286079920665 ], [ -5.61263212, 57.88597541, 93.76712416237045 ], [ -5.61273474, 57.88598529, 93.517240238158678 ], [ -5.61283996, 57.88598328, 93.202432346312975 ], [ -5.6129265, 57.8859893, 93.111839825735402 ], [ -5.61302643, 57.88599716, 93.044273362809903 ], [ -5.61312892, 57.88601221, 93.031061976265534 ], [ -5.61323564, 57.8860267, 92.740034362216988 ], [ -5.61334148, 57.88602606, 92.480336311854259 ], [ -5.61343847, 57.88604154, 92.336898245099249 ], [ -5.61351577, 57.88606911, 92.357658917532277 ], [ -5.61359641, 57.88608364, 92.219505841360402 ], [ -5.61368856, 57.8860867, 92.262536716430162 ], [ -5.61378191, 57.88610463, 92.656235817469494 ], [ -5.61388523, 57.88611955, 92.639250060459176 ], [ -5.61398495, 57.88613937, 92.730596801181832 ], [ -5.61408661, 57.88615771, 93.012187944108732 ], [ -5.61418648, 57.88617771, 93.275282709908112 ], [ -5.61428471, 57.8861934, 93.488552079850919 ], [ -5.6143729, 57.88620852, 93.634254441911466 ], [ -5.61445799, 57.88621908, 93.570084694422619 ], [ -5.61454651, 57.88624059, 93.770142677821056 ], [ -5.61462921, 57.88626022, 94.101936871633839 ], [ -5.61471509, 57.88628093, 94.307279300658678 ], [ -5.61480378, 57.88630835, 94.407308292357897 ], [ -5.61489262, 57.88633278, 94.639450604543995 ], [ -5.61497807, 57.88635219, 94.800629738367931 ], [ -5.6150673, 57.88637021, 94.77647180554149 ], [ -5.61515589, 57.886398, 94.782511016269723 ], [ -5.6152457, 57.88642226, 94.780246176007452 ], [ -5.61534188, 57.88644946, 94.792702797449962 ], [ -5.61541313, 57.886475, 94.679085309133839 ], [ -5.61550056, 57.88650459, 94.540932232961964 ], [ -5.61559097, 57.8865278, 94.399004786324127 ], [ -5.61569025, 57.88654863, 94.471856239832775 ], [ -5.6157944, 57.88656595, 94.221972860577765 ], [ -5.61589838, 57.88658714, 94.037391103985968 ], [ -5.61599899, 57.88659977, 93.952083573991544 ], [ -5.61609201, 57.88661127, 93.6750221115892 ], [ -5.61619536, 57.88663193, 93.552345262223966 ], [ -5.61629512, 57.88665231, 93.302461338012193 ], [ -5.61639633, 57.88666495, 93.076735346626862 ], [ -5.61650294, 57.88667889, 93.020115429983449 ], [ -5.61659834, 57.8866946, 92.852519975358732 ], [ -5.61670028, 57.88670716, 92.572438907592272 ], [ -5.61679814, 57.88671947, 92.311986092127697 ], [ -5.6169015, 57.88673807, 92.155336638828317 ], [ -5.61699082, 57.88675665, 92.050022656545949 ], [ -5.6170861, 57.88677198, 92.122873565097848 ], [ -5.61717173, 57.88679224, 92.20289664946587 ], [ -5.61726391, 57.88680554, 92.24328611915756 ], [ -5.61736052, 57.88681657, 91.565731579885792 ], [ -5.61746579, 57.88682748, 91.726532513723683 ], [ -5.61756506, 57.88683473, 91.494012546508287 ], [ -5.61766754, 57.8868406, 91.379262638061022 ], [ -5.61776796, 57.88684295, 91.263380309482613 ], [ -5.61787147, 57.88684027, 91.059547410661466 ], [ -5.61797564, 57.88683922, 91.028594957048185 ], [ -5.61807721, 57.88684019, 91.144100175554044 ], [ -5.61817413, 57.88684561, 91.360389150860968 ], [ -5.61829813, 57.88685125, 91.261115469220343 ], [ -5.61839257, 57.88685751, 91.218839359252428 ], [ -5.61849377, 57.88686497, 90.738323198014982 ], [ -5.61859864, 57.88687423, 90.666226509608165 ], [ -5.61868188, 57.88688424, 90.724356501412018 ], [ -5.61878372, 57.88689288, 90.617155333896676 ], [ -5.61887799, 57.88691638, 90.625082274814645 ], [ -5.61898124, 57.88694018, 90.711899879969494 ], [ -5.61908266, 57.88695869, 90.648107787509957 ], [ -5.61919637, 57.88697171, 90.787770938842272 ], [ -5.61928806, 57.88699727, 90.963670989414254 ], [ -5.61937648, 57.88701421, 91.354727595162018 ], [ -5.61945875, 57.88702946, 91.437015519792325 ], [ -5.6195653, 57.88703893, 91.588379982508556 ], [ -5.61966807, 57.88704417, 92.032282134433785 ], [ -5.61977115, 57.88704641, 92.312740312272794 ], [ -5.61986619, 57.88704313, 92.121741689923468 ], [ -5.61993357, 57.88707542, 92.050023201502697 ], [ -5.6199324, 57.88712207, 91.253565638374909 ], [ -5.61988311, 57.88717301, 91.994912815062975 ], [ -5.61988025, 57.88722464, 91.654059805157843 ], [ -5.61997071, 57.88715957, 91.632166712593659 ], [ -5.61999384, 57.88711104, 91.875255571061857 ], [ -5.62002201, 57.88706004, 91.736347184831388 ], [ -5.62011083, 57.88704827, 91.549123477904772 ], [ -5.62008657, 57.88699178, 90.991226182634122 ], [ -5.61999697, 57.88699851, 90.662073939156159 ], [ -5.61994192, 57.88703732, 90.419362190760509 ], [ -5.61987667, 57.88706635, 89.796162727869884 ], [ -5.61979351, 57.88709572, 89.491168962175138 ], [ -5.61971177, 57.88707724, 90.056615543334459 ], [ -5.62344201, 57.88728694, 90.250256116018605 ], [ -5.62353984, 57.88727505, 90.806266771013028 ], [ -5.62363537, 57.88725528, 90.872323158778087 ], [ -5.62372701, 57.88723193, 91.141834790335011 ], [ -5.6238176, 57.88720866, 91.00858850476024 ], [ -5.62389189, 57.88716365, 91.029349177193268 ], [ -5.62399031, 57.88714831, 90.955742958582775 ], [ -5.62407124, 57.88713253, 91.15391321179149 ], [ -5.62414029, 57.88710547, 91.430219909091988 ], [ -5.62421137, 57.88707799, 91.829203455757721 ], [ -5.62428888, 57.88705688, 91.876386901279488 ], [ -5.62435662, 57.88702887, 92.388987936261358 ], [ -5.62443926, 57.88699138, 92.415033599277535 ], [ -5.62452044, 57.88696119, 90.247991275756334 ], [ -5.62459405, 57.88692997, 90.506934561017218 ], [ -5.6246636, 57.88689534, 90.810418251551525 ], [ -5.62472908, 57.88686239, 90.860621847394171 ], [ -5.62479816, 57.88682653, 91.110128116576647 ], [ -5.62487475, 57.88679125, 91.106730856183233 ], [ -5.62494995, 57.88675788, 91.138060964825812 ], [ -5.62502332, 57.88672437, 91.611405495203869 ], [ -5.62508519, 57.88668774, 91.841283512084459 ], [ -5.62515411, 57.88665584, 91.859024034196622 ], [ -5.62522746, 57.88662246, 91.983965723824127 ], [ -5.6252851, 57.88658368, 91.545348562482062 ], [ -5.62536103, 57.88654336, 91.680482033289806 ], [ -5.62543175, 57.88651047, 91.863176059691881 ], [ -5.62551025, 57.88647759, 94.237825652500192 ], [ -5.6255815, 57.88644332, 94.531872871912853 ], [ -5.62565334, 57.88640294, 94.737215300937692 ], [ -5.62571949, 57.8863592, 94.924439007864308 ], [ -5.62577707, 57.8863111, 95.178097302542042 ], [ -5.62581666, 57.88626179, 95.71145900995694 ], [ -5.62585074, 57.88621358, 96.09307859962631 ], [ -5.62580774, 57.88617472, 96.134977599521676 ], [ -5.62594332, 57.88611582, 96.404112121006051 ], [ -5.62601512, 57.88607607, 96.784977490530324 ], [ -5.62607693, 57.88603791, 96.891801003016369 ], [ -5.62616142, 57.88600647, 97.697316837279772 ], [ -5.62621761, 57.88597269, 97.830940777883839 ], [ -5.62629511, 57.88593583, 97.844152164428209 ], [ -5.62638418, 57.88590485, 97.128850650756334 ], [ -5.62646953, 57.88586586, 96.905389499633287 ], [ -5.62655211, 57.88583836, 96.880476801704987 ], [ -5.62663867, 57.88580245, 97.179053701642218 ], [ -5.62669854, 57.88576914, 97.120923709838365 ], [ -5.62676587, 57.88574078, 97.146214062795949 ], [ -5.62683632, 57.88571518, 97.305128356357613 ], [ -5.62691566, 57.88567901, 97.580302088570221 ], [ -5.62700575, 57.88564715, 97.66636438366649 ], [ -5.62708751, 57.88561648, 98.058930519617931 ], [ -5.62718058, 57.88558931, 98.556810092895006 ], [ -5.62726915, 57.88556179, 98.975421891862638 ], [ -5.62735703, 57.8855347, 99.20076968326191 ], [ -5.62744137, 57.88551261, 99.853788634677926 ], [ -5.62752674, 57.88549195, 101.004310594255216 ], [ -5.6276141, 57.88547288, 101.130007593941315 ], [ -5.62770756, 57.8854584, 101.248154762781994 ], [ -5.62779582, 57.88543717, 101.166622148210294 ], [ -5.62788876, 57.88541879, 101.200216552158395 ], [ -5.6279889, 57.88540946, 101.411221081838917 ], [ -5.62809375, 57.88540593, 100.541535500086681 ], [ -5.62819744, 57.88538886, 100.33694838112045 ], [ -5.62830046, 57.8853688, 100.080648136107897 ], [ -5.62839877, 57.8853465, 99.305707100428478 ], [ -5.6284862, 57.88531597, 98.679865687203034 ], [ -5.62856762, 57.88527989, 98.316364274675138 ], [ -5.62865153, 57.88524331, 98.096300928902252 ], [ -5.62873619, 57.88520468, 96.980506883317716 ], [ -5.62881927, 57.88516364, 96.602661664114308 ], [ -5.62888851, 57.88513777, 96.552080958199127 ], [ -5.62898746, 57.88511631, 96.635878957989874 ], [ -5.62908758, 57.88509954, 96.171216133631603 ], [ -5.62919256, 57.88508454, 96.015699645420113 ], [ -5.62929745, 57.8850717, 95.6635224342036 ], [ -5.62939942, 57.88505432, 96.019096905813527 ], [ -5.62949938, 57.88503401, 95.788464123831105 ], [ -5.62958658, 57.88501672, 95.652198232892218 ], [ -5.62968045, 57.8849882, 95.6971168381517 ], [ -5.62977086, 57.88496313, 95.570665618320504 ], [ -5.62986618, 57.88493767, 94.877257197212799 ], [ -5.62996849, 57.8849116, 93.710504790683785 ], [ -5.63007234, 57.88489113, 93.804494026698009 ], [ -5.63018123, 57.88487609, 93.450051430262462 ], [ -5.63028939, 57.88486461, 92.866109016932384 ], [ -5.63039309, 57.88485384, 92.34558104103256 ], [ -5.63050333, 57.88485471, 91.954524435284796 ], [ -5.63059055, 57.88485513, 91.618200560947457 ], [ -5.63070139, 57.88485654, 91.26753287993462 ], [ -5.63078714, 57.88486701, 91.139193929913702 ], [ -5.63089073, 57.88486555, 91.091255174333341 ], [ -5.6309927, 57.88487144, 90.262713282417877 ], [ -5.63109531, 57.88487675, 89.62328282761878 ], [ -5.6311798, 57.88487997, 88.360653454885792 ], [ -5.63132695, 57.88489529, 87.41509735921754 ], [ -5.63142629, 57.8848973, 87.849562495064362 ], [ -5.63151943, 57.88489806, 87.976014259852306 ], [ -5.63160651, 57.88489762, 87.87825065337212 ], [ -5.63171715, 57.88489174, 87.750666468453034 ], [ -5.63182637, 57.88487845, 87.282606383701363 ], [ -5.63193647, 57.88486947, 87.155399853811574 ], [ -5.63202041, 57.88485925, 86.706590911289254 ], [ -5.63210524, 57.88485088, 86.480865464860685 ], [ -5.63218973, 57.88484336, 86.32950100214444 ], [ -5.63229754, 57.88483505, 85.653456538033112 ], [ -5.63240798, 57.88482573, 85.756882790125744 ], [ -5.63249379, 57.88482134, 85.77311378203423 ], [ -5.63257958, 57.88481471, 86.52918133051358 ], [ -5.63268903, 57.88481209, 87.215417575805162 ], [ -5.63279347, 57.88481107, 87.381125845196905 ], [ -5.63289393, 57.88480554, 87.290533324619332 ], [ -5.63298707, 57.88480857, 86.959116240879098 ], [ -5.63309334, 57.88482268, 86.716404492483449 ], [ -5.6332, 57.88483102, 86.756793962175138 ], [ -5.6333059, 57.88484025, 86.765098013165655 ], [ -5.63340946, 57.8848542, 86.835684626412018 ], [ -5.63351029, 57.88484906, 86.796805231880768 ], [ -5.6336205, 57.88483846, 86.478599534684903 ], [ -5.63370313, 57.88482584, 86.339691148454435 ], [ -5.63378613, 57.88481091, 86.386496938946905 ], [ -5.6338668, 57.88479743, 86.253628308401417 ], [ -5.63396779, 57.88477896, 86.021485451258556 ], [ -5.63407536, 57.88476454, 86.109812586617096 ], [ -5.63417819, 57.88474993, 85.793871729683502 ], [ -5.63425882, 57.88473481, 85.608912863019171 ], [ -5.63436875, 57.88472753, 85.58400016509087 ], [ -5.63447908, 57.88472049, 85.419046660800973 ], [ -5.63458021, 57.88470611, 85.442072173496285 ], [ -5.63466686, 57.88470208, 85.200492845231764 ], [ -5.63477234, 57.88469114, 85.232954829048722 ], [ -5.63487872, 57.88468145, 85.103861113925959 ], [ -5.63496501, 57.88467284, 85.358651828734835 ], [ -5.63504978, 57.8846634, 85.710074274849504 ], [ -5.6351484, 57.88465297, 84.946080330408947 ], [ -5.63524839, 57.88463858, 84.885686043299572 ], [ -5.6353555, 57.88462748, 84.898142664742082 ], [ -5.63545896, 57.88461431, 84.700727176635226 ], [ -5.63555653, 57.88460022, 84.458393083268874 ], [ -5.63564728, 57.88458763, 84.166233049089186 ], [ -5.6357306, 57.88457066, 83.843875326398049 ], [ -5.63581299, 57.88454992, 83.765361772233717 ], [ -5.63590885, 57.88452923, 83.378834847010495 ], [ -5.63599532, 57.88450179, 83.357318864518874 ], [ -5.63609359, 57.88447508, 82.864346626795651 ], [ -5.63616862, 57.88445354, 82.550671155081091 ], [ -5.63624584, 57.88443051, 81.915770925763283 ], [ -5.636323, 57.884412, 81.416381822282545 ], [ -5.63641332, 57.88438621, 81.825934260201066 ], [ -5.63650015, 57.88436507, 81.621346596278073 ], [ -5.63659228, 57.88433819, 81.25369261329817 ], [ -5.63668526, 57.88431794, 81.080812168090304 ], [ -5.63678217, 57.88429265, 81.056277125191301 ], [ -5.63685768, 57.88426925, 80.815453106985387 ], [ -5.63693613, 57.88425104, 80.772799341988176 ], [ -5.63701862, 57.88423322, 80.708629594499342 ], [ -5.63709112, 57.8842079, 80.715424115286169 ], [ -5.63717328, 57.88418732, 80.49875802990671 ], [ -5.63726015, 57.88417129, 80.410052149605363 ], [ -5.63735492, 57.8841515, 79.99181746071028 ], [ -5.63744088, 57.88412957, 80.169982351544533 ], [ -5.63748402, 57.88408708, 80.013332353288405 ], [ -5.63755197, 57.88405737, 80.023523044555148 ], [ -5.63767378, 57.8840835, 79.974074758771096 ], [ -5.63776704, 57.88406639, 80.179417732752682 ], [ -5.63782462, 57.88410295, 79.986532470127131 ], [ -5.63789726, 57.88414403, 79.841961983240964 ], [ -5.63797462, 57.88416519, 79.838941832920099 ], [ -5.63803983, 57.88419528, 79.901602050205256 ], [ -5.63811934, 57.88421854, 79.840830653023332 ], [ -5.63821958, 57.88422072, 79.433164855381037 ], [ -5.63830315, 57.88421356, 79.558107089965304 ], [ -5.63840171, 57.88422097, 79.864233820747941 ], [ -5.63849833, 57.88423721, 80.280957889525851 ], [ -5.63859275, 57.88425922, 80.288129520385226 ], [ -5.63869181, 57.88428168, 79.914814526663122 ], [ -5.63878972, 57.88428984, 79.62039074213466 ], [ -5.63888017, 57.8843065, 79.661534976928195 ], [ -5.63897385, 57.884323, 79.660779666869601 ], [ -5.63906373, 57.88434481, 79.878955282452736 ], [ -5.63916363, 57.88436375, 80.111098139595597 ], [ -5.63926475, 57.8843647, 80.030320290125729 ], [ -5.63936683, 57.88438063, 79.930291298426511 ], [ -5.6394549, 57.88438618, 79.935198089023615 ], [ -5.63954319, 57.88438974, 80.330407265223386 ], [ -5.63964869, 57.88440046, 80.267369937865695 ], [ -5.63975095, 57.8844165, 80.077881390676794 ], [ -5.63985607, 57.8844249, 79.990687220406144 ], [ -5.63994749, 57.88443325, 79.734763540509377 ], [ -5.64004937, 57.88444325, 80.357963003400002 ], [ -5.64015799, 57.88445425, 80.604826232334162 ], [ -5.64025976, 57.88447114, 80.668994889909499 ], [ -5.6403652, 57.88447904, 80.516498552018874 ], [ -5.64045629, 57.88449553, 80.376835945643307 ], [ -5.64055406, 57.88450727, 80.112608214756037 ], [ -5.640655, 57.88452183, 80.162433610612624 ], [ -5.64073895, 57.88453204, 79.966527107752682 ], [ -5.64083786, 57.88454253, 79.943878705129919 ], [ -5.64092913, 57.88456642, 79.450528267420651 ], [ -5.64103097, 57.88457644, 79.340307494541193 ], [ -5.64111593, 57.8845832, 79.106276907208596 ], [ -5.64122305, 57.88458513, 79.146665831943537 ], [ -5.64132212, 57.88457862, 79.354273646187394 ], [ -5.64142397, 57.88456523, 78.757496956385495 ], [ -5.64151965, 57.88456894, 78.672189426391085 ], [ -5.6416053, 57.88457638, 78.324164785626564 ], [ -5.64169157, 57.88460051, 77.420506599940182 ], [ -5.64175939, 57.88462767, 77.309153406929582 ], [ -5.64185824, 57.88464154, 77.029449994192419 ], [ -5.64195114, 57.88465303, 76.966412666834714 ], [ -5.64204532, 57.88466998, 76.664061941388283 ], [ -5.64213776, 57.88468346, 76.142402090314064 ], [ -5.64222943, 57.88468533, 76.091821384398898 ], [ -5.64228687, 57.88464074, 75.769841316737057 ], [ -5.64239946, 57.8846441, 75.595073686296217 ], [ -5.64248684, 57.88463389, 75.278000409231481 ], [ -5.64252308, 57.88459086, 74.811072744610939 ], [ -5.64258271, 57.88462577, 75.011884948154474 ], [ -5.64256003, 57.88467271, 74.735200595824679 ], [ -5.64262799, 57.88471397, 74.228261116541745 ], [ -5.64271668, 57.884741, 74.005932930506589 ], [ -5.64279241, 57.88476246, 72.893912710431252 ], [ -5.64289184, 57.884772, 71.803408472847551 ], [ -5.64298076, 57.88476794, 70.519263662579689 ], [ -5.6430954, 57.88475006, 69.401581341848654 ], [ -5.64319652, 57.88471805, 68.311454214337502 ], [ -5.64323733, 57.88467496, 67.150363908464172 ], [ -5.64327702, 57.8846352, 66.028530107194641 ], [ -5.6433006, 57.88458475, 64.883293683157248 ], [ -5.64334988, 57.88454164, 63.600281293020537 ], [ -5.64338069, 57.88449673, 62.246304634608144 ], [ -5.64326294, 57.88452287, 60.85646873198538 ], [ -5.64334988, 57.88452112, 59.560245500261047 ], [ -5.64346978, 57.88451638, 58.855891077828012 ], [ -5.64360626, 57.88453304, 57.863906301739846 ], [ -5.64369004, 57.88453909, 57.669888618983144 ], [ -5.64380856, 57.88454935, 57.514749240844196 ], [ -5.64389761, 57.88455019, 57.391694736449665 ], [ -5.64398575, 57.8845539, 57.430951241053457 ], [ -5.64408721, 57.8845575, 57.711787073921762 ], [ -5.64417471, 57.88456572, 57.508708940202453 ], [ -5.64423527, 57.88460433, 57.486815847638283 ], [ -5.6441405, 57.88460227, 57.372442504306811 ], [ -5.64408844, 57.88456537, 57.109347193550668 ], [ -5.64402185, 57.8845373, 57.250897530115957 ], [ -5.64392881, 57.88453023, 57.072355529209155 ], [ -5.64384198, 57.8845163, 57.333940219848103 ], [ -5.64375163, 57.88451089, 57.062163748028908 ], [ -5.64364793, 57.88449967, 57.906180776837502 ], [ -5.64355074, 57.88450057, 57.585333129306811 ], [ -5.64346348, 57.88449869, 57.666489178762724 ], [ -5.64337647, 57.88451161, 57.923167078804575 ], [ -5.64331478, 57.88447574, 58.215704223056811 ], [ -5.64325459, 57.88441537, 58.30138995303728 ], [ -5.64320058, 57.88437659, 58.732081263374887 ], [ -5.64311037, 57.88434799, 59.2348681722058 ], [ -5.64303347, 57.88436938, 60.076244340593078 ], [ -5.64301201, 57.88441783, 61.175430829153349 ], [ -5.64295254, 57.88445221, 61.939802428623217 ], [ -5.64286641, 57.88445413, 63.236026750261047 ], [ -5.6428173, 57.88449161, 64.350688920671203 ], [ -5.64272402, 57.88449574, 65.965873159650002 ], [ -5.64265438, 57.88452164, 67.08430970052612 ], [ -5.64255036, 57.88450767, 68.705156040160603 ], [ -5.64251734, 57.88454934, 70.223330347847551 ], [ -5.64240398, 57.88456575, 71.591273157906144 ], [ -5.64232473, 57.88453242, 72.809361580408932 ], [ -5.64228164, 57.88448663, 72.177102756469196 ], [ -5.64223055, 57.88443673, 73.463512406999342 ], [ -5.64221923, 57.88438995, 74.226751586338068 ], [ -5.64217092, 57.88434518, 74.871844141792863 ], [ -5.64215119, 57.88429381, 75.236477974451901 ], [ -5.64213892, 57.88424687, 75.780032008003801 ], [ -5.64206982, 57.88418788, 76.034067957710832 ], [ -5.6420179, 57.88415243, 76.059735420740964 ], [ -5.64196011, 57.88408406, 75.968765790090856 ], [ -5.64192944, 57.88403837, 75.851373386352023 ], [ -5.64186991, 57.88400036, 75.812493991820773 ], [ -5.64180439, 57.88397193, 75.704539149117082 ], [ -5.64166367, 57.88391257, 75.662640694178464 ], [ -5.64159204, 57.88388542, 75.796264089825783 ], [ -5.64151061, 57.8838597, 77.636419555088068 ], [ -5.64141326, 57.88383152, 77.784009102381589 ], [ -5.64131659, 57.88381371, 78.087871537858717 ], [ -5.64121801, 57.88381976, 78.132411943132155 ], [ -5.64114116, 57.8837936, 78.395884363960832 ], [ -5.64107152, 57.88376227, 78.443823119541193 ], [ -5.64099627, 57.88374006, 78.472510732892189 ], [ -5.64090901, 57.88372071, 78.488741724800676 ], [ -5.64082393, 57.88369829, 78.50534982678171 ], [ -5.64073251, 57.883685, 78.477417523489294 ], [ -5.64063924, 57.88366938, 78.463451371843092 ], [ -5.64054469, 57.88365148, 78.442312499424006 ], [ -5.64045423, 57.88362825, 78.377765641862624 ], [ -5.6403799, 57.88359535, 78.398149204223117 ], [ -5.64029612, 57.88357573, 78.562725053483717 ], [ -5.64021086, 57.88355593, 78.623497540579137 ], [ -5.64011548, 57.8835404, 78.727678012816867 ], [ -5.64002913, 57.88355047, 78.848090566876564 ], [ -5.63994818, 57.88358195, 78.913391644583044 ], [ -5.63985717, 57.88360731, 79.084006704571877 ], [ -5.63971331, 57.88360431, 79.489783682110939 ], [ -5.63962534, 57.88359119, 79.766468034440749 ], [ -5.63952948, 57.8835747, 80.135254437551794 ], [ -5.63946468, 57.88354303, 80.454214354892756 ], [ -5.63938994, 57.88351985, 81.049480424577467 ], [ -5.63928616, 57.88351133, 81.205752222847551 ], [ -5.63920007, 57.88349509, 81.223869855032262 ], [ -5.63911603, 57.88348186, 81.170270088709714 ], [ -5.6390352, 57.88346555, 81.007203769652804 ], [ -5.63894311, 57.8834543, 80.898115416904474 ], [ -5.63885266, 57.8834372, 80.676542540927912 ], [ -5.63871388, 57.88340698, 80.770532321898898 ], [ -5.63860591, 57.88340407, 80.967193044903908 ], [ -5.63851699, 57.88338694, 80.990218557599221 ], [ -5.63845114, 57.8833421, 80.98795371733695 ], [ -5.63838397, 57.88337745, 80.917367649047335 ], [ -5.63837345, 57.8834247, 80.972855145559606 ], [ -5.63838034, 57.88347052, 81.071374607055148 ], [ -5.63842194, 57.88351835, 80.805637345964186 ], [ -5.63849987, 57.88354876, 80.662577479195207 ], [ -5.63851877, 57.88359835, 80.826399108310724 ], [ -5.63852047, 57.88364874, 80.891323075944655 ], [ -5.63850013, 57.8836959, 81.480172824828585 ], [ -5.6384804, 57.88374297, 81.68060846325632 ], [ -5.63846661, 57.88380068, 81.886327457396945 ], [ -5.63844936, 57.88385513, 82.061849852939631 ], [ -5.6384558, 57.88390674, 82.221141801530592 ], [ -5.63849731, 57.88395313, 82.439695617099787 ], [ -5.63856085, 57.88399402, 82.615973322701066 ], [ -5.63861922, 57.88402977, 82.875293173077736 ], [ -5.63846135, 57.88405586, 82.980606610403356 ], [ -5.6383982, 57.88408879, 83.172360542811276 ], [ -5.63831098, 57.8840957, 83.364869240321042 ], [ -5.63821854, 57.88408963, 83.813300527814064 ], [ -5.63814656, 57.88411588, 84.109990242518307 ], [ -5.63804508, 57.88412242, 84.419136578665075 ], [ -5.63794268, 57.88410889, 84.258335099870436 ], [ -5.63785873, 57.88408908, 84.453485747715021 ], [ -5.63776846, 57.88409581, 84.654676151244601 ], [ -5.6376393, 57.88413222, 84.679588849172887 ], [ -5.63753973, 57.88414944, 84.753195067783381 ], [ -5.63743992, 57.88416413, 84.826801286393874 ], [ -5.63735623, 57.88417722, 84.759989588570207 ], [ -5.6372601, 57.88420086, 84.938531589477023 ], [ -5.63716761, 57.88421582, 85.160859775512179 ], [ -5.63706632, 57.8842344, 85.344308567016085 ], [ -5.63696816, 57.88425873, 85.502089895489846 ], [ -5.63688207, 57.88428201, 85.715359265432667 ], [ -5.63679486, 57.88430171, 85.741781493564645 ], [ -5.63669881, 57.8843211, 85.780660343139147 ], [ -5.63661416, 57.88433767, 85.924475519966705 ], [ -5.63653275, 57.88435773, 86.023749746564093 ], [ -5.63645135, 57.88437631, 86.200027452165372 ], [ -5.63637319, 57.88440501, 86.452175671682667 ], [ -5.6363031, 57.88443032, 86.803220462768053 ], [ -5.63622046, 57.88445369, 86.817941924472848 ], [ -5.63614671, 57.88447844, 87.281472328699962 ], [ -5.6360555, 57.88450337, 87.651768262014699 ], [ -5.63596405, 57.88452832, 87.646861471417608 ], [ -5.63586623, 57.88454602, 87.56608362194774 ], [ -5.63577508, 57.88456633, 87.635160704990426 ], [ -5.63567747, 57.88458481, 87.33733857015504 ], [ -5.6355836, 57.88460107, 87.631386334524464 ], [ -5.63549732, 57.88461125, 88.010363973859015 ], [ -5.635405, 57.88462195, 88.262512738333058 ], [ -5.63531658, 57.88463536, 88.56826126912965 ], [ -5.63522921, 57.88464217, 88.919306060215035 ], [ -5.6351426, 57.8846508, 89.133707850288971 ], [ -5.63505354, 57.8846613, 89.1065303120984 ], [ -5.63495889, 57.88467257, 89.359810951746837 ], [ -5.63486139, 57.88468238, 89.447760977032843 ], [ -5.63476767, 57.88468956, 89.39831269124879 ], [ -5.63467794, 57.88469908, 89.600257859880216 ], [ -5.63457926, 57.88471278, 90.038875566179044 ], [ -5.63448265, 57.88472286, 90.304235172240709 ], [ -5.63438493, 57.88472842, 90.77456009725465 ], [ -5.6342965, 57.88473999, 90.718317290683785 ], [ -5.63420793, 57.88475169, 90.721336896047902 ], [ -5.63411295, 57.88476028, 90.708125509503546 ], [ -5.63401861, 57.88477502, 90.737190777883839 ], [ -5.63392943, 57.88479011, 90.807777391130216 ], [ -5.63384126, 57.88480504, 90.980657836338082 ], [ -5.63374913, 57.88482342, 91.144478920496837 ], [ -5.6336578, 57.88483691, 91.598195198573009 ], [ -5.63357239, 57.88484391, 91.698978955374074 ], [ -5.63346859, 57.88485301, 91.959809425867931 ], [ -5.63337583, 57.88485579, 92.185912527325812 ], [ -5.63328139, 57.88484827, 92.25347899025131 ], [ -5.63319159, 57.88483583, 92.176097856218107 ], [ -5.6330993, 57.88483329, 91.975662217790372 ], [ -5.63301164, 57.884821, 91.982456738577199 ], [ -5.63292167, 57.88481283, 92.222148881608732 ], [ -5.63283085, 57.88480647, 92.264802646605943 ], [ -5.63274101, 57.88480553, 92.304813916311574 ], [ -5.63263712, 57.88481473, 92.022090353253546 ], [ -5.6325488, 57.88482032, 92.263292026488756 ], [ -5.63245869, 57.88481951, 92.364075783289806 ], [ -5.63237341, 57.88482591, 92.444853632759674 ], [ -5.63228464, 57.88483487, 92.402199867762462 ], [ -5.63219417, 57.88483822, 92.344069875958624 ], [ -5.63210313, 57.88484292, 92.33765301020108 ], [ -5.63201063, 57.8848475, 92.381062085256886 ], [ -5.63191639, 57.88485553, 92.703796918020558 ], [ -5.63183119, 57.8848626, 93.234139020071339 ], [ -5.63174377, 57.88487356, 93.706728240390817 ], [ -5.63165793, 57.88488239, 93.889799921822174 ], [ -5.63156405, 57.88489088, 94.272174821550138 ], [ -5.63147426, 57.88489628, 94.624729687795949 ], [ -5.63138987, 57.88490472, 95.225281293020558 ], [ -5.63129992, 57.88490746, 95.360414763828317 ], [ -5.6312052, 57.88490209, 95.756000505143888 ], [ -5.63109729, 57.88489646, 95.979461656266935 ], [ -5.63100112, 57.88489256, 96.503764002632721 ], [ -5.6309122, 57.88488462, 96.861980424577482 ], [ -5.63081676, 57.88487671, 97.278704493355377 ], [ -5.6307161, 57.88487527, 97.60294885632274 ], [ -5.63062059, 57.88487269, 97.894354125400582 ], [ -5.63051745, 57.88487208, 98.295224857299303 ], [ -5.63041944, 57.88486726, 98.541711521117662 ], [ -5.63032669, 57.88486461, 98.808581202339752 ], [ -5.6302314, 57.88486776, 99.067146287614591 ], [ -5.63013895, 57.88487798, 99.39516556600465 ], [ -5.63005426, 57.88489472, 99.746588012119332 ], [ -5.62997268, 57.88490792, 100.214648096871002 ], [ -5.6298955, 57.88492904, 100.428672776872403 ], [ -5.6298029, 57.8849553, 100.721965231183233 ], [ -5.62973161, 57.88498099, 101.036773667985685 ], [ -5.6296554, 57.88500045, 101.430095113995733 ], [ -5.62956195, 57.88501835, 101.609770079990426 ], [ -5.62947728, 57.8850376, 101.840025751900299 ], [ -5.62939426, 57.88505202, 102.017058222603424 ], [ -5.62930636, 57.88506843, 101.986105768990143 ], [ -5.62921548, 57.88508699, 102.144264752493228 ], [ -5.6291182, 57.88510234, 102.145774827653668 ], [ -5.62902089, 57.88510988, 102.232592432808516 ], [ -5.6289275, 57.88512451, 102.414532239065494 ], [ -5.6288446, 57.88514577, 102.573445987670411 ], [ -5.6287678, 57.88517076, 102.49908445900131 ], [ -5.62870012, 57.88520382, 102.616099207710846 ], [ -5.62863429, 57.88523251, 102.798038469011075 ], [ -5.62856378, 57.8852635, 102.925622653930162 ], [ -5.62848342, 57.88529864, 103.197399670706105 ], [ -5.62839807, 57.88532787, 103.691881983589766 ], [ -5.62832304, 57.88535127, 104.23279297689335 ], [ -5.62824068, 57.88536859, 104.735579885724263 ], [ -5.62815529, 57.88538294, 105.27422658372231 ], [ -5.62805574, 57.88539879, 105.743419088605123 ], [ -5.62796862, 57.88541433, 106.071438366995181 ], [ -5.62786825, 57.88542929, 106.485898140467569 ], [ -5.62778352, 57.88544358, 106.421728392978721 ], [ -5.62770018, 57.88545841, 106.445131015746583 ], [ -5.62761012, 57.88547406, 106.328116267037032 ], [ -5.6275156, 57.88549647, 106.157500662091451 ], [ -5.62742867, 57.8855152, 105.78229793817961 ], [ -5.62733547, 57.88554054, 105.73851175305127 ], [ -5.6272478, 57.8855675, 105.341793046647808 ], [ -5.62716888, 57.8855965, 104.931863498656739 ], [ -5.62708464, 57.88562619, 104.525708321131631 ], [ -5.62700193, 57.88565764, 104.063310337035645 ], [ -5.62692083, 57.88569022, 103.768130697491841 ], [ -5.6268528, 57.88571704, 103.525418949096192 ], [ -5.62678392, 57.88574465, 103.488049629725381 ], [ -5.62671073, 57.88578065, 103.285726806064659 ], [ -5.62662705, 57.88581181, 103.152481065446636 ], [ -5.62655447, 57.88583939, 102.944496686086978 ], [ -5.62646553, 57.88586857, 102.8795721734963 ], [ -5.62638464, 57.88589851, 102.644787366018619 ], [ -5.62630647, 57.88592859, 102.574200752772256 ], [ -5.62622462, 57.8859617, 102.1182196344338 ], [ -5.62614976, 57.88598871, 101.846065507585308 ], [ -5.62607363, 57.8860189, 101.57995059146505 ], [ -5.62600194, 57.8860565, 101.271559565376862 ], [ -5.62594333, 57.88609695, 101.068481976614308 ], [ -5.62590085, 57.88614712, 100.885409750226202 ], [ -5.62584965, 57.8861974, 100.764620086093942 ], [ -5.62580796, 57.88624705, 100.437733227835011 ], [ -5.62576888, 57.88629802, 100.09537014276944 ], [ -5.62572371, 57.88634695, 100.059510353602306 ], [ -5.62567136, 57.8863915, 99.896066924472848 ], [ -5.62561244, 57.88642669, 99.744702461756603 ], [ -5.62554319, 57.88646115, 99.860207680262462 ], [ -5.6254658, 57.8864967, 99.84020177293128 ], [ -5.62538869, 57.88653117, 99.751496982543443 ], [ -5.62531438, 57.88657207, 99.779429285835846 ], [ -5.62524334, 57.88660914, 99.698273781336681 ], [ -5.62517864, 57.8866458, 99.838314042741544 ], [ -5.62511737, 57.88667734, 100.028935010061574 ], [ -5.62504506, 57.88671578, 99.805474403895275 ], [ -5.6249677, 57.88674825, 99.525393336128815 ], [ -5.62489435, 57.88678997, 99.433668395420113 ], [ -5.62483057, 57.88682187, 99.238140092546232 ], [ -5.62475167, 57.88685982, 99.041857024570504 ], [ -5.62467757, 57.8868911, 98.868221814260792 ], [ -5.62460557, 57.88692404, 98.448477595162018 ], [ -5.62453332, 57.88695939, 98.032508291485968 ], [ -5.62446516, 57.88699655, 97.798100594080822 ], [ -5.62439047, 57.88703085, 97.844151619471447 ], [ -5.62430381, 57.88706288, 97.834715148349801 ], [ -5.62421804, 57.88709988, 97.909831442120733 ], [ -5.62412995, 57.8871258, 97.650888701816598 ], [ -5.62404391, 57.88715093, 97.391945961512462 ], [ -5.62395467, 57.8871758, 97.126586355450812 ], [ -5.62385818, 57.88719483, 96.840465531999357 ], [ -5.62377342, 57.88721794, 96.580013261491544 ], [ -5.62367973, 57.88724341, 96.43015832897899 ], [ -5.62359793, 57.88726479, 96.316917950735402 ], [ -5.62349938, 57.88728085, 96.165553488019171 ], [ -5.62340705, 57.88729644, 96.28747557228256 ], [ -5.62330672, 57.88731089, 96.47771942953004 ], [ -5.62321414, 57.88731754, 96.422609588047067 ], [ -5.62312016, 57.8873137, 96.329374572177926 ], [ -5.62303183, 57.88731469, 96.141018445120167 ], [ -5.62293952, 57.8873152, 95.913027613472565 ], [ -5.62285022, 57.88730572, 95.822435092895006 ], [ -5.62275751, 57.88729475, 95.699003478427926 ], [ -5.62265857, 57.8872914, 95.853387546508287 ], [ -5.62257466, 57.88727529, 95.930013370482897 ], [ -5.62247781, 57.88726105, 95.984368446864025 ], [ -5.6223868, 57.88725099, 96.117992387468107 ], [ -5.62229737, 57.88724225, 95.96587315965003 ], [ -5.62220123, 57.88723235, 96.080623068097296 ], [ -5.62211991, 57.88721866, 96.252748203246568 ], [ -5.6220291, 57.88721129, 96.26671435489277 ], [ -5.62193608, 57.88720451, 96.384861523733449 ], [ -5.6218443, 57.8871965, 96.547173077688527 ], [ -5.62174584, 57.88718474, 96.720052977939645 ], [ -5.62165717, 57.88717359, 96.876702431239025 ], [ -5.62156807, 57.88716558, 96.9333228928392 ], [ -5.62147757, 57.88715826, 97.080535330060187 ], [ -5.62138528, 57.88714283, 97.139042976893322 ], [ -5.62129611, 57.88712317, 97.241714463884122 ], [ -5.62120035, 57.8871202, 97.332306984461681 ], [ -5.62109774, 57.88711102, 97.358352102521124 ], [ -5.62100769, 57.88710559, 97.578038338221447 ], [ -5.62091812, 57.88709891, 97.530100127597848 ], [ -5.62081824, 57.8870865, 97.4323359761609 ], [ -5.62072526, 57.88707108, 97.402138287649464 ], [ -5.62063013, 57.88706636, 97.426673875505216 ], [ -5.62052958, 57.88706079, 97.256813035661466 ], [ -5.62043105, 57.88704973, 97.225105816946339 ], [ -5.62033556, 57.88704977, 97.108845288381886 ], [ -5.62023277, 57.88704939, 97.170750195608449 ], [ -5.62012396, 57.88704327, 97.004286616158112 ], [ -5.620019, 57.8870392, 96.960500431029772 ], [ -5.61991448, 57.88703201, 96.89821841373066 ], [ -5.61981762, 57.88703217, 96.887271867448575 ], [ -5.6197166, 57.88703386, 96.837823581664537 ], [ -5.61961085, 57.88703355, 96.853299263514415 ], [ -5.61951145, 57.88702858, 96.860093784301256 ], [ -5.6194141, 57.88701507, 96.899727943934337 ], [ -5.61932226, 57.88699444, 97.007683876551525 ], [ -5.61922766, 57.88698466, 97.036371489902535 ], [ -5.61912227, 57.88697331, 97.062039497889415 ], [ -5.61903227, 57.8869545, 97.001267010793995 ], [ -5.61893967, 57.88693495, 97.075628539463082 ], [ -5.61885832, 57.88691061, 97.067323943515817 ], [ -5.61876141, 57.88689892, 97.079780564958341 ], [ -5.61866373, 57.88689112, 97.080535330060187 ], [ -5.61856017, 57.88688007, 97.092991406545949 ], [ -5.61845776, 57.88687384, 96.983148288695787 ], [ -5.61836215, 57.88685702, 97.075627994506334 ], [ -5.61826625, 57.88684694, 97.019762842964752 ], [ -5.61816113, 57.886837, 97.073363154244049 ], [ -5.61806551, 57.88683551, 97.045430850951647 ], [ -5.61797178, 57.88684216, 96.980129228288419 ], [ -5.61786898, 57.88684361, 96.937852573363756 ], [ -5.61776902, 57.88684322, 96.991075774570504 ], [ -5.61766488, 57.88684133, 97.095256791764982 ], [ -5.61755688, 57.88684015, 97.132626111135792 ], [ -5.61746314, 57.88683773, 97.18207439691983 ], [ -5.61737468, 57.88682833, 97.328531524082223 ], [ -5.61727491, 57.8868119, 97.490087767978707 ], [ -5.61718734, 57.88679479, 97.691655826537584 ], [ -5.61710226, 57.88678145, 97.93361226487464 ], [ -5.61701841, 57.88677283, 98.047985063249357 ], [ -5.61692513, 57.88675448, 98.097811004062692 ], [ -5.61682993, 57.88674297, 98.357508509468659 ], [ -5.61674172, 57.88672854, 98.43300191331214 ], [ -5.61665202, 57.88671772, 98.661746965104825 ], [ -5.61655492, 57.88670454, 98.938430772477872 ], [ -5.61646753, 57.88669355, 99.109800597568551 ], [ -5.61637655, 57.88667937, 99.181897285975353 ], [ -5.6162941, 57.88666913, 99.312123421229259 ], [ -5.61621011, 57.88664745, 99.426873874633287 ], [ -5.61611958, 57.88662756, 99.533697387119332 ], [ -5.61603127, 57.88661254, 99.5808808326411 ], [ -5.61592817, 57.88659582, 99.59258214402503 ], [ -5.61583302, 57.88657782, 99.636745984182667 ], [ -5.61574881, 57.88656418, 99.693743555855377 ], [ -5.61565978, 57.88654351, 99.858697060145275 ], [ -5.61557121, 57.88652544, 99.838691697770841 ], [ -5.61547518, 57.88650439, 100.000625596696622 ], [ -5.61538799, 57.88648377, 100.091218117274181 ], [ -5.61529968, 57.88645573, 100.061020973719494 ], [ -5.61520458, 57.8864307, 100.134627192329987 ], [ -5.61511315, 57.88640788, 100.199551704920665 ], [ -5.61502778, 57.88638606, 100.248999990704718 ], [ -5.61494661, 57.88635791, 100.341479151558502 ], [ -5.61486018, 57.88633651, 100.247867025616827 ], [ -5.61477261, 57.8863132, 100.173506041904488 ], [ -5.61468538, 57.88629075, 100.034598200630768 ], [ -5.61459633, 57.88626802, 100.009685502702482 ], [ -5.61450202, 57.88624597, 99.915695721731495 ], [ -5.61440074, 57.88622835, 99.845863873586964 ], [ -5.61431024, 57.88621087, 99.768105084524464 ], [ -5.61420616, 57.88619402, 99.691478715593107 ], [ -5.61410512, 57.88617495, 99.522750295880499 ], [ -5.61400907, 57.88616227, 99.459712968522794 ], [ -5.61391076, 57.88614779, 99.28607830316983 ], [ -5.61381252, 57.88612944, 99.232100336861237 ], [ -5.61372672, 57.88611569, 99.233232756992379 ], [ -5.61363162, 57.88609897, 99.11772753848652 ], [ -5.61354682, 57.88608582, 99.181897285975353 ], [ -5.61345608, 57.88606649, 99.289097908533947 ], [ -5.61336906, 57.88604352, 99.431780665230377 ], [ -5.61326358, 57.88604363, 99.403847816981212 ], [ -5.61318084, 57.88603325, 99.493685027500192 ], [ -5.61309314, 57.88602296, 99.572198581664537 ], [ -5.61300486, 57.88600935, 99.713371808157277 ], [ -5.61290338, 57.88599815, 99.913429791555714 ], [ -5.61280733, 57.8859915, 100.056867858310738 ], [ -5.61269981, 57.88598757, 100.277308859112921 ], [ -5.61261105, 57.88597645, 100.543423230276417 ], [ -5.61251893, 57.88596065, 100.694410037963365 ], [ -5.6124285, 57.88595061, 100.863137912719225 ], [ -5.61233581, 57.88594435, 101.158318097219777 ], [ -5.61232532, 57.88589349, 101.425187778441881 ], [ -5.61223271, 57.88589238, 101.633549812830822 ], [ -5.61214549, 57.88588787, 101.674693502667608 ], [ -5.61205898, 57.88587282, 101.977045318027535 ], [ -5.61197224, 57.88585749, 102.24995475493462 ], [ -5.61188543, 57.88584114, 102.453032343697174 ], [ -5.61180252, 57.88583022, 102.578728798426525 ], [ -5.61170067, 57.88581464, 102.67762536999463 ], [ -5.61161183, 57.88579701, 102.889762319806294 ], [ -5.61147801, 57.88578297, 102.873153672868511 ], [ -5.611395, 57.88576609, 102.877683353393067 ], [ -5.6113033, 57.88575955, 102.924489688842286 ], [ -5.6112014, 57.88575217, 102.907503931831954 ], [ -5.61111463, 57.8857438, 102.484362452339766 ], [ -5.61102114, 57.8857288, 102.510030460326661 ], [ -5.61092134, 57.88572107, 102.448126098056846 ], [ -5.61081489, 57.88571381, 102.520222786463663 ], [ -5.61072068, 57.88570141, 102.404717567957775 ], [ -5.61061437, 57.88569844, 102.260524736100919 ], [ -5.61051462, 57.88568791, 102.23712156837631 ], [ -5.61041799, 57.88568131, 102.176726736310187 ], [ -5.6103142, 57.88566986, 102.024984618564645 ], [ -5.61021679, 57.88566385, 102.01516994745694 ], [ -5.61012238, 57.88565651, 102.058956677542042 ], [ -5.61002028, 57.88565632, 102.044235760793995 ], [ -5.60991925, 57.88565741, 102.072545719115709 ], [ -5.60981258, 57.88566259, 102.118974399535631 ], [ -5.60970463, 57.88566096, 102.571558257480675 ], [ -5.6096003, 57.88566274, 102.57155825748066 ], [ -5.6094988, 57.88566233, 102.703294467895006 ], [ -5.6094068, 57.88565858, 102.600245325874909 ], [ -5.60930424, 57.88565925, 102.804077679739322 ], [ -5.60920044, 57.88567038, 102.801812839477051 ], [ -5.60910544, 57.88567618, 102.815024226021407 ], [ -5.60901157, 57.8856853, 102.8799487386121 ], [ -5.60891928, 57.88570549, 102.953554957222579 ], [ -5.60881862, 57.88572373, 102.903729561366006 ], [ -5.60873103, 57.88574686, 102.987527016199991 ], [ -5.60863722, 57.88575888, 103.067550100568013 ], [ -5.60854029, 57.88577038, 103.024518680541505 ], [ -5.60844, 57.88577743, 102.987526471243228 ], [ -5.60834853, 57.88577161, 102.852015345406173 ], [ -5.6082554, 57.8857641, 102.790488093208907 ], [ -5.60816083, 57.88574896, 102.641765580827496 ], [ -5.60806434, 57.885733, 102.837293883701378 ], [ -5.60797905, 57.8857135, 102.69800838739836 ], [ -5.60790033, 57.8856879, 102.676492949863487 ], [ -5.60781768, 57.88566556, 102.628554739239888 ], [ -5.60772158, 57.88565547, 102.682155050519185 ], [ -5.60762541, 57.8856397, 102.835784353497701 ], [ -5.60754485, 57.88562337, 102.88108061378648 ], [ -5.60745587, 57.8856101, 102.739907932250489 ], [ -5.60735732, 57.8855978, 102.670076084105958 ], [ -5.60726724, 57.88558382, 102.680645520315494 ], [ -5.60716433, 57.88557419, 102.599867670845626 ], [ -5.60707931, 57.88556406, 102.330733149361251 ], [ -5.60697417, 57.88555258, 102.374896444562154 ], [ -5.60688999, 57.88554602, 102.34281157081773 ], [ -5.60680295, 57.88554209, 102.23259134289502 ], [ -5.60671192, 57.88553162, 102.376784174751862 ], [ -5.6066356, 57.88551097, 102.530791132759674 ], [ -5.60651162, 57.88552475, 102.58590151919941 ], [ -5.60641592, 57.88551854, 102.592318929913702 ], [ -5.60631483, 57.88551404, 102.451146248377697 ], [ -5.60621688, 57.88550878, 102.624403803658112 ], [ -5.60612399, 57.88551086, 102.742173862426256 ], [ -5.60602504, 57.88550068, 102.819554996459473 ], [ -5.60592119, 57.88549472, 102.853904165509419 ], [ -5.60583496, 57.88548536, 103.157765511073038 ], [ -5.60574969, 57.88547979, 102.998096997366275 ], [ -5.60564104, 57.88547097, 103.392928518536763 ], [ -5.60555426, 57.88546089, 103.603933048217286 ], [ -5.60546279, 57.88545244, 104.187497806518067 ], [ -5.60537259, 57.88545044, 104.185610621285079 ], [ -5.60527927, 57.88544767, 104.413600907975933 ], [ -5.60519438, 57.88543936, 104.22599954602002 ], [ -5.60509012, 57.88543073, 104.259216294938824 ], [ -5.6049867, 57.88542322, 104.473240429983463 ], [ -5.60488939, 57.88541482, 103.988194588221475 ], [ -5.6047984, 57.88540821, 104.067840017560201 ], [ -5.60471332, 57.88539876, 104.203728253469791 ], [ -5.60461751, 57.88539131, 103.679425907104005 ], [ -5.60452218, 57.88538186, 103.743972764665386 ], [ -5.60443008, 57.8853732, 104.313571371319966 ], [ -5.60433451, 57.88536443, 104.109738472498819 ], [ -5.60423599, 57.88535545, 103.925156715907022 ], [ -5.6041418, 57.88534528, 103.551841177228169 ], [ -5.60404641, 57.88533664, 103.5722241946319 ], [ -5.60395111, 57.88532874, 103.304222093278668 ], [ -5.60385159, 57.88531634, 103.413309901070235 ], [ -5.60374863, 57.88530615, 103.445017119785362 ], [ -5.60364758, 57.88529604, 103.372920976335308 ], [ -5.60354418, 57.88529251, 103.307618808715333 ], [ -5.60344713, 57.88528117, 103.334796346905904 ], [ -5.60335367, 57.88526519, 102.444350092720626 ], [ -5.60326219, 57.88524831, 102.714994144408692 ], [ -5.60317574, 57.88523697, 102.315633487670411 ], [ -5.60307367, 57.88522842, 102.123502445189942 ], [ -5.60298147, 57.8852153, 101.913253225567999 ], [ -5.60289412, 57.88521658, 101.388950879202199 ], [ -5.60280533, 57.88521283, 101.389706189260792 ], [ -5.60271619, 57.88521015, 101.077163137677374 ], [ -5.60260906, 57.88520452, 101.238341726544562 ], [ -5.60252, 57.88519428, 101.275711045915372 ], [ -5.60243201, 57.88519405, 101.152657086477589 ], [ -5.60233696, 57.8851914, 101.193800776314362 ], [ -5.60224821, 57.88518835, 101.79472949161152 ], [ -5.60215483, 57.88517977, 101.57919582636319 ], [ -5.60206505, 57.88517498, 101.687151758980377 ], [ -5.60196072, 57.88517226, 102.063864558052643 ], [ -5.60187384, 57.8851632, 101.974782112635538 ], [ -5.60177376, 57.88515878, 102.098969037161197 ], [ -5.60168514, 57.88515035, 102.162383474591437 ], [ -5.60159573, 57.88514238, 102.496064853637208 ], [ -5.60150628, 57.88513298, 101.774723584280324 ], [ -5.60141758, 57.88512637, 101.629020677263043 ], [ -5.60132473, 57.8851225, 101.205502087698306 ], [ -5.60123641, 57.88511794, 100.645339952165372 ], [ -5.60113234, 57.88511789, 100.473214272059337 ], [ -5.60104328, 57.88510874, 100.188603523768322 ], [ -5.60095638, 57.88510381, 99.725073119541207 ], [ -5.60079935, 57.88510677, 99.491797842267218 ], [ -5.60070377, 57.88511798, 99.812644944841153 ], [ -5.60060094, 57.88511344, 99.35741913656129 ], [ -5.60050919, 57.8851062, 99.223795740913971 ], [ -5.60042168, 57.88509204, 99.022982992413702 ], [ -5.60032908, 57.88508274, 98.434510898559068 ], [ -5.60024072, 57.88507312, 98.277861445259674 ], [ -5.60014962, 57.88505625, 98.604371193446056 ], [ -5.60006246, 57.88503775, 98.58172333578004 ], [ -5.5999655, 57.88502222, 98.480184268920397 ], [ -5.59987302, 57.88500603, 98.65193229399712 ], [ -5.5997804, 57.88498874, 98.433001368355377 ], [ -5.59968462, 57.88496715, 98.242002746006051 ], [ -5.59959523, 57.88494938, 98.650422763793443 ], [ -5.59949699, 57.88493064, 98.48735644473652 ], [ -5.59939875, 57.88490714, 98.263518183540924 ], [ -5.59931975, 57.88489063, 98.149523040195504 ], [ -5.59921402, 57.88487362, 98.081956032313244 ], [ -5.59911137, 57.88485905, 97.763750880074127 ], [ -5.59901445, 57.88484268, 97.688634586303209 ], [ -5.59892006, 57.88483606, 97.564448206734284 ], [ -5.59882963, 57.88482346, 97.442903777500192 ], [ -5.59873816, 57.88481912, 97.342120020699127 ], [ -5.59865265, 57.88480391, 97.285500104055714 ], [ -5.59856467, 57.88479448, 97.17452456607441 ], [ -5.59848177, 57.88478051, 96.942004053902252 ], [ -5.5983939, 57.88475704, 96.635877868076363 ], [ -5.59830898, 57.8847396, 95.854897076711964 ], [ -5.598227, 57.88470994, 95.760530185668443 ], [ -5.59814821, 57.88467587, 95.249816335919562 ], [ -5.59807576, 57.88464767, 94.977661664114308 ], [ -5.59798481, 57.88461714, 94.748916612321622 ], [ -5.59790623, 57.88458404, 94.341629014665372 ], [ -5.5978239, 57.88455737, 94.268023341011627 ], [ -5.59772917, 57.88453206, 93.819591508561857 ], [ -5.59763314, 57.88450552, 93.444011129620733 ], [ -5.59753509, 57.8844882, 93.135997213605108 ], [ -5.59743689, 57.88446893, 92.709458473719494 ], [ -5.59733018, 57.88445546, 92.447118473021959 ], [ -5.59722569, 57.88444272, 92.364830548391652 ], [ -5.59712375, 57.88442475, 92.329726069283112 ], [ -5.59701799, 57.88441189, 91.704262311086964 ], [ -5.59691126, 57.88440032, 91.161464132550421 ], [ -5.59681288, 57.88438561, 91.380395603148912 ], [ -5.59671658, 57.88437303, 91.059170845545665 ], [ -5.59663411, 57.88436134, 90.830425248796232 ], [ -5.596527, 57.88434576, 90.850808266199962 ], [ -5.59642896, 57.88433235, 90.038497366192999 ], [ -5.59632804, 57.88431874, 89.89392742426358 ], [ -5.59621919, 57.88430732, 89.573457431762193 ], [ -5.59612005, 57.88429585, 89.289601993529772 ], [ -5.59601643, 57.88428463, 89.098603371180431 ], [ -5.59590922, 57.88427523, 88.380281707187692 ], [ -5.59580365, 57.88426488, 87.846165234670949 ], [ -5.59570484, 57.88426157, 87.389051696201363 ], [ -5.59560201, 57.88426241, 87.227495452304879 ], [ -5.59549985, 57.88426731, 87.074620914428209 ], [ -5.59539577, 57.88427452, 86.725840963605108 ], [ -5.5952921, 57.88428505, 86.725840963605108 ], [ -5.59518916, 57.88429066, 86.544278812377428 ], [ -5.5950801, 57.88429577, 86.250608703037301 ], [ -5.59498066, 57.88430142, 86.564284719708624 ], [ -5.59488699, 57.88430925, 86.021485996215318 ], [ -5.59478837, 57.8843184, 85.737252357996837 ], [ -5.59468657, 57.8843274, 85.437165382899181 ], [ -5.59458475, 57.88434154, 85.377148205862341 ], [ -5.59447775, 57.88434758, 85.451132624458893 ], [ -5.59438274, 57.88436366, 85.360917758910631 ], [ -5.59427878, 57.88437836, 85.120848505806535 ], [ -5.59418866, 57.88437834, 85.404326833966408 ], [ -5.59408309, 57.88437231, 85.517944322282545 ], [ -5.59398195, 57.88436349, 85.46132386068237 ], [ -5.59388021, 57.88435535, 85.426974146675676 ], [ -5.59378126, 57.88433961, 84.924187782801511 ], [ -5.59368429, 57.88432654, 84.777353000609835 ], [ -5.59359215, 57.88431527, 84.675059168648332 ], [ -5.5934938, 57.8843122, 85.100842598475339 ], [ -5.59339408, 57.88430867, 84.753572177855929 ], [ -5.593293, 57.88430932, 84.688647665265236 ], [ -5.59319066, 57.88431573, 84.350814260724221 ], [ -5.59309269, 57.88432267, 84.333072648698561 ], [ -5.59299781, 57.88433333, 84.330053043334445 ], [ -5.59290027, 57.88434093, 84.334959833931535 ], [ -5.59279749, 57.88435256, 84.047706590348952 ], [ -5.59270694, 57.88436427, 83.77555246350046 ], [ -5.59260766, 57.88437818, 83.563415513688795 ], [ -5.59251055, 57.88438627, 83.589083521675676 ], [ -5.5924315, 57.88440308, 83.976742322073278 ], [ -5.59234666, 57.88441347, 83.969193036184606 ], [ -5.59225267, 57.88442178, 83.976742322073278 ], [ -5.59216694, 57.88443398, 83.943147918125177 ], [ -5.59208357, 57.8844431, 84.353833321131589 ], [ -5.59199707, 57.88444325, 84.42366516927612 ], [ -5.59190088, 57.88444564, 84.315709236658932 ], [ -5.59180424, 57.88445233, 84.369310092894992 ], [ -5.5917065, 57.88445518, 84.402526841813795 ], [ -5.59160999, 57.8844627, 84.493119362391354 ], [ -5.59150398, 57.88447175, 84.508595589197995 ], [ -5.59139666, 57.88447783, 84.655430916346432 ], [ -5.59128789, 57.88448179, 84.721865504097551 ], [ -5.59119017, 57.88448706, 84.471604469813229 ], [ -5.59109241, 57.88449936, 84.279851082362057 ], [ -5.5909908, 57.88450386, 84.317220401732882 ], [ -5.5908947, 57.8845162, 84.168120779278908 ], [ -5.59079259, 57.88452696, 83.925031920810724 ], [ -5.590692, 57.88453822, 83.869166769269142 ], [ -5.59058829, 57.88454692, 83.847273676704972 ], [ -5.59048425, 57.88455703, 83.942772987879636 ], [ -5.5903861, 57.88456584, 83.756304046054865 ], [ -5.59029497, 57.88457823, 83.605694893397214 ], [ -5.59019887, 57.88459753, 83.399974809343092 ], [ -5.59010464, 57.88460894, 83.272768824410051 ], [ -5.59001952, 57.88462175, 82.949656336617082 ], [ -5.58991475, 57.88462814, 82.862461621389684 ], [ -5.58980938, 57.88463814, 82.791120243041476 ], [ -5.589713, 57.88464737, 82.725062765362892 ], [ -5.5896131, 57.88465589, 82.675992134608151 ], [ -5.58951179, 57.88466419, 82.645794991053464 ], [ -5.589415, 57.88467382, 82.814145210780026 ], [ -5.58932958, 57.88468427, 82.535951328246554 ], [ -5.58923613, 57.88468768, 82.403837462802912 ], [ -5.58914737, 57.88469788, 82.623901353532545 ], [ -5.58899661, 57.88472165, 82.914928967581091 ], [ -5.58889293, 57.88473005, 83.118383666416193 ], [ -5.58873806, 57.88468918, 83.314289624319372 ], [ -5.58865518, 57.88467038, 83.464898776977023 ], [ -5.58856277, 57.88466642, 83.744602189714186 ], [ -5.5884682, 57.88465649, 83.900495787998224 ], [ -5.58837927, 57.8846591, 83.943149552995436 ], [ -5.58828981, 57.88466471, 83.937110342267189 ], [ -5.58818413, 57.88466019, 83.773288713151686 ], [ -5.58808097, 57.88465173, 83.661557320155026 ], [ -5.58798516, 57.88465398, 83.546051556692419 ], [ -5.5878904, 57.88465579, 83.871805994820207 ], [ -5.58778943, 57.88466273, 83.755546011212502 ], [ -5.58770136, 57.88466299, 83.267480019129636 ], [ -5.58761933, 57.88467514, 83.060250404871823 ], [ -5.58752831, 57.88468187, 82.941348470929299 ], [ -5.58744162, 57.88469115, 82.876046303309323 ], [ -5.58735586, 57.88468428, 82.962863908464186 ], [ -5.58726313, 57.8846933, 82.665418883701349 ], [ -5.58716251, 57.88469236, 82.573316832920099 ], [ -5.5870634, 57.88470208, 82.625407069038957 ], [ -5.58698626, 57.88472778, 82.414024884329137 ], [ -5.58690145, 57.88475398, 82.333247034859269 ], [ -5.58679723, 57.88476904, 82.563880361798439 ], [ -5.58670359, 57.88479521, 82.680518545392189 ], [ -5.5866088, 57.8848003, 82.698259612461115 ], [ -5.58652509, 57.88481161, 82.483857277430417 ], [ -5.58644024, 57.88481718, 82.795645563912004 ], [ -5.58634046, 57.88483331, 83.012311649291476 ], [ -5.58626068, 57.88484853, 82.810366480660051 ], [ -5.58615719, 57.88485023, 82.775262001551511 ], [ -5.58605608, 57.88485023, 82.745819623098669 ], [ -5.58596303, 57.88485988, 82.955692277604811 ], [ -5.5858739, 57.88486398, 82.204908629795099 ], [ -5.58578028, 57.88486135, 82.033161149675124 ], [ -5.58568868, 57.88485703, 82.560484191318537 ], [ -5.58558784, 57.88486249, 82.703922258073561 ], [ -5.58548877, 57.88486277, 82.831128787963351 ], [ -5.58540039, 57.88486649, 82.778283241785886 ], [ -5.58527755, 57.8848879, 82.694485241995153 ], [ -5.58518454, 57.88488093, 82.933045509852292 ], [ -5.58510346, 57.88490663, 83.083655207466691 ], [ -5.58502426, 57.88492456, 82.988155896292028 ], [ -5.58492438, 57.88493335, 83.489432729962502 ], [ -5.58483264, 57.88494406, 83.658915914776955 ], [ -5.58474446, 57.88495362, 83.676656981845881 ], [ -5.58465702, 57.88496262, 83.806128351997941 ], [ -5.58457278, 57.88496856, 85.038183471103693 ], [ -5.58448666, 57.88497418, 85.081214891130202 ], [ -5.58432513, 57.88495584, 85.356011513270261 ], [ -5.58423162, 57.88496375, 85.323549529453302 ], [ -5.58414297, 57.8849709, 85.350727067643888 ], [ -5.58404175, 57.88497868, 85.913531153511627 ], [ -5.58393866, 57.88498405, 86.351394094708624 ], [ -5.58385199, 57.88499285, 86.655633095301525 ], [ -5.58376004, 57.8849876, 86.727729238751593 ], [ -5.58367176, 57.88498948, 87.174273341011627 ], [ -5.58358261, 57.8849932, 87.337339115111803 ], [ -5.58348439, 57.88499308, 87.627611964058502 ], [ -5.58338973, 57.88498897, 88.057925074410065 ], [ -5.58329726, 57.88498506, 88.378017411882169 ], [ -5.58319618, 57.88497708, 88.298749092615978 ], [ -5.58309582, 57.88497698, 88.879294245552643 ], [ -5.58299361, 57.88496996, 88.391605908499074 ], [ -5.58290242, 57.88496138, 88.787569304843942 ], [ -5.58280961, 57.88495453, 88.768318707571339 ], [ -5.58272171, 57.88494523, 88.631675706559903 ], [ -5.58262763, 57.88493434, 88.484840379411466 ], [ -5.58253786, 57.88492112, 89.080861759154772 ], [ -5.58243127, 57.88490709, 89.396802616088365 ], [ -5.58234668, 57.88489414, 89.639514364484015 ], [ -5.58224311, 57.88487988, 89.514950329885792 ], [ -5.58214689, 57.88486104, 89.774270725219225 ], [ -5.58205452, 57.88484072, 89.504003783603707 ], [ -5.58195755, 57.88482419, 89.631210858450245 ], [ -5.58186768, 57.88480935, 89.972819178413971 ], [ -5.58178141, 57.88479507, 89.728597354857897 ], [ -5.58169798, 57.88477874, 90.477870382550421 ], [ -5.58161547, 57.88476353, 90.510710021396676 ], [ -5.58152571, 57.88474365, 90.956877013584176 ], [ -5.5814319, 57.88472788, 91.272062560459176 ], [ -5.58134179, 57.88471036, 91.533647796054879 ], [ -5.58125365, 57.88468889, 91.412103366820787 ], [ -5.58116239, 57.8846688, 91.561957754376593 ], [ -5.58107803, 57.88464914, 91.620087746180431 ], [ -5.58099031, 57.88462778, 91.903566074340318 ], [ -5.58090127, 57.88460881, 91.902055999179879 ], [ -5.58080983, 57.8845915, 92.460708059552374 ], [ -5.58071741, 57.88457153, 92.517327976195787 ], [ -5.5806328, 57.88454621, 92.239511748691598 ], [ -5.58053556, 57.88452528, 92.572438362635509 ], [ -5.58044285, 57.88450274, 92.499209799054327 ], [ -5.58035432, 57.88448896, 92.722670405220612 ], [ -5.58025983, 57.88447122, 92.692472716709176 ], [ -5.58017177, 57.88445225, 92.579232338465587 ], [ -5.58008593, 57.88443556, 91.978303623168443 ], [ -5.57998804, 57.88441426, 92.017937237844777 ], [ -5.57989318, 57.88439015, 91.740121010340587 ], [ -5.57980322, 57.8843664, 91.432107639281725 ], [ -5.57971127, 57.88434297, 91.226387555227589 ], [ -5.57962195, 57.88432291, 91.10597554612464 ], [ -5.57952795, 57.88430372, 90.83835109980069 ], [ -5.5794403, 57.88428197, 90.669245570015534 ], [ -5.57934995, 57.88426809, 90.55449511661152 ], [ -5.57924577, 57.88425601, 90.10191125866649 ], [ -5.57915512, 57.88424629, 89.674617753679044 ], [ -5.57907258, 57.88423642, 89.548921298949693 ], [ -5.57898393, 57.88423208, 89.630454458478155 ], [ -5.57888793, 57.88422049, 89.076709188702765 ], [ -5.57879508, 57.88421546, 89.56892720628089 ], [ -5.57869054, 57.88421521, 89.52438625605069 ], [ -5.57859645, 57.88421421, 89.275257641897511 ], [ -5.57849206, 57.88420955, 89.289223793543712 ], [ -5.57839101, 57.88420404, 89.380193424193834 ], [ -5.57828322, 57.88419655, 89.263932895629381 ], [ -5.57818457, 57.88419257, 89.055193206211129 ], [ -5.57808987, 57.88418951, 89.212597424612355 ], [ -5.57798415, 57.88418615, 89.339804499458893 ], [ -5.57789301, 57.88418563, 89.461726583722296 ], [ -5.57780174, 57.88418715, 89.505135658778087 ], [ -5.57770469, 57.88418256, 89.501360743355377 ], [ -5.57761427, 57.88417789, 89.286581298252145 ], [ -5.5775142, 57.88417322, 89.520233685598683 ], [ -5.57742056, 57.88417123, 89.392272390607062 ], [ -5.57731765, 57.88416652, 89.169566549542608 ], [ -5.57721931, 57.8841637, 88.906093583757169 ], [ -5.5771113, 57.88415783, 88.723021902325812 ], [ -5.57700927, 57.88415359, 88.34932925357441 ], [ -5.57690864, 57.8841507, 88.314980084524464 ], [ -5.57680444, 57.88414589, 88.151159000365709 ], [ -5.57670596, 57.88414525, 87.86315099168128 ], [ -5.57660947, 57.88414519, 87.766896370448009 ], [ -5.57651282, 57.88414193, 87.78539220261878 ], [ -5.57642042, 57.88413634, 87.286756774326363 ], [ -5.57631787, 57.88413128, 87.209753295322457 ], [ -5.57622338, 57.88412649, 87.313557202444386 ], [ -5.57612284, 57.88412527, 87.212773445643322 ], [ -5.5760161, 57.88412632, 87.059144142664806 ], [ -5.57591573, 57.88412562, 87.050084781615709 ], [ -5.57581726, 57.88412767, 87.549474975009957 ], [ -5.57571286, 57.88412208, 87.757459899326363 ], [ -5.5756152, 57.88412042, 87.943928841151134 ], [ -5.57551508, 57.88411578, 87.94090869083027 ], [ -5.57541746, 57.88411401, 87.949590396850084 ], [ -5.57531639, 57.88411337, 88.025839110752145 ], [ -5.57521794, 57.88411674, 87.710653563877145 ], [ -5.57511836, 57.88412127, 87.595903655429879 ], [ -5.57502567, 57.884124, 88.163615621808233 ], [ -5.57492851, 57.8841276, 88.33498599185566 ], [ -5.5748298, 57.88412815, 87.889573764770006 ], [ -5.57472374, 57.88412719, 88.127001067539254 ], [ -5.57461427, 57.88412382, 88.44143130435566 ], [ -5.57450876, 57.88412245, 88.575432355032277 ], [ -5.57440598, 57.88411823, 88.978945582222565 ], [ -5.57430457, 57.88411144, 88.669799246075812 ], [ -5.57420951, 57.88411099, 88.738875784161749 ], [ -5.57411111, 57.88410627, 88.941198607822457 ], [ -5.57401109, 57.88410586, 88.824560969185455 ], [ -5.57391448, 57.88410669, 88.931761591744049 ], [ -5.57381887, 57.88411565, 89.370379298042877 ], [ -5.57373022, 57.884132, 89.881847912893605 ], [ -5.57363074, 57.884143, 90.070958805053209 ], [ -5.57354301, 57.88415946, 90.068693964790924 ], [ -5.57344748, 57.88417515, 90.166458116227872 ], [ -5.57335618, 57.88419138, 90.241951520071339 ], [ -5.5732632, 57.8842053, 89.890151963884122 ], [ -5.57316652, 57.88421968, 89.587423038451647 ], [ -5.5730749, 57.88423757, 89.125779819457506 ], [ -5.57297941, 57.88425089, 89.245437063458624 ], [ -5.57288458, 57.88426635, 89.043491894827199 ], [ -5.57278572, 57.88427992, 88.769827692818268 ], [ -5.57268114, 57.88428964, 89.518346500365709 ], [ -5.57258299, 57.88429541, 89.1884394917859 ], [ -5.57248362, 57.88429871, 88.790211255178761 ], [ -5.57238145, 57.88429848, 88.190037849940197 ], [ -5.57228051, 57.88430521, 87.793696798566046 ], [ -5.57218229, 57.88430209, 87.523429856950528 ], [ -5.57207596, 57.88429272, 87.467564705408947 ], [ -5.57198168, 57.88428401, 87.108970628434903 ], [ -5.57189124, 57.88427195, 87.421136024989025 ], [ -5.57179136, 57.88426291, 87.60118810105628 ], [ -5.57170443, 57.88425327, 87.561553941423185 ], [ -5.57160959, 57.88424239, 87.590241554774181 ], [ -5.57150625, 57.88424032, 87.717825739693268 ], [ -5.57141894, 57.88422623, 87.644597176112072 ], [ -5.57132481, 57.88420271, 87.281095763584176 ], [ -5.57125793, 57.88417491, 87.228250762363473 ], [ -5.57117664, 57.88414948, 87.660451057948009 ], [ -5.57108558, 57.88412808, 88.090764168299572 ], [ -5.57099565, 57.88411064, 88.511263152500192 ], [ -5.57090537, 57.88409626, 88.82267432890923 ], [ -5.57081166, 57.8840907, 89.089544010131334 ], [ -5.57071956, 57.884081, 89.537975297624357 ], [ -5.57062822, 57.88406969, 89.554206834489591 ], [ -5.5705315, 57.88405941, 89.468898759538419 ], [ -5.57044247, 57.88405117, 89.659897381887745 ], [ -5.57035138, 57.88404699, 89.998486096487355 ], [ -5.57026052, 57.88403778, 90.202318450351754 ], [ -5.57016865, 57.88403295, 90.524676173042877 ], [ -5.57007524, 57.88402426, 90.74511717384506 ], [ -5.56997902, 57.88402086, 90.846655695747955 ], [ -5.56988254, 57.8840248, 90.620930249319386 ], [ -5.56978502, 57.88403187, 90.599791921857062 ], [ -5.56968706, 57.8840389, 90.622440324479825 ], [ -5.56959291, 57.88404739, 90.42993162697006 ], [ -5.56949004, 57.88406012, 90.627347115076915 ], [ -5.56937944, 57.88406908, 90.699066148454435 ], [ -5.56927817, 57.88408515, 90.834954384364025 ], [ -5.56917902, 57.88409759, 91.132399409126862 ], [ -5.56908369, 57.88411465, 91.282254341639415 ], [ -5.56898488, 57.88413052, 91.249791812865709 ], [ -5.56889226, 57.88414201, 91.276214585954435 ], [ -5.56879538, 57.88415721, 91.314716325456388 ], [ -5.56869972, 57.88417383, 91.306034619436574 ], [ -5.56861218, 57.88419421, 91.329437787161183 ], [ -5.56852212, 57.88421518, 91.3377418381517 ], [ -5.56843379, 57.88424298, 91.29093604765923 ], [ -5.56834074, 57.88426747, 91.39624948498485 ], [ -5.56825161, 57.88428969, 91.385680593732062 ], [ -5.56817355, 57.88432414, 91.295466273140534 ], [ -5.56808558, 57.88434914, 90.792301709280324 ], [ -5.56800543, 57.88437789, 90.48391068319215 ], [ -5.56792536, 57.88440982, 90.275925758875744 ], [ -5.56783854, 57.88443767, 90.295176356148346 ], [ -5.56775409, 57.88446978, 90.420873355834459 ], [ -5.56767458, 57.88449693, 90.367273044555162 ], [ -5.56759702, 57.88452528, 90.289137145420113 ], [ -5.56752625, 57.88455303, 90.156646169903937 ], [ -5.56745077, 57.88457921, 90.551099491088365 ], [ -5.56737247, 57.88460378, 90.832312978985968 ], [ -5.56729424, 57.88463496, 90.841749450107613 ], [ -5.5672114, 57.8846633, 90.827783298461412 ], [ -5.56712792, 57.88469305, 91.135796669520275 ], [ -5.5670453, 57.88472437, 91.417387267490426 ], [ -5.56697058, 57.88476061, 92.02284566331214 ], [ -5.56690203, 57.88478756, 92.608298151802643 ], [ -5.56681456, 57.88481568, 92.553187765362921 ], [ -5.5667367, 57.88484028, 92.39238683152503 ], [ -5.5666619, 57.88486785, 92.337276445085294 ], [ -5.5665783, 57.88490045, 92.689076001272511 ], [ -5.56649806, 57.88493112, 92.730974456211129 ], [ -5.56640943, 57.88495792, 93.085038852660631 ], [ -5.56632532, 57.88499019, 93.158645071271124 ], [ -5.56624734, 57.88501742, 93.556496197805714 ], [ -5.56615978, 57.88504077, 93.946042728393053 ], [ -5.56606972, 57.88506397, 94.218573965314093 ], [ -5.56598525, 57.88509201, 94.338608864344494 ], [ -5.56590883, 57.88512203, 94.25783101487464 ], [ -5.56583646, 57.88515328, 94.461663368739025 ], [ -5.5657622, 57.88517921, 94.57414843692402 ], [ -5.56569403, 57.88521026, 95.2834101949109 ], [ -5.56562089, 57.8852384, 95.378909506085577 ], [ -5.56554294, 57.88526878, 95.337765271292042 ], [ -5.56545052, 57.88529803, 95.304925632445787 ], [ -5.56536271, 57.8853287, 95.11090740473233 ], [ -5.56529612, 57.88536557, 94.844415378539537 ], [ -5.56524364, 57.88540725, 95.083352756469225 ], [ -5.56516907, 57.88544688, 94.703242697003546 ], [ -5.56510046, 57.88547867, 94.798742008178209 ], [ -5.56502133, 57.88551289, 94.349555955583341 ], [ -5.56493745, 57.88554059, 94.22008458543128 ], [ -5.56486534, 57.88557721, 94.411083207780607 ], [ -5.56494557, 57.88561781, 94.194794232473683 ], [ -5.56497346, 57.88554774, 94.326530442888028 ], [ -5.56488876, 57.88555119, 94.047959450281994 ], [ -5.5648868, 57.88560119, 94.460909148593942 ], [ -5.56493837, 57.88564302, 94.912360586407843 ], [ -5.56499712, 57.88567531, 95.24981688087631 ], [ -5.56504658, 57.88571263, 95.731466007201647 ], [ -5.56504676, 57.88575785, 96.179897294694669 ], [ -5.56507333, 57.88580574, 96.390146514316598 ], [ -5.56511488, 57.88584977, 96.653241280115978 ], [ -5.56515019, 57.88590062, 96.655506120378263 ], [ -5.56518168, 57.88595171, 97.228124332396959 ], [ -5.56521673, 57.88600274, 97.65956986287965 ], [ -5.56525156, 57.8860495, 98.243512276209728 ], [ -5.5652816, 57.88609733, 98.773099613158678 ], [ -5.56530687, 57.88614635, 98.582478645838634 ], [ -5.56533533, 57.88619459, 98.922199780569386 ], [ -5.56536113, 57.88624752, 99.147170461896124 ], [ -5.56533968, 57.88629492, 99.02298353737045 ], [ -5.56527177, 57.88632654, 98.963517772727371 ], [ -5.56521183, 57.88636317, 99.190956283719956 ], [ -5.5652272, 57.88641812, 99.191196725244566 ], [ -5.56524179, 57.88646916, 99.123843043160051 ], [ -5.56525201, 57.88652716, 99.474854531332795 ], [ -5.56523425, 57.886577, 99.760367243599504 ], [ -5.56512715, 57.88659849, 99.863227285626564 ] ] ] } }
]
}
