{"type":"FeatureCollection","features":[{"type":"Feature","properties":{"name":"Hiking","time":"2026-03-07T09:56:04Z"},"geometry":{"type":"LineString","coordinates":[[-2.60984548,55.25308223,273],[-2.61043138,55.25293865,269],[-2.61051231,55.25290943,269],[-2.61193667,55.25211806,266],[-2.61201626,55.2520989,266],[-2.61339763,55.25294096,265],[-2.61354299,55.2530246,266],[-2.61540562,55.25465711,270],[-2.61548698,55.2546751,274],[-2.61614997,55.25547729,265],[-2.61618393,55.2555396,264],[-2.61762059,55.25677903,276],[-2.617706,55.25680608,275],[-2.62054076,55.25955067,275],[-2.62055905,55.25958055,273],[-2.62311152,55.26147125,279],[-2.62310603,55.26150555,278],[-2.62369471,55.26173695,281],[-2.62370844,55.26174464,282],[-2.62443545,55.26225438,278],[-2.62449567,55.26230194,279],[-2.62558082,55.26327216,276],[-2.62569357,55.26337688,275],[-2.62633904,55.26423213,274],[-2.6264115,55.26426445,274],[-2.62702038,55.26445638,276],[-2.62706877,55.26445526,272],[-2.6269369,55.26428174,275],[-2.62698693,55.26426149,275],[-2.62783635,55.26416093,278],[-2.62785864,55.26414666,279],[-2.62775593,55.26426328,277],[-2.62778643,55.26427878,276],[-2.62839593,55.26433553,279],[-2.62846129,55.26434274,279],[-2.62890411,55.2646,276],[-2.62895044,55.26462771,277],[-2.63140761,55.26410019,283],[-2.63148613,55.26409141,283],[-2.63604806,55.26391664,308],[-2.63611096,55.26393007,308],[-2.63732208,55.26375706,311],[-2.63737158,55.2637561,312],[-2.63765862,55.26380345,317],[-2.63777545,55.26380587,318],[-2.63798633,55.26403755,320],[-2.63804061,55.26405355,320],[-2.63846259,55.26403771,326],[-2.63850521,55.26404589,327],[-2.63882321,55.26431511,328],[-2.63877287,55.26432813,328],[-2.6387084,55.26430864,328],[-2.63867538,55.26428386,324],[-2.6388139,55.26425421,322],[-2.63884641,55.26423575,324],[-2.63928451,55.26433097,330],[-2.63933523,55.26433518,330],[-2.64045031,55.26423831,341],[-2.64050489,55.26420454,341],[-2.6410065,55.26428532,342],[-2.64102898,55.26428985,341],[-2.64237069,55.26381386,362],[-2.6424157,55.26380181,363],[-2.6436943,55.26324431,378],[-2.64375253,55.26322795,379],[-2.64427244,55.26269724,384],[-2.64429229,55.26266143,384],[-2.64404248,55.26204882,393],[-2.64402716,55.26202789,394],[-2.64421637,55.26198153,397],[-2.64423064,55.26194765,398],[-2.64404077,55.26172231,396],[-2.64403406,55.26168135,396],[-2.64422873,55.26039697,397],[-2.64424484,55.26036335,398],[-2.6458434,55.26013346,406],[-2.64590889,55.26013243,407],[-2.64679649,55.26015278,410],[-2.64688646,55.26014842,412],[-2.64776011,55.26036767,416],[-2.64780072,55.26042313,419],[-2.64771317,55.26034345,413],[-2.64771196,55.2603399,412],[-2.64888246,55.26000113,416],[-2.64894816,55.25997455,415],[-2.64948921,55.25955362,412],[-2.64953249,55.25952102,412],[-2.64975563,55.25920835,413],[-2.64981574,55.25920284,415],[-2.64975034,55.2585868,412],[-2.64974991,55.2585424,412],[-2.64998891,55.2581846,413],[-2.65001157,55.25814395,413],[-2.6507725,55.25748602,412],[-2.65077305,55.25750385,411],[-2.6514343,55.25614376,410],[-2.65145371,55.25610756,410],[-2.65300594,55.25401553,425],[-2.65305464,55.25404021,427],[-2.65298365,55.25402215,424],[-2.65297603,55.25399344,424],[-2.65361532,55.25246734,433],[-2.65356621,55.25248004,432],[-2.65379418,55.25231567,435],[-2.65382165,55.25227089,436],[-2.65432703,55.25092746,439],[-2.65431124,55.25086403,439],[-2.65398406,55.25059866,442],[-2.6539454,55.25061756,441],[-2.65366992,55.24996883,443],[-2.65364329,55.24995508,443],[-2.65371292,55.24965131,449],[-2.65372115,55.24965207,449],[-2.6529542,55.24876827,451],[-2.652917,55.24878015,448],[-2.65300552,55.24862829,449],[-2.65298984,55.24857592,448],[-2.65236037,55.24740331,445],[-2.65232381,55.24739869,447],[-2.65242053,55.24736904,448],[-2.65243999,55.2473704,447],[-2.64871502,55.24769146,439],[-2.64863453,55.24770636,438],[-2.64801377,55.24765285,434],[-2.6479831,55.24764679,437],[-2.64765713,55.24776976,435],[-2.64765541,55.24777114,434],[-2.64754395,55.24767614,430],[-2.64747973,55.24768083,429],[-2.64727281,55.24780388,428],[-2.64723061,55.24778846,426],[-2.6477379,55.24781606,423],[-2.64772154,55.24782722,423],[-2.6476634,55.24781398,421],[-2.64753193,55.24780667,424],[-2.6476968,55.24771273,418],[-2.64769581,55.24770703,418],[-2.64758529,55.24778999,421],[-2.64756056,55.24781364,422],[-2.64718747,55.24776153,427],[-2.64714497,55.24776724,427],[-2.64495663,55.24842278,422],[-2.6448875,55.24843618,421],[-2.64427112,55.24790241,414],[-2.64419891,55.2478709,414],[-2.64019035,55.24673768,396],[-2.64010195,55.2467115,395],[-2.63675846,55.24617041,378],[-2.63667244,55.24614344,378],[-2.63540117,55.24538368,370],[-2.6353146,55.24536179,369],[-2.63517426,55.24541999,368],[-2.63516453,55.24547534,369],[-2.63516675,55.24621148,362],[-2.63508617,55.24624166,361],[-2.63523966,55.24606903,367],[-2.63525414,55.24600656,367],[-2.63518986,55.24531826,367],[-2.63517512,55.2452625,368],[-2.63429923,55.2443383,364],[-2.63428188,55.24428482,364],[-2.63439108,55.24392664,366],[-2.63437227,55.24392971,364],[-2.63531803,55.24264298,360],[-2.63531902,55.2426491,359],[-2.6348863,55.24192464,366],[-2.63489811,55.24189254,368],[-2.63660514,55.24146389,383],[-2.63666404,55.24144595,384],[-2.63703584,55.24098495,386],[-2.63704315,55.24099298,387],[-2.63662319,55.2402554,390],[-2.63661371,55.24021288,391],[-2.63679557,55.23950367,400],[-2.63676828,55.23945682,400],[-2.6344789,55.23807965,394],[-2.63445208,55.23803369,394],[-2.63434475,55.23720827,390],[-2.63428703,55.23719551,390],[-2.63431167,55.23721034,393],[-2.63438001,55.23722643,395],[-2.63431524,55.23709616,390],[-2.63430395,55.23704576,390],[-2.63468927,55.23494509,390],[-2.63470072,55.23484933,390],[-2.63455582,55.23427438,388],[-2.63453889,55.23422733,387],[-2.63429718,55.23388272,383],[-2.63422929,55.23384598,382],[-2.63354078,55.23373546,378],[-2.63353288,55.23373132,379],[-2.63360253,55.23380663,375],[-2.63360136,55.23380848,375],[-2.63334132,55.2337927,377],[-2.63321335,55.23378922,378],[-2.63241341,55.23427856,381],[-2.63234969,55.23430812,382],[-2.63212266,55.23420586,384],[-2.63206563,55.23421252,381],[-2.63220299,55.23422115,389],[-2.6322583,55.23421982,387],[-2.63208812,55.23429444,387],[-2.63206624,55.23427391,390],[-2.6322081,55.23424508,403],[-2.63225988,55.23424118,398],[-2.63212599,55.23433814,392],[-2.63210246,55.23437602,390],[-2.63047317,55.23527512,384],[-2.63040769,55.23530507,385],[-2.62942673,55.23558729,391],[-2.62936245,55.23559896,391],[-2.62912025,55.23586619,392],[-2.62920826,55.23587445,392],[-2.62813382,55.23644496,398],[-2.62807281,55.23652198,398],[-2.62856491,55.23776914,392],[-2.62858524,55.23782044,392],[-2.62900001,55.23836077,388],[-2.62902144,55.23840767,387],[-2.62911431,55.23901229,380],[-2.62911398,55.23906609,379],[-2.62880674,55.24059174,376],[-2.62879772,55.24064735,376],[-2.62878009,55.24165257,371],[-2.62876652,55.24171058,372],[-2.62811289,55.24300535,367],[-2.62809717,55.24305915,367],[-2.62776364,55.24345045,351],[-2.62767249,55.24350927,345],[-2.62657966,55.24391149,345],[-2.62651418,55.24394145,345],[-2.62529614,55.24465291,337],[-2.62520984,55.24468161,336],[-2.62261694,55.24504848,330],[-2.62251325,55.24506779,330],[-2.62064227,55.24559237,320],[-2.62055617,55.24561542,320],[-2.61981396,55.24562915,315],[-2.61971628,55.24561598,315],[-2.61670843,55.24500536,304],[-2.61650916,55.24495908,302],[-2.61557443,55.24512188,293],[-2.61549795,55.24512796,293],[-2.61511053,55.24541783,293],[-2.61504988,55.24544101,293],[-2.61512893,55.2456386,295],[-2.61513435,55.24564884,293],[-2.61497605,55.24568261,287],[-2.61497312,55.24569664,290],[-2.61473768,55.24547805,280],[-2.61473255,55.24544804,281],[-2.61478879,55.24543352,281],[-2.61482547,55.24542638,280],[-2.61486644,55.24559823,280],[-2.61489918,55.24561303,280],[-2.61480384,55.24561128,278],[-2.61477682,55.24563351,281],[-2.61489202,55.24569282,283],[-2.61489084,55.24570655,283],[-2.61353769,55.24642878,280],[-2.61354871,55.24643177,280],[-2.61156793,55.24722721,276],[-2.61157614,55.24723362,275],[-2.61066755,55.2472777,281],[-2.61067162,55.24727422,280],[-2.61057736,55.2473195,278],[-2.61055059,55.24733322,277],[-2.61063418,55.24740067,275],[-2.61057841,55.24742913,273],[-2.61020284,55.24744435,271],[-2.61014277,55.24744667,271],[-2.60967414,55.24725857,262],[-2.60965912,55.24725866,263],[-2.60912862,55.24754774,265],[-2.60906595,55.24757105,263],[-2.60856106,55.24798664,265],[-2.60861056,55.24799919,266],[-2.60946999,55.24760798,269],[-2.60953224,55.24758382,269],[-2.61067811,55.247401,279],[-2.61073917,55.24739533,280],[-2.6115429,55.24783066,295],[-2.61150114,55.24782697,294],[-2.61205598,55.24768645,290],[-2.61206515,55.2476823,289],[-2.6127667,55.24785031,294],[-2.61279291,55.24788569,295],[-2.61274513,55.24839701,297],[-2.61273074,55.24844452,297],[-2.61253614,55.24869577,296],[-2.61253968,55.24871623,296],[-2.61101937,55.24904879,279],[-2.61092876,55.24907401,278],[-2.60908891,55.24997161,264],[-2.60903337,55.25000412,267],[-2.61186079,55.2518718,259],[-2.61190889,55.2519228,259],[-2.61065567,55.25280911,263],[-2.61057865,55.25285239,263],[-2.60947604,55.2532277,265]]}}]}