{
"type": "FeatureCollection",
"name": "Kinglass",
"crs": { "type": "name", "properties": { "name": "urn:ogc:def:crs:OGC:1.3:CRS84" } },
"features": [
{ "type": "Feature", "properties": { "fid": 111, "FileName": "Bridge of Orchy to Taynuilt Day 2", "Length": 16.46, "link": null, "Date Walked": "2026-08-29", "Notes": null }, "geometry": { "type": "MultiLineString", "coordinates": [ [ [ -5.239295050441362, 56.430874848675913 ], [ -5.239306, 56.430842 ] ], [ [ -5.239295050441362, 56.430874848675913 ], [ -5.239335, 56.430899 ], [ -5.239291, 56.430887 ], [ -5.239295050441362, 56.430874848675913 ] ], [ [ -5.124030966573817, 56.489156690807796 ], [ -5.124097, 56.489109 ], [ -5.124263, 56.489045 ], [ -5.124599, 56.489028 ], [ -5.124714, 56.489036 ], [ -5.12504, 56.48899 ], [ -5.125148, 56.488914 ], [ -5.125326, 56.488763 ], [ -5.12544, 56.488672 ], [ -5.125621, 56.488518 ], [ -5.125752, 56.48843 ], [ -5.12599, 56.488297 ], [ -5.126135, 56.488229 ], [ -5.126383, 56.488099 ], [ -5.126429, 56.488058 ], [ -5.126547, 56.487889 ], [ -5.126622, 56.487879 ], [ -5.126884, 56.487763 ], [ -5.126958, 56.487691 ], [ -5.127173, 56.487545 ], [ -5.127322, 56.487465 ], [ -5.127598, 56.487359 ], [ -5.127698, 56.487303 ], [ -5.12802, 56.487328 ], [ -5.128199, 56.48733 ], [ -5.128524, 56.487326 ], [ -5.128706, 56.4873 ], [ -5.129046, 56.487273 ], [ -5.129249, 56.487272 ], [ -5.129562, 56.487326 ], [ -5.129748, 56.487299 ], [ -5.129976, 56.487156 ], [ -5.130077, 56.487054 ], [ -5.130223, 56.486892 ], [ -5.130369, 56.486798 ], [ -5.130701, 56.486744 ], [ -5.130903, 56.486717 ], [ -5.131189, 56.486627 ], [ -5.131324, 56.486584 ], [ -5.131619, 56.486492 ], [ -5.13175, 56.486416 ], [ -5.131898, 56.486253 ], [ -5.132038, 56.486163 ], [ -5.132211, 56.485998 ], [ -5.132272, 56.485901 ], [ -5.13231, 56.485717 ], [ -5.132316, 56.485614 ], [ -5.132221, 56.48543 ], [ -5.132137, 56.485325 ], [ -5.132006, 56.485149 ], [ -5.13195, 56.485026 ], [ -5.131903, 56.48484 ], [ -5.131883, 56.48474 ], [ -5.131894, 56.484552 ], [ -5.131886, 56.484456 ], [ -5.131876, 56.484276 ], [ -5.131926, 56.484182 ], [ -5.13208, 56.484018 ], [ -5.132112, 56.483919 ], [ -5.132157, 56.483741 ], [ -5.132213, 56.483635 ], [ -5.132372, 56.483471 ], [ -5.132495, 56.48338 ], [ -5.132633, 56.483211 ], [ -5.132706, 56.483103 ], [ -5.132809, 56.482929 ], [ -5.132882, 56.482819 ], [ -5.132995, 56.482648 ], [ -5.133074, 56.482542 ], [ -5.133207, 56.482375 ], [ -5.133289, 56.482259 ], [ -5.133454, 56.482104 ], [ -5.133564, 56.48205 ], [ -5.133795, 56.481922 ], [ -5.13392, 56.481857 ], [ -5.134176, 56.48174 ], [ -5.134305, 56.481686 ], [ -5.134588, 56.481591 ], [ -5.134712, 56.481539 ], [ -5.134907, 56.481387 ], [ -5.135017, 56.481294 ], [ -5.135112, 56.481119 ], [ -5.135122, 56.481015 ], [ -5.135157, 56.480826 ], [ -5.135212, 56.480735 ], [ -5.135254, 56.480547 ], [ -5.135258, 56.480447 ], [ -5.135304, 56.480266 ], [ -5.135353, 56.480182 ], [ -5.135481, 56.480011 ], [ -5.135625, 56.479974 ], [ -5.135948, 56.479923 ], [ -5.136118, 56.479889 ], [ -5.136412, 56.479792 ], [ -5.136417, 56.479693 ], [ -5.136264, 56.479524 ], [ -5.136203, 56.479429 ], [ -5.136112, 56.479249 ], [ -5.136011, 56.479139 ], [ -5.135863, 56.47897 ], [ -5.135824, 56.478852 ], [ -5.13584, 56.478663 ], [ -5.135801, 56.47857 ], [ -5.135543, 56.47846 ], [ -5.135374, 56.478405 ], [ -5.135127, 56.478277 ], [ -5.135012, 56.478192 ], [ -5.134803, 56.478052 ], [ -5.134713, 56.477936 ], [ -5.134632, 56.477751 ], [ -5.134628, 56.477651 ], [ -5.134601, 56.477466 ], [ -5.134638, 56.477458 ], [ -5.134542, 56.477277 ], [ -5.134501, 56.477161 ], [ -5.13453, 56.476972 ], [ -5.134633, 56.476863 ], [ -5.134914, 56.47676 ], [ -5.135084, 56.476733 ], [ -5.135417, 56.476692 ], [ -5.135604, 56.476644 ], [ -5.135937, 56.47659 ], [ -5.136159, 56.476557 ], [ -5.136463, 56.476488 ], [ -5.136653, 56.476457 ], [ -5.136962, 56.476394 ], [ -5.1371, 56.476321 ], [ -5.137314, 56.476173 ], [ -5.137443, 56.476074 ], [ -5.137663, 56.47594 ], [ -5.137773, 56.475867 ], [ -5.137777, 56.475681 ], [ -5.137641, 56.475614 ], [ -5.137432, 56.475471 ], [ -5.137432, 56.475428 ], [ -5.137585, 56.475262 ], [ -5.137666, 56.475178 ], [ -5.137791, 56.475005 ], [ -5.137762, 56.474917 ], [ -5.137605, 56.474749 ], [ -5.137528, 56.474633 ], [ -5.137526, 56.47445 ], [ -5.137603, 56.474413 ], [ -5.137445, 56.474252 ], [ -5.137398, 56.474154 ], [ -5.137374, 56.473968 ], [ -5.137464, 56.473886 ], [ -5.137739, 56.473776 ], [ -5.137923, 56.473729 ], [ -5.138245, 56.473671 ], [ -5.138421, 56.473643 ], [ -5.138753, 56.473597 ], [ -5.138948, 56.473575 ], [ -5.139287, 56.473546 ], [ -5.139479, 56.473518 ], [ -5.139791, 56.473443 ], [ -5.139938, 56.473366 ], [ -5.14026, 56.473314 ], [ -5.140462, 56.473334 ], [ -5.140799, 56.473352 ], [ -5.140963, 56.473414 ], [ -5.141178, 56.473562 ], [ -5.141278, 56.473622 ], [ -5.141574, 56.473716 ], [ -5.141772, 56.473728 ], [ -5.142117, 56.473742 ], [ -5.142329, 56.473768 ], [ -5.142637, 56.473827 ], [ -5.142837, 56.473866 ], [ -5.143158, 56.473926 ], [ -5.143361, 56.473887 ], [ -5.143559, 56.473741 ], [ -5.143644, 56.473627 ], [ -5.143877, 56.473496 ], [ -5.144002, 56.473533 ], [ -5.144128, 56.473367 ], [ -5.144203, 56.473297 ], [ -5.144383, 56.473148 ], [ -5.144587, 56.473107 ], [ -5.144916, 56.473078 ], [ -5.145093, 56.473057 ], [ -5.145408, 56.472998 ], [ -5.14563, 56.472959 ], [ -5.145967, 56.472934 ], [ -5.146186, 56.472903 ], [ -5.146529, 56.472869 ], [ -5.146738, 56.472838 ], [ -5.147035, 56.472744 ], [ -5.147192, 56.472669 ], [ -5.147456, 56.472548 ], [ -5.147637, 56.472489 ], [ -5.14791, 56.472386 ], [ -5.148076, 56.472321 ], [ -5.14839, 56.472244 ], [ -5.148577, 56.472208 ], [ -5.148885, 56.472129 ], [ -5.149013, 56.472106 ], [ -5.14932, 56.472018 ], [ -5.149526, 56.471974 ], [ -5.149815, 56.47189 ], [ -5.150031, 56.471874 ], [ -5.150363, 56.47187 ], [ -5.15051, 56.471897 ], [ -5.150832, 56.471943 ], [ -5.151012, 56.471929 ], [ -5.151337, 56.471865 ], [ -5.15153, 56.47184 ], [ -5.151828, 56.471767 ], [ -5.152017, 56.471739 ], [ -5.152334, 56.471793 ], [ -5.152545, 56.471786 ], [ -5.152877, 56.471766 ], [ -5.153028, 56.471748 ], [ -5.153347, 56.471711 ], [ -5.153484, 56.471726 ], [ -5.153817, 56.471779 ], [ -5.153847, 56.471757 ], [ -5.154152, 56.471837 ], [ -5.154328, 56.471871 ], [ -5.154654, 56.471865 ], [ -5.154849, 56.471835 ], [ -5.155137, 56.471739 ], [ -5.155233, 56.471664 ], [ -5.155388, 56.471501 ], [ -5.155414, 56.471442 ], [ -5.155453, 56.47126 ], [ -5.15539, 56.471159 ], [ -5.155393, 56.470972 ], [ -5.155413, 56.470853 ], [ -5.155349, 56.47067 ], [ -5.155259, 56.470554 ], [ -5.155173, 56.470374 ], [ -5.155182, 56.470275 ], [ -5.155327, 56.470112 ], [ -5.155424, 56.470012 ], [ -5.155682, 56.469887 ], [ -5.155869, 56.469825 ], [ -5.156098, 56.469697 ], [ -5.156201, 56.469599 ], [ -5.156336, 56.469428 ], [ -5.156439, 56.469345 ], [ -5.156731, 56.469254 ], [ -5.156923, 56.469219 ], [ -5.157248, 56.469185 ], [ -5.157436, 56.469169 ], [ -5.157773, 56.469197 ], [ -5.157947, 56.469209 ], [ -5.158273, 56.469187 ], [ -5.158441, 56.469179 ], [ -5.15876, 56.469125 ], [ -5.158919, 56.469064 ], [ -5.159034, 56.468893 ], [ -5.15904, 56.468819 ], [ -5.158884, 56.468656 ], [ -5.158913, 56.468546 ], [ -5.15911, 56.468403 ], [ -5.15922, 56.468299 ], [ -5.159412, 56.468146 ], [ -5.159477, 56.468059 ], [ -5.159533, 56.467881 ], [ -5.159526, 56.467774 ], [ -5.159725, 56.467626 ], [ -5.159886, 56.467564 ], [ -5.160124, 56.467432 ], [ -5.160205, 56.467341 ], [ -5.160438, 56.467201 ], [ -5.160586, 56.467127 ], [ -5.160729, 56.466957 ], [ -5.160774, 56.466861 ], [ -5.161029, 56.46675 ], [ -5.161035, 56.466598 ], [ -5.161067, 56.466408 ], [ -5.161156, 56.466315 ], [ -5.161368, 56.466172 ], [ -5.161501, 56.466098 ], [ -5.161767, 56.465984 ], [ -5.16195, 56.465958 ], [ -5.162263, 56.465903 ], [ -5.162322, 56.465879 ], [ -5.162645, 56.465826 ], [ -5.162814, 56.465769 ], [ -5.163108, 56.465671 ], [ -5.163264, 56.465603 ], [ -5.163496, 56.465467 ], [ -5.163625, 56.465393 ], [ -5.163849, 56.465258 ], [ -5.163983, 56.465182 ], [ -5.16396, 56.465001 ], [ -5.163794, 56.464957 ], [ -5.163529, 56.464837 ], [ -5.163464, 56.464775 ], [ -5.163222, 56.464655 ], [ -5.16306, 56.464589 ], [ -5.162812, 56.46447 ], [ -5.162646, 56.464402 ], [ -5.162376, 56.464296 ], [ -5.162218, 56.464231 ], [ -5.161946, 56.464116 ], [ -5.161774, 56.464031 ], [ -5.16156, 56.463896 ], [ -5.161381, 56.463816 ], [ -5.161127, 56.463691 ], [ -5.160945, 56.463617 ], [ -5.160672, 56.463503 ], [ -5.16052, 56.463404 ], [ -5.160339, 56.463251 ], [ -5.160179, 56.463158 ], [ -5.159941, 56.463036 ], [ -5.159754, 56.462977 ], [ -5.159468, 56.462888 ], [ -5.159264, 56.462822 ], [ -5.158972, 56.462735 ], [ -5.158754, 56.462667 ], [ -5.158468, 56.462561 ], [ -5.158285, 56.462479 ], [ -5.158155, 56.462314 ], [ -5.158196, 56.462192 ], [ -5.15815, 56.462002 ], [ -5.158088, 56.461879 ], [ -5.157956, 56.461713 ], [ -5.157876, 56.4616 ], [ -5.157725, 56.461441 ], [ -5.157633, 56.461347 ], [ -5.157495, 56.461175 ], [ -5.157482, 56.461069 ], [ -5.157613, 56.460904 ], [ -5.157743, 56.460814 ], [ -5.158021, 56.460703 ], [ -5.158089, 56.460599 ], [ -5.158208, 56.460428 ], [ -5.158396, 56.46037 ], [ -5.158634, 56.460242 ], [ -5.158758, 56.460143 ], [ -5.158988, 56.460014 ], [ -5.159148, 56.459943 ], [ -5.159451, 56.459867 ], [ -5.159648, 56.459825 ], [ -5.159968, 56.459773 ], [ -5.160173, 56.459735 ], [ -5.16049, 56.45969 ], [ -5.160725, 56.459696 ], [ -5.161047, 56.459725 ], [ -5.161265, 56.459719 ], [ -5.161538, 56.459605 ], [ -5.161694, 56.459527 ], [ -5.161902, 56.459388 ], [ -5.161946, 56.459373 ], [ -5.162251, 56.459312 ], [ -5.162393, 56.459267 ], [ -5.162712, 56.459228 ], [ -5.162887, 56.459207 ], [ -5.163212, 56.459155 ], [ -5.163356, 56.459161 ], [ -5.163673, 56.459209 ], [ -5.16384, 56.459233 ], [ -5.164173, 56.459253 ], [ -5.164334, 56.459282 ], [ -5.164662, 56.459312 ], [ -5.164869, 56.459318 ], [ -5.165208, 56.459302 ], [ -5.165417, 56.459286 ], [ -5.165736, 56.459226 ], [ -5.165947, 56.459225 ], [ -5.166263, 56.45918 ], [ -5.166454, 56.459129 ], [ -5.166711, 56.459001 ], [ -5.166846, 56.45892 ], [ -5.167095, 56.458792 ], [ -5.167265, 56.458706 ], [ -5.16749, 56.458576 ], [ -5.167646, 56.458497 ], [ -5.167878, 56.45836 ], [ -5.167971, 56.45825 ], [ -5.168027, 56.458069 ], [ -5.168129, 56.457957 ], [ -5.168336, 56.45781 ], [ -5.168495, 56.457706 ], [ -5.168716, 56.45756 ], [ -5.168796, 56.45751 ], [ -5.169001, 56.457368 ], [ -5.169187, 56.457275 ], [ -5.16947, 56.45718 ], [ -5.169686, 56.457126 ], [ -5.170003, 56.457087 ], [ -5.170219, 56.457084 ], [ -5.170545, 56.457087 ], [ -5.170753, 56.457081 ], [ -5.171081, 56.457058 ], [ -5.171287, 56.457027 ], [ -5.171599, 56.456953 ], [ -5.17182, 56.456899 ], [ -5.172136, 56.456829 ], [ -5.172336, 56.456776 ], [ -5.172631, 56.456701 ], [ -5.172855, 56.456637 ], [ -5.173144, 56.456552 ], [ -5.17334, 56.456489 ], [ -5.173612, 56.456387 ], [ -5.173768, 56.456303 ], [ -5.173982, 56.456157 ], [ -5.174127, 56.456049 ], [ -5.174344, 56.455904 ], [ -5.174386, 56.455788 ], [ -5.17434, 56.455606 ], [ -5.174339, 56.455477 ], [ -5.174362, 56.455297 ], [ -5.174464, 56.455179 ], [ -5.174672, 56.455041 ], [ -5.174833, 56.454944 ], [ -5.175056, 56.454813 ], [ -5.175237, 56.454707 ], [ -5.175515, 56.45459 ], [ -5.175728, 56.45453 ], [ -5.17602, 56.454437 ], [ -5.176258, 56.454402 ], [ -5.176579, 56.454334 ], [ -5.176798, 56.454289 ], [ -5.17711, 56.454208 ], [ -5.177297, 56.454153 ], [ -5.177624, 56.454075 ], [ -5.177836, 56.45403 ], [ -5.178132, 56.453934 ], [ -5.178327, 56.453871 ], [ -5.178628, 56.453798 ], [ -5.178675, 56.453806 ], [ -5.178913, 56.453671 ], [ -5.178991, 56.453579 ], [ -5.179203, 56.453434 ], [ -5.179352, 56.453357 ], [ -5.179561, 56.453203 ], [ -5.17966, 56.453155 ], [ -5.179848, 56.453001 ], [ -5.179927, 56.452952 ], [ -5.180185, 56.452827 ], [ -5.180344, 56.452733 ], [ -5.180595, 56.452619 ], [ -5.180755, 56.452556 ], [ -5.18098, 56.452425 ], [ -5.181095, 56.452346 ], [ -5.18126, 56.452184 ], [ -5.181323, 56.452084 ], [ -5.181467, 56.451917 ], [ -5.181548, 56.451813 ], [ -5.181739, 56.451658 ], [ -5.181903, 56.451583 ], [ -5.182175, 56.451474 ], [ -5.182364, 56.451394 ], [ -5.182561, 56.451248 ], [ -5.182661, 56.451131 ], [ -5.182752, 56.450959 ], [ -5.182718, 56.450965 ], [ -5.183016, 56.450879 ], [ -5.183221, 56.450864 ], [ -5.183523, 56.45077 ], [ -5.18367, 56.45071 ], [ -5.183977, 56.450635 ], [ -5.184128, 56.450615 ], [ -5.184437, 56.45055 ], [ -5.184523, 56.450513 ], [ -5.184809, 56.450413 ], [ -5.184924, 56.450392 ], [ -5.185221, 56.450315 ], [ -5.185367, 56.450285 ], [ -5.185671, 56.450212 ], [ -5.185834, 56.450148 ], [ -5.186052, 56.450012 ], [ -5.186209, 56.449938 ], [ -5.186435, 56.449798 ], [ -5.186553, 56.449717 ], [ -5.18674, 56.44957 ], [ -5.186811, 56.449443 ], [ -5.186922, 56.449272 ], [ -5.186998, 56.449171 ], [ -5.187129, 56.448997 ], [ -5.187138, 56.448946 ], [ -5.187103, 56.448765 ], [ -5.187106, 56.448667 ], [ -5.187306, 56.448525 ], [ -5.18747, 56.448449 ], [ -5.187757, 56.448353 ], [ -5.187939, 56.448273 ], [ -5.188177, 56.44814 ], [ -5.188332, 56.448073 ], [ -5.188638, 56.447993 ], [ -5.18885, 56.447955 ], [ -5.189158, 56.447884 ], [ -5.189332, 56.447825 ], [ -5.189595, 56.447712 ], [ -5.189733, 56.447623 ], [ -5.189947, 56.447485 ], [ -5.190083, 56.447387 ], [ -5.190268, 56.447229 ], [ -5.19032, 56.447144 ], [ -5.190403, 56.446964 ], [ -5.190411, 56.446903 ], [ -5.190531, 56.446727 ], [ -5.19059, 56.44666 ], [ -5.190701, 56.446487 ], [ -5.190783, 56.446381 ], [ -5.190939, 56.446213 ], [ -5.191048, 56.446109 ], [ -5.191215, 56.445945 ], [ -5.191228, 56.445843 ], [ -5.191254, 56.44566 ], [ -5.191323, 56.44556 ], [ -5.191505, 56.445407 ], [ -5.1916, 56.445304 ], [ -5.191659, 56.445128 ], [ -5.191665, 56.445022 ], [ -5.191752, 56.444841 ], [ -5.191865, 56.444741 ], [ -5.192118, 56.444627 ], [ -5.192271, 56.444551 ], [ -5.192394, 56.444372 ], [ -5.192442, 56.444247 ], [ -5.192558, 56.444076 ], [ -5.192689, 56.443982 ], [ -5.192904, 56.443839 ], [ -5.193033, 56.443743 ], [ -5.193257, 56.443612 ], [ -5.193408, 56.443535 ], [ -5.193671, 56.443419 ], [ -5.19383, 56.443333 ], [ -5.194012, 56.443175 ], [ -5.194129, 56.44307 ], [ -5.194317, 56.442922 ], [ -5.194444, 56.442829 ], [ -5.194614, 56.44267 ], [ -5.19468, 56.442552 ], [ -5.194728, 56.442371 ], [ -5.194761, 56.44225 ], [ -5.194942, 56.442089 ], [ -5.195109, 56.442018 ], [ -5.195362, 56.441887 ], [ -5.195517, 56.441797 ], [ -5.195771, 56.441683 ], [ -5.195957, 56.441643 ], [ -5.196284, 56.441608 ], [ -5.19648, 56.441565 ], [ -5.196738, 56.441443 ], [ -5.196848, 56.44135 ], [ -5.197004, 56.441188 ], [ -5.19714, 56.441096 ], [ -5.197392, 56.440982 ], [ -5.197559, 56.440922 ], [ -5.197876, 56.440856 ], [ -5.197996, 56.440804 ], [ -5.19829, 56.44072 ], [ -5.198487, 56.440683 ], [ -5.198795, 56.440618 ], [ -5.199002, 56.440576 ], [ -5.199314, 56.440509 ], [ -5.199323, 56.440472 ], [ -5.199597, 56.440374 ], [ -5.199687, 56.440343 ], [ -5.199777, 56.440168 ], [ -5.19984, 56.440073 ], [ -5.199912, 56.439889 ], [ -5.199935, 56.439788 ], [ -5.19993, 56.439603 ], [ -5.199959, 56.439474 ], [ -5.200003, 56.439286 ], [ -5.20007, 56.439164 ], [ -5.200179, 56.438993 ], [ -5.200276, 56.438877 ], [ -5.20037, 56.438704 ], [ -5.200518, 56.438609 ], [ -5.200756, 56.438485 ], [ -5.200925, 56.4384 ], [ -5.20113, 56.438258 ], [ -5.201265, 56.438146 ], [ -5.201403, 56.437971 ], [ -5.201438, 56.437848 ], [ -5.201517, 56.437664 ], [ -5.20162, 56.437556 ], [ -5.201813, 56.437403 ], [ -5.201929, 56.437316 ], [ -5.202142, 56.437172 ], [ -5.202281, 56.437071 ], [ -5.202518, 56.436939 ], [ -5.202696, 56.436886 ], [ -5.202971, 56.436773 ], [ -5.203109, 56.436693 ], [ -5.20334, 56.436566 ], [ -5.203492, 56.436494 ], [ -5.203745, 56.436373 ], [ -5.203892, 56.436309 ], [ -5.204085, 56.436157 ], [ -5.204212, 56.436086 ], [ -5.204518, 56.436154 ], [ -5.204724, 56.436192 ], [ -5.205013, 56.436281 ], [ -5.205166, 56.436373 ], [ -5.205381, 56.436521 ], [ -5.205517, 56.436625 ], [ -5.205673, 56.436784 ], [ -5.205743, 56.43691 ], [ -5.206013, 56.437021 ], [ -5.20623, 56.437022 ], [ -5.206568, 56.437048 ], [ -5.206726, 56.437137 ], [ -5.206867, 56.43731 ], [ -5.207052, 56.43739 ], [ -5.207379, 56.43739 ], [ -5.207568, 56.437332 ], [ -5.207855, 56.437237 ], [ -5.208018, 56.437166 ], [ -5.208288, 56.437064 ], [ -5.208466, 56.436993 ], [ -5.208764, 56.436913 ], [ -5.208958, 56.43686 ], [ -5.209228, 56.436757 ], [ -5.20945, 56.436693 ], [ -5.209787, 56.436663 ], [ -5.209939, 56.436635 ], [ -5.210198, 56.436523 ], [ -5.210333, 56.436462 ], [ -5.210571, 56.436339 ], [ -5.210726, 56.436266 ], [ -5.211036, 56.436211 ], [ -5.211221, 56.436189 ], [ -5.21153, 56.436245 ], [ -5.211723, 56.436223 ], [ -5.211945, 56.436087 ], [ -5.211926, 56.435948 ], [ -5.212, 56.43577 ], [ -5.212007, 56.435689 ], [ -5.212326, 56.435644 ], [ -5.21244, 56.43568 ], [ -5.212438, 56.435493 ], [ -5.212486, 56.435419 ], [ -5.212712, 56.435289 ], [ -5.212844, 56.435184 ], [ -5.213066, 56.435043 ], [ -5.213206, 56.434945 ], [ -5.21344, 56.434809 ], [ -5.21359, 56.434716 ], [ -5.213813, 56.434575 ], [ -5.213946, 56.434474 ], [ -5.214168, 56.434341 ], [ -5.214246, 56.434266 ], [ -5.214528, 56.434162 ], [ -5.214695, 56.434086 ], [ -5.21498, 56.433981 ], [ -5.215147, 56.43392 ], [ -5.215422, 56.43382 ], [ -5.215588, 56.43376 ], [ -5.215878, 56.433676 ], [ -5.216082, 56.433618 ], [ -5.216369, 56.433522 ], [ -5.216567, 56.433464 ], [ -5.216859, 56.433384 ], [ -5.217066, 56.433324 ], [ -5.217372, 56.433259 ], [ -5.217503, 56.433219 ], [ -5.217827, 56.433254 ], [ -5.21795, 56.433281 ], [ -5.218207, 56.433405 ], [ -5.218363, 56.43348 ], [ -5.218635, 56.433594 ], [ -5.21882, 56.43366 ], [ -5.219083, 56.433768 ], [ -5.219237, 56.433851 ], [ -5.219495, 56.43396 ], [ -5.219625, 56.434035 ], [ -5.219879, 56.434148 ], [ -5.220076, 56.434218 ], [ -5.220373, 56.4343 ], [ -5.220561, 56.434387 ], [ -5.220823, 56.434499 ], [ -5.220981, 56.434583 ], [ -5.221222, 56.434721 ], [ -5.22138, 56.434821 ], [ -5.221582, 56.434968 ], [ -5.221713, 56.435073 ], [ -5.221923, 56.435226 ], [ -5.222085, 56.435323 ], [ -5.222393, 56.43541 ], [ -5.222595, 56.435382 ], [ -5.222928, 56.435407 ], [ -5.223164, 56.435413 ], [ -5.223494, 56.435443 ], [ -5.223733, 56.435494 ], [ -5.224054, 56.435538 ], [ -5.22429, 56.435584 ], [ -5.224606, 56.435632 ], [ -5.224825, 56.43567 ], [ -5.225111, 56.435761 ], [ -5.225331, 56.435822 ], [ -5.225643, 56.4359 ], [ -5.225836, 56.435925 ], [ -5.226144, 56.43599 ], [ -5.226325, 56.436025 ], [ -5.226646, 56.436095 ], [ -5.226875, 56.436145 ], [ -5.227185, 56.436219 ], [ -5.227445, 56.436262 ], [ -5.22778, 56.436305 ], [ -5.228006, 56.436293 ], [ -5.228329, 56.436247 ], [ -5.228563, 56.436217 ], [ -5.228908, 56.436226 ], [ -5.229125, 56.436229 ], [ -5.229455, 56.4362 ], [ -5.229593, 56.436187 ], [ -5.229896, 56.436099 ], [ -5.230025, 56.43599 ], [ -5.230174, 56.435829 ], [ -5.230375, 56.435776 ], [ -5.230693, 56.435708 ], [ -5.230905, 56.435667 ], [ -5.231216, 56.435612 ], [ -5.23145, 56.435569 ], [ -5.231773, 56.435504 ], [ -5.231998, 56.435467 ], [ -5.232311, 56.435386 ], [ -5.232514, 56.435328 ], [ -5.232836, 56.435273 ], [ -5.233042, 56.435236 ], [ -5.233357, 56.435181 ], [ -5.233595, 56.435136 ], [ -5.233916, 56.435078 ], [ -5.234147, 56.435037 ], [ -5.234473, 56.434961 ], [ -5.234656, 56.434918 ], [ -5.234964, 56.434846 ], [ -5.235139, 56.43477 ], [ -5.235234, 56.434594 ], [ -5.235363, 56.434535 ], [ -5.235544, 56.434384 ], [ -5.235649, 56.434271 ], [ -5.235799, 56.434102 ], [ -5.235857, 56.433977 ], [ -5.236001, 56.433815 ], [ -5.236132, 56.433697 ], [ -5.236339, 56.433555 ], [ -5.236484, 56.433454 ], [ -5.236713, 56.433313 ], [ -5.23688, 56.433224 ], [ -5.237174, 56.433123 ], [ -5.237324, 56.433062 ], [ -5.237557, 56.432926 ], [ -5.237681, 56.432812 ], [ -5.237808, 56.432639 ], [ -5.237856, 56.432507 ], [ -5.23787, 56.432323 ], [ -5.237853, 56.4322 ], [ -5.237801, 56.43202 ], [ -5.237765, 56.431974 ], [ -5.237749, 56.431794 ], [ -5.237796, 56.431645 ], [ -5.237849, 56.43146 ], [ -5.237826, 56.431333 ], [ -5.237841, 56.431138 ], [ -5.237882, 56.431027 ], [ -5.237712, 56.430864 ], [ -5.237713, 56.430768 ], [ -5.237818, 56.430586 ], [ -5.237957, 56.430507 ], [ -5.238215, 56.430391 ], [ -5.238365, 56.430297 ], [ -5.238484, 56.430126 ], [ -5.238474, 56.430073 ], [ -5.238551, 56.430253 ], [ -5.238531, 56.43033 ], [ -5.238574, 56.430514 ], [ -5.238666, 56.430604 ], [ -5.238937, 56.430721 ], [ -5.239115, 56.430766 ], [ -5.239295050441362, 56.430874848675913 ] ], [ [ -5.123933654779973, 56.489226971547794 ], [ -5.124030966573817, 56.489156690807796 ] ], [ [ -5.123933654779973, 56.489226971547794 ], [ -5.123948, 56.489231 ], [ -5.124030966573817, 56.489156690807796 ] ], [ [ -5.124030966573817, 56.489156690807796 ], [ -5.124063, 56.489128 ], [ -5.123912977215193, 56.489221164834397 ] ], [ [ -5.123912977215193, 56.489221164834397 ], [ -5.123844, 56.489264 ], [ -5.123899, 56.489252 ], [ -5.123933654779973, 56.489226971547794 ] ], [ [ -5.123912977215193, 56.489221164834397 ], [ -5.123933654779973, 56.489226971547794 ] ], [ [ -4.950214582245431, 56.519088558746738 ], [ -4.950402, 56.519078 ], [ -4.9507, 56.518984 ], [ -4.950934, 56.518898 ], [ -4.951171, 56.518759 ], [ -4.951333, 56.518692 ], [ -4.951609, 56.518585 ], [ -4.951673, 56.518514 ], [ -4.951818, 56.518347 ], [ -4.9518, 56.518248 ], [ -4.951985, 56.518089 ], [ -4.952141, 56.518024 ], [ -4.952304, 56.517863 ], [ -4.952353, 56.517777 ], [ -4.952467, 56.517605 ], [ -4.952531, 56.517515 ], [ -4.952576, 56.517326 ], [ -4.952582, 56.517218 ], [ -4.952547, 56.517033 ], [ -4.952572, 56.516917 ], [ -4.952551, 56.516733 ], [ -4.952567, 56.516611 ], [ -4.952264, 56.516532 ], [ -4.952048, 56.516556 ], [ -4.952383, 56.516508 ], [ -4.952565, 56.51644 ], [ -4.952622, 56.516262 ], [ -4.952667, 56.516149 ], [ -4.952689, 56.515963 ], [ -4.952677, 56.515842 ], [ -4.952674, 56.515655 ], [ -4.952638, 56.515559 ], [ -4.952654, 56.515374 ], [ -4.952647, 56.515361 ], [ -4.952816, 56.515201 ], [ -4.952898, 56.515084 ], [ -4.952905, 56.514894 ], [ -4.952911, 56.514762 ], [ -4.953019, 56.51459 ], [ -4.953031, 56.514492 ], [ -4.953102, 56.514315 ], [ -4.953177, 56.514198 ], [ -4.953338, 56.514033 ], [ -4.95334, 56.513907 ], [ -4.95318, 56.513741 ], [ -4.953041, 56.513654 ], [ -4.952973, 56.513475 ], [ -4.953009, 56.513463 ], [ -4.953308, 56.513373 ], [ -4.953541, 56.513433 ], [ -4.953876, 56.513443 ], [ -4.95395, 56.513337 ], [ -4.954026, 56.513152 ], [ -4.95415, 56.51305 ], [ -4.954233, 56.512876 ], [ -4.954298, 56.512754 ], [ -4.95447, 56.512588 ], [ -4.954559, 56.512484 ], [ -4.95478, 56.512331 ], [ -4.954962, 56.512236 ], [ -4.95526, 56.512139 ], [ -4.955422, 56.512059 ], [ -4.955611, 56.511902 ], [ -4.955705, 56.511788 ], [ -4.955728, 56.511597 ], [ -4.95587, 56.511511 ], [ -4.956205, 56.511458 ], [ -4.95642, 56.51141 ], [ -4.956647, 56.51128 ], [ -4.956796, 56.511207 ], [ -4.956989, 56.511049 ], [ -4.95708, 56.510935 ], [ -4.957134, 56.510747 ], [ -4.957219, 56.510653 ], [ -4.957494, 56.510542 ], [ -4.957719, 56.510481 ], [ -4.957942, 56.510337 ], [ -4.958103, 56.510249 ], [ -4.958384, 56.510139 ], [ -4.958552, 56.510072 ], [ -4.958795, 56.509935 ], [ -4.958963, 56.509854 ], [ -4.959129, 56.509687 ], [ -4.959273, 56.509598 ], [ -4.959549, 56.509502 ], [ -4.959739, 56.509441 ], [ -4.960014, 56.509345 ], [ -4.96022, 56.509312 ], [ -4.960552, 56.509301 ], [ -4.960733, 56.509241 ], [ -4.960986, 56.509114 ], [ -4.961144, 56.509033 ], [ -4.961424, 56.508942 ], [ -4.961572, 56.508857 ], [ -4.96173, 56.508694 ], [ -4.961764, 56.508574 ], [ -4.961785, 56.508394 ], [ -4.961865, 56.508298 ], [ -4.962156, 56.5082 ], [ -4.962344, 56.50813 ], [ -4.962571, 56.508 ], [ -4.962771, 56.507898 ], [ -4.963077, 56.507811 ], [ -4.963302, 56.50777 ], [ -4.963599, 56.507675 ], [ -4.963756, 56.507586 ], [ -4.963972, 56.507448 ], [ -4.96407, 56.507354 ], [ -4.964299, 56.507213 ], [ -4.964495, 56.507141 ], [ -4.964759, 56.507035 ], [ -4.964942, 56.506956 ], [ -4.96521, 56.506843 ], [ -4.965359, 56.506766 ], [ -4.965562, 56.506621 ], [ -4.965698, 56.50656 ], [ -4.965955, 56.506447 ], [ -4.966182, 56.506407 ], [ -4.966479, 56.506329 ], [ -4.966549, 56.506241 ], [ -4.966868, 56.506188 ], [ -4.967029, 56.506148 ], [ -4.967221, 56.505993 ], [ -4.967382, 56.505957 ], [ -4.967707, 56.505922 ], [ -4.967884, 56.505879 ], [ -4.968168, 56.50579 ], [ -4.968315, 56.505717 ], [ -4.968646, 56.505704 ], [ -4.968779, 56.505619 ], [ -4.968942, 56.505454 ], [ -4.969025, 56.505365 ], [ -4.969191, 56.505199 ], [ -4.96931, 56.505122 ], [ -4.969564, 56.504996 ], [ -4.96976, 56.504965 ], [ -4.969993, 56.504835 ], [ -4.970134, 56.504782 ], [ -4.970425, 56.504693 ], [ -4.970588, 56.504663 ], [ -4.970871, 56.504558 ], [ -4.970923, 56.504532 ], [ -4.971175, 56.504414 ], [ -4.971286, 56.504355 ], [ -4.971524, 56.504228 ], [ -4.971671, 56.504188 ], [ -4.971972, 56.504101 ], [ -4.97218, 56.504052 ], [ -4.972504, 56.504011 ], [ -4.972677, 56.504 ], [ -4.972959, 56.50391 ], [ -4.973161, 56.503875 ], [ -4.973487, 56.50385 ], [ -4.973695, 56.503808 ], [ -4.973999, 56.503725 ], [ -4.974206, 56.503695 ], [ -4.974477, 56.503591 ], [ -4.974654, 56.503514 ], [ -4.974954, 56.503443 ], [ -4.97509, 56.503389 ], [ -4.975413, 56.503338 ], [ -4.975613, 56.503289 ], [ -4.975939, 56.50324 ], [ -4.976112, 56.503171 ], [ -4.976229, 56.503001 ], [ -4.976304, 56.502917 ], [ -4.976583, 56.502821 ], [ -4.976844, 56.502823 ], [ -4.977184, 56.502836 ], [ -4.97739, 56.502811 ], [ -4.977695, 56.502739 ], [ -4.977902, 56.50268 ], [ -4.97823, 56.502627 ], [ -4.97837, 56.50254 ], [ -4.978637, 56.50243 ], [ -4.978773, 56.502379 ], [ -4.979093, 56.502333 ], [ -4.979272, 56.50228 ], [ -4.979581, 56.502203 ], [ -4.979768, 56.502167 ], [ -4.980019, 56.502036 ], [ -4.980217, 56.501985 ], [ -4.980546, 56.501975 ], [ -4.980728, 56.501956 ], [ -4.981025, 56.501874 ], [ -4.981216, 56.501853 ], [ -4.981502, 56.50175 ], [ -4.981697, 56.50167 ], [ -4.981966, 56.50155 ], [ -4.982161, 56.501479 ], [ -4.982444, 56.501379 ], [ -4.982622, 56.501315 ], [ -4.982915, 56.501225 ], [ -4.983094, 56.501162 ], [ -4.983356, 56.50105 ], [ -4.983455, 56.50097 ], [ -4.983761, 56.500889 ], [ -4.983938, 56.500839 ], [ -4.984139, 56.500697 ], [ -4.984249, 56.5006 ], [ -4.984438, 56.500453 ], [ -4.984607, 56.500373 ], [ -4.984881, 56.500264 ], [ -4.985065, 56.500183 ], [ -4.985332, 56.500068 ], [ -4.985506, 56.499987 ], [ -4.985759, 56.499864 ], [ -4.985933, 56.499782 ], [ -4.986194, 56.499659 ], [ -4.986376, 56.499579 ], [ -4.98665, 56.499478 ], [ -4.986851, 56.499421 ], [ -4.987166, 56.499372 ], [ -4.987375, 56.499347 ], [ -4.987712, 56.499314 ], [ -4.987956, 56.499294 ], [ -4.988277, 56.499251 ], [ -4.988476, 56.499199 ], [ -4.988689, 56.499059 ], [ -4.988689, 56.49906 ], [ -4.988934, 56.49893 ], [ -4.989133, 56.498904 ], [ -4.989466, 56.498881 ], [ -4.989664, 56.498822 ], [ -4.989893, 56.498679 ], [ -4.989992, 56.498553 ], [ -4.990073, 56.498373 ], [ -4.990163, 56.498283 ], [ -4.990364, 56.498137 ], [ -4.990523, 56.498052 ], [ -4.990816, 56.497972 ], [ -4.99099, 56.49791 ], [ -4.991208, 56.497764 ], [ -4.991297, 56.49764 ], [ -4.99139, 56.497457 ], [ -4.991486, 56.497345 ], [ -4.991609, 56.497175 ], [ -4.991661, 56.497063 ], [ -4.991758, 56.496883 ], [ -4.99192, 56.496826 ], [ -4.992225, 56.496742 ], [ -4.992471, 56.496694 ], [ -4.992794, 56.496667 ], [ -4.993006, 56.496674 ], [ -4.993331, 56.496686 ], [ -4.993472, 56.496684 ], [ -4.993806, 56.496681 ], [ -4.99398, 56.496658 ], [ -4.994302, 56.496624 ], [ -4.994473, 56.496536 ], [ -4.994621, 56.49637 ], [ -4.994738, 56.496264 ], [ -4.99498, 56.496136 ], [ -4.995154, 56.496042 ], [ -4.995327, 56.495881 ], [ -4.995389, 56.495758 ], [ -4.995447, 56.495572 ], [ -4.995522, 56.495459 ], [ -4.995797, 56.495353 ], [ -4.995826, 56.49535 ], [ -4.996161, 56.495314 ], [ -4.996382, 56.495288 ], [ -4.996665, 56.495194 ], [ -4.996817, 56.495099 ], [ -4.997048, 56.494956 ], [ -4.997223, 56.49488 ], [ -4.997535, 56.494812 ], [ -4.997788, 56.494778 ], [ -4.998094, 56.494704 ], [ -4.998298, 56.494638 ], [ -4.998568, 56.494515 ], [ -4.998716, 56.494426 ], [ -4.998923, 56.494274 ], [ -4.999054, 56.494183 ], [ -4.99927, 56.49403 ], [ -4.999423, 56.493926 ], [ -4.999604, 56.493775 ], [ -4.999741, 56.493673 ], [ -4.999994, 56.493535 ], [ -4.999982, 56.493546 ], [ -5.000204, 56.493405 ], [ -5.000308, 56.493316 ], [ -5.000393, 56.493132 ], [ -5.000415, 56.493013 ], [ -5.000436, 56.49283 ], [ -5.000589, 56.492736 ], [ -5.000723, 56.49256 ], [ -5.000797, 56.492443 ], [ -5.000919, 56.492265 ], [ -5.001013, 56.49215 ], [ -5.001132, 56.491968 ], [ -5.001234, 56.491851 ], [ -5.001366, 56.491675 ], [ -5.001483, 56.491552 ], [ -5.001633, 56.491379 ], [ -5.001733, 56.491256 ], [ -5.001881, 56.491083 ], [ -5.001975, 56.490956 ], [ -5.001992, 56.49077 ], [ -5.002, 56.490647 ], [ -5.002024, 56.490464 ], [ -5.002078, 56.490352 ], [ -5.002161, 56.490174 ], [ -5.0022, 56.490072 ], [ -5.002249, 56.489891 ], [ -5.002312, 56.489766 ], [ -5.00241, 56.48959 ], [ -5.002466, 56.489468 ], [ -5.002585, 56.489293 ], [ -5.00268, 56.489173 ], [ -5.002841, 56.489007 ], [ -5.002978, 56.488901 ], [ -5.00316, 56.48874 ], [ -5.003315, 56.488627 ], [ -5.003497, 56.488475 ], [ -5.003623, 56.48836 ], [ -5.003771, 56.488197 ], [ -5.003891, 56.48809 ], [ -5.004109, 56.487942 ], [ -5.004299, 56.487843 ], [ -5.004528, 56.487707 ], [ -5.004652, 56.487613 ], [ -5.004863, 56.487464 ], [ -5.005002, 56.487364 ], [ -5.005269, 56.487244 ], [ -5.005457, 56.487177 ], [ -5.005749, 56.48709 ], [ -5.005955, 56.487029 ], [ -5.006239, 56.48693 ], [ -5.006231, 56.486889 ], [ -5.006569, 56.486852 ], [ -5.00679, 56.486809 ], [ -5.007084, 56.486724 ], [ -5.007285, 56.486665 ], [ -5.007546, 56.486555 ], [ -5.007697, 56.486486 ], [ -5.007931, 56.486355 ], [ -5.008062, 56.486263 ], [ -5.008266, 56.486113 ], [ -5.008359, 56.486005 ], [ -5.008488, 56.485838 ], [ -5.008619, 56.48575 ], [ -5.008825, 56.48561 ], [ -5.008905, 56.4855 ], [ -5.00903, 56.485334 ], [ -5.009141, 56.48522 ], [ -5.009269, 56.485054 ], [ -5.009397, 56.484941 ], [ -5.009604, 56.4848 ], [ -5.009623, 56.48478 ], [ -5.009896, 56.484675 ], [ -5.010046, 56.484604 ], [ -5.010314, 56.484486 ], [ -5.010444, 56.484392 ], [ -5.010652, 56.484243 ], [ -5.010815, 56.484139 ], [ -5.011009, 56.48399 ], [ -5.011092, 56.483865 ], [ -5.011203, 56.483692 ], [ -5.011313, 56.483558 ], [ -5.011539, 56.483425 ], [ -5.011648, 56.483335 ], [ -5.011817, 56.483176 ], [ -5.011928, 56.483064 ], [ -5.012097, 56.482909 ], [ -5.012213, 56.482813 ], [ -5.012456, 56.482681 ], [ -5.012645, 56.482615 ], [ -5.012909, 56.4825 ], [ -5.013046, 56.482399 ], [ -5.013224, 56.482235 ], [ -5.013314, 56.48213 ], [ -5.013461, 56.48196 ], [ -5.013572, 56.48185 ], [ -5.013757, 56.481693 ], [ -5.013955, 56.481605 ], [ -5.014238, 56.481513 ], [ -5.014423, 56.481472 ], [ -5.014749, 56.481432 ], [ -5.01495, 56.481421 ], [ -5.01527, 56.481386 ], [ -5.015528, 56.481355 ], [ -5.015845, 56.481311 ], [ -5.016053, 56.481279 ], [ -5.01638, 56.481231 ], [ -5.016558, 56.48121 ], [ -5.01688, 56.481171 ], [ -5.017112, 56.481131 ], [ -5.017443, 56.481091 ], [ -5.01768, 56.481048 ], [ -5.018002, 56.480983 ], [ -5.018193, 56.480925 ], [ -5.018435, 56.480805 ], [ -5.01861, 56.480719 ], [ -5.018865, 56.480598 ], [ -5.019069, 56.480516 ], [ -5.019377, 56.480447 ], [ -5.019588, 56.480421 ], [ -5.019906, 56.480366 ], [ -5.020124, 56.480332 ], [ -5.020436, 56.48027 ], [ -5.020641, 56.480229 ], [ -5.020974, 56.48018 ], [ -5.021177, 56.480144 ], [ -5.021513, 56.480102 ], [ -5.021731, 56.480083 ], [ -5.022061, 56.480059 ], [ -5.022295, 56.480028 ], [ -5.022609, 56.479963 ], [ -5.022821, 56.479896 ], [ -5.023079, 56.479783 ], [ -5.023223, 56.479685 ], [ -5.023419, 56.479531 ], [ -5.023516, 56.479433 ], [ -5.023732, 56.47929 ], [ -5.023885, 56.47919 ], [ -5.024127, 56.479053 ], [ -5.024261, 56.478946 ], [ -5.02453, 56.478845 ], [ -5.024725, 56.478812 ], [ -5.025057, 56.478779 ], [ -5.025165, 56.478758 ], [ -5.025489, 56.478736 ], [ -5.025681, 56.478712 ], [ -5.026007, 56.478664 ], [ -5.026242, 56.478625 ], [ -5.026557, 56.478575 ], [ -5.026749, 56.478543 ], [ -5.027075, 56.478503 ], [ -5.027279, 56.478484 ], [ -5.027623, 56.478473 ], [ -5.027841, 56.478479 ], [ -5.02817, 56.478473 ], [ -5.028376, 56.478424 ], [ -5.028629, 56.478296 ], [ -5.02879, 56.478205 ], [ -5.029009, 56.478069 ], [ -5.029068, 56.478025 ], [ -5.029304, 56.477891 ], [ -5.029519, 56.477823 ], [ -5.029812, 56.477743 ], [ -5.030012, 56.477705 ], [ -5.03031, 56.477618 ], [ -5.030542, 56.477575 ], [ -5.030877, 56.477571 ], [ -5.031085, 56.477531 ], [ -5.031379, 56.47744 ], [ -5.03162, 56.477398 ], [ -5.031946, 56.477358 ], [ -5.032169, 56.477343 ], [ -5.032492, 56.477301 ], [ -5.032725, 56.477261 ], [ -5.03293, 56.47711 ], [ -5.033035, 56.477007 ], [ -5.032893, 56.477172 ], [ -5.032961, 56.477189 ], [ -5.033147, 56.47703 ], [ -5.033264, 56.47695 ], [ -5.033544, 56.476842 ], [ -5.033753, 56.476816 ], [ -5.034084, 56.476809 ], [ -5.034302, 56.476773 ], [ -5.034616, 56.47672 ], [ -5.034787, 56.476644 ], [ -5.03511, 56.476612 ], [ -5.035326, 56.476591 ], [ -5.03565, 56.476561 ], [ -5.035859, 56.476545 ], [ -5.03619, 56.4765 ], [ -5.036399, 56.476472 ], [ -5.036742, 56.47649 ], [ -5.03692, 56.476509 ], [ -5.037238, 56.476558 ], [ -5.037385, 56.47657 ], [ -5.037577, 56.476726 ], [ -5.03776, 56.476753 ], [ -5.038075, 56.476707 ], [ -5.038249, 56.476649 ], [ -5.038571, 56.476602 ], [ -5.038717, 56.476574 ], [ -5.038871, 56.476416 ], [ -5.039067, 56.476376 ], [ -5.039402, 56.476399 ], [ -5.039488, 56.476396 ], [ -5.039802, 56.476451 ], [ -5.039982, 56.476461 ], [ -5.040307, 56.476446 ], [ -5.040486, 56.476468 ], [ -5.040789, 56.476376 ], [ -5.041011, 56.4763 ], [ -5.041333, 56.476334 ], [ -5.041476, 56.476354 ], [ -5.041805, 56.476401 ], [ -5.042028, 56.476452 ], [ -5.042322, 56.476549 ], [ -5.042445, 56.476599 ], [ -5.042687, 56.476734 ], [ -5.042809, 56.476808 ], [ -5.043106, 56.476898 ], [ -5.043291, 56.476945 ], [ -5.043621, 56.476927 ], [ -5.043812, 56.476874 ], [ -5.044127, 56.476813 ], [ -5.044235, 56.476797 ], [ -5.044453, 56.47666 ], [ -5.044548, 56.47656 ], [ -5.044537, 56.476374 ], [ -5.04452, 56.47629 ], [ -5.044678, 56.476131 ], [ -5.044835, 56.476082 ], [ -5.045152, 56.476021 ], [ -5.045355, 56.47603 ], [ -5.045682, 56.476013 ], [ -5.045892, 56.476018 ], [ -5.046228, 56.476027 ], [ -5.046388, 56.476019 ], [ -5.046708822306251, 56.475984449905475 ], [ -5.047011, 56.475904 ], [ -5.047192, 56.47585 ], [ -5.047515, 56.47582 ], [ -5.047735, 56.4758 ], [ -5.048059, 56.475766 ], [ -5.048226, 56.475736 ], [ -5.048561, 56.475729 ], [ -5.048753, 56.475748 ], [ -5.049078, 56.475799 ], [ -5.049105, 56.475832 ], [ -5.049391, 56.47592 ], [ -5.049559, 56.47596 ], [ -5.049895, 56.475991 ], [ -5.050092, 56.476012 ], [ -5.050405, 56.476068 ], [ -5.050567, 56.476118 ], [ -5.050884, 56.476183 ], [ -5.051072, 56.476195 ], [ -5.05138, 56.47627 ], [ -5.051562, 56.476343 ], [ -5.05186, 56.476417 ], [ -5.05204, 56.476466 ], [ -5.052331, 56.476551 ], [ -5.052523, 56.476583 ], [ -5.052851, 56.476636 ], [ -5.053037, 56.476668 ], [ -5.053361, 56.476701 ], [ -5.05357, 56.476742 ], [ -5.053874, 56.476821 ], [ -5.054073, 56.476874 ], [ -5.054385, 56.476949 ], [ -5.054602, 56.476995 ], [ -5.054908, 56.477084 ], [ -5.055194, 56.477106 ], [ -5.055494, 56.477198 ], [ -5.055541, 56.47719 ], [ -5.055878, 56.477153 ], [ -5.056066, 56.477179 ], [ -5.056395, 56.477228 ], [ -5.056612, 56.477247 ], [ -5.056943, 56.477213 ], [ -5.057132, 56.477212 ], [ -5.057455, 56.477171 ], [ -5.057637, 56.477184 ], [ -5.057947, 56.47726 ], [ -5.058132, 56.477321 ], [ -5.058409, 56.477425 ], [ -5.058568, 56.477514 ], [ -5.05876, 56.477671 ], [ -5.058871, 56.477773 ], [ -5.058909, 56.477957 ], [ -5.05903, 56.478074 ], [ -5.059148, 56.478245 ], [ -5.059241, 56.478343 ], [ -5.059363, 56.478518 ], [ -5.059415, 56.478633 ], [ -5.059536, 56.478809 ], [ -5.059572, 56.478938 ], [ -5.059644, 56.47913 ], [ -5.059695, 56.479249 ], [ -5.059771, 56.479434 ], [ -5.059785, 56.479566 ], [ -5.059888, 56.479746 ], [ -5.060011, 56.479848 ], [ -5.060188, 56.480001 ], [ -5.060305, 56.4801 ], [ -5.060443, 56.480268 ], [ -5.060512, 56.480391 ], [ -5.060576, 56.480569 ], [ -5.060621, 56.480691 ], [ -5.060765, 56.480858 ], [ -5.060916, 56.480941 ], [ -5.061078, 56.481105 ], [ -5.061072, 56.481174 ], [ -5.061123, 56.481352 ], [ -5.061288, 56.481386 ], [ -5.061607, 56.481443 ], [ -5.061797, 56.481487 ], [ -5.062134, 56.481523 ], [ -5.062385, 56.481543 ], [ -5.062711, 56.48157 ], [ -5.062941, 56.481597 ], [ -5.063276, 56.481634 ], [ -5.06349, 56.481657 ], [ -5.063815, 56.481692 ], [ -5.064023, 56.48175 ], [ -5.064298, 56.481863 ], [ -5.064488, 56.481941 ], [ -5.06477, 56.482047 ], [ -5.064982, 56.482095 ], [ -5.065315, 56.482146 ], [ -5.065545, 56.482189 ], [ -5.065879, 56.482205 ], [ -5.066101, 56.48216 ], [ -5.066336, 56.482034 ], [ -5.066511, 56.481963 ], [ -5.066819, 56.481905 ], [ -5.066986, 56.481867 ], [ -5.067304, 56.481933 ], [ -5.067543, 56.481968 ], [ -5.067875, 56.482016 ], [ -5.068083, 56.48204 ], [ -5.068415, 56.482076 ], [ -5.06862, 56.482119 ], [ -5.068881, 56.482228 ], [ -5.069069, 56.48231 ], [ -5.069391, 56.482364 ], [ -5.069561, 56.482419 ], [ -5.070178, 56.482384 ], [ -5.07032, 56.482362 ], [ -5.070667, 56.482368 ], [ -5.070881, 56.48238 ], [ -5.071216, 56.482388 ], [ -5.071398, 56.482397 ], [ -5.071727, 56.482406 ], [ -5.071948, 56.482421 ], [ -5.072271, 56.482442 ], [ -5.072448, 56.482432 ], [ -5.072782, 56.482454 ], [ -5.073007, 56.482461 ], [ -5.073341, 56.482478 ], [ -5.073546, 56.482481 ], [ -5.073879, 56.482494 ], [ -5.07415, 56.482488 ], [ -5.074475, 56.482426 ], [ -5.074665, 56.482382 ], [ -5.075001, 56.482356 ], [ -5.075216, 56.482368 ], [ -5.075562, 56.482372 ], [ -5.075796, 56.482373 ], [ -5.076125, 56.4824 ], [ -5.076333, 56.482387 ], [ -5.076623, 56.482296 ], [ -5.07684, 56.482269 ], [ -5.077178, 56.482304 ], [ -5.077295, 56.482302 ], [ -5.077597, 56.482383 ], [ -5.077785, 56.482402 ], [ -5.078124, 56.482391 ], [ -5.078318, 56.482374 ], [ -5.078651, 56.482343 ], [ -5.078872, 56.482316 ], [ -5.079207, 56.482278 ], [ -5.079423, 56.482295 ], [ -5.079745, 56.482351 ], [ -5.079959, 56.482389 ], [ -5.080291, 56.482426 ], [ -5.08051, 56.48245 ], [ -5.080837, 56.482483 ], [ -5.081044, 56.482498 ], [ -5.081363, 56.482543 ], [ -5.081563, 56.48258 ], [ -5.081877, 56.482655 ], [ -5.082083, 56.482729 ], [ -5.082365, 56.482832 ], [ -5.082545, 56.482892 ], [ -5.082856, 56.482959 ], [ -5.083064, 56.482999 ], [ -5.083389, 56.483041 ], [ -5.083579, 56.483079 ], [ -5.083886, 56.483165 ], [ -5.083948, 56.483144 ], [ -5.084182, 56.483279 ], [ -5.084364, 56.483351 ], [ -5.08462, 56.483462 ], [ -5.084826, 56.483518 ], [ -5.085142, 56.48359 ], [ -5.085366, 56.483626 ], [ -5.085687, 56.483692 ], [ -5.085914, 56.483736 ], [ -5.086235, 56.48377 ], [ -5.086449, 56.483767 ], [ -5.086782, 56.483731 ], [ -5.087005, 56.483703 ], [ -5.087336, 56.483654 ], [ -5.087553, 56.483612 ], [ -5.087895, 56.483594 ], [ -5.088105, 56.483601 ], [ -5.088434, 56.483587 ], [ -5.088578, 56.483534 ], [ -5.0889, 56.48349 ], [ -5.089119, 56.483468 ], [ -5.089432, 56.483544 ], [ -5.089619, 56.483612 ], [ -5.089954, 56.483655 ], [ -5.09016, 56.483631 ], [ -5.09048, 56.483587 ], [ -5.090697, 56.483555 ], [ -5.091015, 56.483487 ], [ -5.091206, 56.483482 ], [ -5.091528, 56.483539 ], [ -5.091748, 56.483578 ], [ -5.092074, 56.483604 ], [ -5.092301, 56.483628 ], [ -5.092644, 56.483644 ], [ -5.092862, 56.483649 ], [ -5.093193, 56.483652 ], [ -5.093423, 56.483679 ], [ -5.093753, 56.48374 ], [ -5.093961, 56.48378 ], [ -5.094284, 56.483812 ], [ -5.09451, 56.483836 ], [ -5.09484, 56.483847 ], [ -5.095, 56.483879 ], [ -5.095241, 56.484008 ], [ -5.095429, 56.484026 ], [ -5.095758, 56.484068 ], [ -5.095958, 56.484103 ], [ -5.096265, 56.484165 ], [ -5.096477, 56.484205 ], [ -5.09679, 56.484277 ], [ -5.097007, 56.484319 ], [ -5.097334, 56.484373 ], [ -5.097536, 56.484428 ], [ -5.097867, 56.484475 ], [ -5.098082, 56.484489 ], [ -5.098406, 56.48452 ], [ -5.098613, 56.48455 ], [ -5.098946, 56.484591 ], [ -5.099142, 56.484603 ], [ -5.099467, 56.484628 ], [ -5.099685, 56.484647 ], [ -5.10001, 56.484664 ], [ -5.100251, 56.484661 ], [ -5.100579, 56.484621 ], [ -5.100793, 56.484597 ], [ -5.101132, 56.484591 ], [ -5.101357, 56.484624 ], [ -5.101674, 56.484694 ], [ -5.101821, 56.484748 ], [ -5.102089, 56.484853 ], [ -5.102246, 56.484916 ], [ -5.102403, 56.485085 ], [ -5.102569, 56.485148 ], [ -5.102861, 56.485238 ], [ -5.103008, 56.485318 ], [ -5.103251, 56.485452 ], [ -5.103387, 56.485541 ], [ -5.103616, 56.485674 ], [ -5.103826, 56.485696 ], [ -5.104148, 56.485625 ], [ -5.104371, 56.485558 ], [ -5.104698, 56.485536 ], [ -5.10491, 56.485507 ], [ -5.10523, 56.485462 ], [ -5.105452, 56.485421 ], [ -5.105775, 56.485382 ], [ -5.106006, 56.485384 ], [ -5.106313, 56.485472 ], [ -5.106457, 56.485541 ], [ -5.106756, 56.485618 ], [ -5.106977, 56.485646 ], [ -5.107209, 56.485782 ], [ -5.107284, 56.485879 ], [ -5.107538, 56.486003 ], [ -5.107737, 56.486067 ], [ -5.108038, 56.486144 ], [ -5.108176, 56.486192 ], [ -5.10849, 56.486242 ], [ -5.108501, 56.486232 ], [ -5.108825, 56.486285 ], [ -5.109052, 56.486334 ], [ -5.109365, 56.486411 ], [ -5.109529, 56.486464 ], [ -5.109745, 56.486605 ], [ -5.109794, 56.486664 ], [ -5.109943, 56.486825 ], [ -5.110055, 56.486929 ], [ -5.110309, 56.487059 ], [ -5.110487, 56.487161 ], [ -5.110717, 56.487302 ], [ -5.110934, 56.487358 ], [ -5.111274, 56.487345 ], [ -5.111503, 56.487339 ], [ -5.111841, 56.487335 ], [ -5.112079, 56.487354 ], [ -5.112403, 56.487374 ], [ -5.112642, 56.487373 ], [ -5.112965, 56.487329 ], [ -5.113153, 56.4873 ], [ -5.113472, 56.487347 ], [ -5.113648, 56.487417 ], [ -5.113948, 56.487504 ], [ -5.114099, 56.487596 ], [ -5.114281, 56.487754 ], [ -5.114412, 56.487863 ], [ -5.114623, 56.488015 ], [ -5.114782, 56.488112 ], [ -5.115041, 56.488224 ], [ -5.115202, 56.488292 ], [ -5.115427, 56.488427 ], [ -5.115529, 56.488551 ], [ -5.115645, 56.488726 ], [ -5.1158, 56.488821 ], [ -5.11611, 56.488877 ], [ -5.116183, 56.488936 ], [ -5.116493, 56.489018 ], [ -5.116653, 56.489084 ], [ -5.116879, 56.48923 ], [ -5.116994, 56.489321 ], [ -5.117162, 56.489484 ], [ -5.117252, 56.489595 ], [ -5.117558, 56.489669 ], [ -5.117789, 56.48966 ], [ -5.118122, 56.489705 ], [ -5.118191, 56.489711 ], [ -5.11851, 56.489759 ], [ -5.118705, 56.489811 ], [ -5.119034, 56.489818 ], [ -5.119231, 56.489837 ], [ -5.119548, 56.489879 ], [ -5.119671, 56.489939 ], [ -5.119902, 56.490074 ], [ -5.120092, 56.490135 ], [ -5.120397, 56.490215 ], [ -5.120622, 56.49026 ], [ -5.120914, 56.490363 ], [ -5.121044, 56.490281 ], [ -5.121052, 56.490094 ], [ -5.121035, 56.489987 ], [ -5.121089, 56.4898 ], [ -5.12113, 56.489797 ], [ -5.121193, 56.489617 ], [ -5.12123, 56.489506 ], [ -5.121559, 56.48946 ], [ -5.121769, 56.489504 ], [ -5.122105, 56.489527 ], [ -5.122278, 56.489542 ], [ -5.122606, 56.489539 ], [ -5.122859, 56.489517 ], [ -5.123165, 56.489429 ], [ -5.123275, 56.489353 ], [ -5.123459, 56.489197 ], [ -5.123656, 56.489149 ], [ -5.123912977215193, 56.489221164834397 ] ], [ [ -4.950214582245431, 56.519088558746738 ], [ -4.950263, 56.519036 ], [ -4.950254, 56.519018 ], [ -4.949927, 56.519026 ], [ -4.950047, 56.519098 ], [ -4.950214582245431, 56.519088558746738 ] ], [ [ -4.765599193249299, 56.517637621210547 ], [ -4.76581, 56.517721 ], [ -4.76602, 56.517734 ], [ -4.766358, 56.517758 ], [ -4.766572, 56.517785 ], [ -4.766929, 56.517795 ], [ -4.767183, 56.517791 ], [ -4.767515, 56.517828 ], [ -4.767725, 56.517854 ], [ -4.768064, 56.517863 ], [ -4.768269, 56.517883 ], [ -4.768559, 56.517965 ], [ -4.768752, 56.517932 ], [ -4.769094, 56.517918 ], [ -4.769269, 56.517901 ], [ -4.769601, 56.517867 ], [ -4.769822, 56.517846 ], [ -4.770149, 56.517863 ], [ -4.770352, 56.517897 ], [ -4.770664, 56.517958 ], [ -4.770813, 56.518012 ], [ -4.771095, 56.518104 ], [ -4.771228, 56.518147 ], [ -4.771445, 56.518286 ], [ -4.771518, 56.518367 ], [ -4.771702, 56.518517 ], [ -4.771844, 56.518605 ], [ -4.772094, 56.518721 ], [ -4.77225, 56.518809 ], [ -4.772508, 56.518932 ], [ -4.772616, 56.519007 ], [ -4.772923, 56.519095 ], [ -4.773039, 56.519139 ], [ -4.773351, 56.519189 ], [ -4.773361, 56.51929 ], [ -4.7736, 56.519423 ], [ -4.773745, 56.519485 ], [ -4.773955, 56.519632 ], [ -4.774011, 56.519714 ], [ -4.774173, 56.519878 ], [ -4.77417, 56.519914 ], [ -4.774389, 56.520048 ], [ -4.774464, 56.52016 ], [ -4.774624, 56.520317 ], [ -4.774724, 56.520408 ], [ -4.774904, 56.520568 ], [ -4.775032, 56.520655 ], [ -4.77517, 56.520828 ], [ -4.775283, 56.52093 ], [ -4.775438, 56.521099 ], [ -4.775522, 56.521195 ], [ -4.77568, 56.521361 ], [ -4.775765, 56.521435 ], [ -4.775933, 56.521593 ], [ -4.776054, 56.521657 ], [ -4.776212, 56.52182 ], [ -4.776239, 56.521918 ], [ -4.776295, 56.522102 ], [ -4.77634, 56.522204 ], [ -4.776385, 56.522393 ], [ -4.776415, 56.522502 ], [ -4.7765, 56.522682 ], [ -4.77662, 56.522769 ], [ -4.776886, 56.522881 ], [ -4.777085, 56.522906 ], [ -4.777366, 56.523005 ], [ -4.777434, 56.52309 ], [ -4.777592, 56.523248 ], [ -4.777682, 56.523325 ], [ -4.777919, 56.52346 ], [ -4.778054, 56.523523 ], [ -4.77827, 56.523663 ], [ -4.778389, 56.523736 ], [ -4.778603, 56.523874 ], [ -4.778657, 56.523957 ], [ -4.778705, 56.52414 ], [ -4.778739, 56.524227 ], [ -4.778873, 56.524396 ], [ -4.778949, 56.524483 ], [ -4.779031, 56.524658 ], [ -4.779116, 56.524727 ], [ -4.779271, 56.524893 ], [ -4.77932, 56.524975 ], [ -4.779491, 56.525136 ], [ -4.779596, 56.525235 ], [ -4.779883, 56.525332 ], [ -4.780058, 56.525382 ], [ -4.78035, 56.525477 ], [ -4.78047, 56.525503 ], [ -4.780761, 56.525594 ], [ -4.780892, 56.525638 ], [ -4.781153, 56.525748 ], [ -4.781209, 56.525786 ], [ -4.781412, 56.525938 ], [ -4.781527, 56.526015 ], [ -4.781793, 56.526124 ], [ -4.781949, 56.526087 ], [ -4.78208, 56.525921 ], [ -4.782169, 56.52586 ], [ -4.782357, 56.525707 ], [ -4.782458, 56.525644 ], [ -4.782674, 56.525508 ], [ -4.782766, 56.525457 ], [ -4.782965, 56.525307 ], [ -4.78305, 56.525239 ], [ -4.783201, 56.525072 ], [ -4.783218, 56.524972 ], [ -4.783237, 56.524785 ], [ -4.783236, 56.524686 ], [ -4.783336, 56.524507 ], [ -4.783471, 56.524435 ], [ -4.783732, 56.524548 ], [ -4.78379, 56.524642 ], [ -4.783865, 56.524824 ], [ -4.78391, 56.524905 ], [ -4.784011, 56.525083 ], [ -4.784109, 56.525177 ], [ -4.784361, 56.525296 ], [ -4.784514, 56.525376 ], [ -4.784665, 56.525544 ], [ -4.784675, 56.525656 ], [ -4.784709, 56.525838 ], [ -4.784746, 56.525924 ], [ -4.784791, 56.526105 ], [ -4.784827, 56.526185 ], [ -4.784866, 56.526367 ], [ -4.784895, 56.526471 ], [ -4.785031, 56.526641 ], [ -4.785041, 56.52666 ], [ -4.785265, 56.526802 ], [ -4.785396, 56.526888 ], [ -4.785535, 56.527055 ], [ -4.785651, 56.527153 ], [ -4.785764, 56.527331 ], [ -4.785815, 56.527425 ], [ -4.785953, 56.527589 ], [ -4.786004, 56.527699 ], [ -4.786137, 56.527865 ], [ -4.786201, 56.527965 ], [ -4.786319, 56.528142 ], [ -4.786329, 56.528169 ], [ -4.786444, 56.528346 ], [ -4.786435, 56.528447 ], [ -4.786437, 56.528631 ], [ -4.786377, 56.528736 ], [ -4.78635, 56.528921 ], [ -4.786399, 56.529024 ], [ -4.786499, 56.529199 ], [ -4.786647, 56.529257 ], [ -4.78693, 56.529354 ], [ -4.787075, 56.52943 ], [ -4.787305, 56.529563 ], [ -4.787437, 56.529652 ], [ -4.787605, 56.529812 ], [ -4.787708, 56.52989 ], [ -4.78796, 56.530005 ], [ -4.788035, 56.530078 ], [ -4.788212, 56.53023 ], [ -4.788287, 56.530273 ], [ -4.788618, 56.53026 ], [ -4.788823, 56.530236 ], [ -4.789124, 56.530166 ], [ -4.789311, 56.530116 ], [ -4.78964, 56.530122 ], [ -4.789852, 56.53015 ], [ -4.790109, 56.530272 ], [ -4.790251, 56.530326 ], [ -4.790498, 56.530452 ], [ -4.790619, 56.53052 ], [ -4.790786, 56.530677 ], [ -4.790899, 56.530734 ], [ -4.791138, 56.530872 ], [ -4.79121, 56.530909 ], [ -4.791393, 56.531061 ], [ -4.791499, 56.531135 ], [ -4.791707, 56.531274 ], [ -4.791838, 56.531365 ], [ -4.792118, 56.531473 ], [ -4.792295, 56.531506 ], [ -4.792611, 56.53157 ], [ -4.792661, 56.531594 ], [ -4.792967, 56.531678 ], [ -4.793148, 56.531714 ], [ -4.793467, 56.531764 ], [ -4.793651, 56.531745 ], [ -4.793846, 56.531889 ], [ -4.793843, 56.531987 ], [ -4.793829, 56.532175 ], [ -4.79391, 56.532252 ], [ -4.794245, 56.532243 ], [ -4.794413, 56.532205 ], [ -4.794709, 56.532121 ], [ -4.794827, 56.53209 ], [ -4.795046, 56.532233 ], [ -4.795101, 56.532324 ], [ -4.795083, 56.532507 ], [ -4.795099, 56.532601 ], [ -4.795214, 56.532773 ], [ -4.795347, 56.532826 ], [ -4.795679, 56.532795 ], [ -4.795752, 56.532791 ], [ -4.79609, 56.532762 ], [ -4.796244, 56.532733 ], [ -4.79655, 56.532666 ], [ -4.796705, 56.53263 ], [ -4.797006, 56.53254 ], [ -4.797162, 56.532546 ], [ -4.797231, 56.532722 ], [ -4.797237, 56.532802 ], [ -4.797508, 56.532911 ], [ -4.797651, 56.532912 ], [ -4.797958, 56.53285 ], [ -4.79809, 56.532829 ], [ -4.798388, 56.532756 ], [ -4.798551, 56.532717 ], [ -4.79885, 56.532629 ], [ -4.798993, 56.532581 ], [ -4.799329, 56.532563 ], [ -4.79948, 56.532565 ], [ -4.799758, 56.532461 ], [ -4.799921, 56.532435 ], [ -4.800252, 56.53243 ], [ -4.800351, 56.532356 ], [ -4.800617, 56.532242 ], [ -4.800766, 56.532181 ], [ -4.801041, 56.532072 ], [ -4.801191, 56.532022 ], [ -4.801493, 56.531954 ], [ -4.801684, 56.531925 ], [ -4.80202, 56.531896 ], [ -4.802225, 56.531879 ], [ -4.802544, 56.531833 ], [ -4.802749, 56.531812 ], [ -4.803083, 56.531782 ], [ -4.803261, 56.531756 ], [ -4.803584, 56.531712 ], [ -4.803743, 56.53165 ], [ -4.804066, 56.531625 ], [ -4.804252, 56.531638 ], [ -4.80456, 56.531708 ], [ -4.804669, 56.531776 ], [ -4.804907, 56.531911 ], [ -4.805037, 56.531986 ], [ -4.80528, 56.53212 ], [ -4.805396, 56.532195 ], [ -4.805607, 56.532333 ], [ -4.805731, 56.532407 ], [ -4.805933, 56.532554 ], [ -4.806018, 56.532599 ], [ -4.80629, 56.532712 ], [ -4.806457, 56.532767 ], [ -4.806742, 56.532858 ], [ -4.806944, 56.532831 ], [ -4.807257, 56.532779 ], [ -4.80748, 56.532748 ], [ -4.807796, 56.532695 ], [ -4.807909, 56.532727 ], [ -4.808136, 56.532597 ], [ -4.808312, 56.532554 ], [ -4.808623, 56.532484 ], [ -4.808794, 56.532439 ], [ -4.809107, 56.53236 ], [ -4.809281, 56.532307 ], [ -4.809586, 56.532224 ], [ -4.809796, 56.532179 ], [ -4.810101, 56.5321 ], [ -4.810284, 56.532059 ], [ -4.810612, 56.532008 ], [ -4.810805, 56.531985 ], [ -4.811147, 56.531973 ], [ -4.811368, 56.531967 ], [ -4.811714, 56.531969 ], [ -4.811937, 56.531971 ], [ -4.812275, 56.531975 ], [ -4.812497, 56.531988 ], [ -4.812825, 56.532016 ], [ -4.813024, 56.532067 ], [ -4.813262, 56.53219 ], [ -4.813376, 56.532278 ], [ -4.813524, 56.532442 ], [ -4.813541, 56.532565 ], [ -4.81347, 56.532741 ], [ -4.813427, 56.532848 ], [ -4.813343, 56.533026 ], [ -4.813315, 56.533083 ], [ -4.813172, 56.533258 ], [ -4.813124, 56.533357 ], [ -4.813021, 56.533541 ], [ -4.812957, 56.533658 ], [ -4.812848, 56.533836 ], [ -4.81278, 56.53395 ], [ -4.812714, 56.534132 ], [ -4.812663, 56.534247 ], [ -4.812636, 56.534436 ], [ -4.812618, 56.53456 ], [ -4.81261, 56.534746 ], [ -4.812626, 56.534878 ], [ -4.812675, 56.535067 ], [ -4.812762, 56.535181 ], [ -4.812908, 56.535353 ], [ -4.813008, 56.535468 ], [ -4.813159, 56.535631 ], [ -4.813156, 56.535645 ], [ -4.813311, 56.535803 ], [ -4.81341, 56.535906 ], [ -4.813516, 56.536086 ], [ -4.813559, 56.536209 ], [ -4.813579, 56.536398 ], [ -4.813541, 56.536519 ], [ -4.813483, 56.536696 ], [ -4.813411, 56.536816 ], [ -4.813264, 56.536978 ], [ -4.813174, 56.537076 ], [ -4.813015, 56.53724 ], [ -4.812901, 56.537349 ], [ -4.812785, 56.537524 ], [ -4.81276, 56.537644 ], [ -4.812799, 56.537826 ], [ -4.812839, 56.537956 ], [ -4.812906, 56.538133 ], [ -4.812957, 56.538249 ], [ -4.813045, 56.538422 ], [ -4.813093, 56.538538 ], [ -4.813137, 56.538723 ], [ -4.813195, 56.538846 ], [ -4.813341, 56.539013 ], [ -4.813418, 56.539138 ], [ -4.813506, 56.539319 ], [ -4.813652, 56.539326 ], [ -4.813644, 56.53951 ], [ -4.813735, 56.539614 ], [ -4.813764, 56.539795 ], [ -4.81382, 56.539919 ], [ -4.81391, 56.540095 ], [ -4.813944, 56.540219 ], [ -4.813942, 56.540407 ], [ -4.81391, 56.540549 ], [ -4.813835, 56.540726 ], [ -4.813846, 56.540749 ], [ -4.814164, 56.540698 ], [ -4.814371, 56.540653 ], [ -4.8147, 56.54059 ], [ -4.814766, 56.540585 ], [ -4.815051, 56.540489 ], [ -4.815299, 56.54044 ], [ -4.815609, 56.540383 ], [ -4.815801, 56.540346 ], [ -4.816134, 56.540302 ], [ -4.816365, 56.540288 ], [ -4.816694, 56.540301 ], [ -4.816882, 56.540277 ], [ -4.817199, 56.540231 ], [ -4.81739, 56.540181 ], [ -4.817638, 56.540048 ], [ -4.817776, 56.539957 ], [ -4.818026, 56.539823 ], [ -4.818191, 56.539742 ], [ -4.818441, 56.539623 ], [ -4.818629, 56.539547 ], [ -4.818905, 56.539436 ], [ -4.819105, 56.539377 ], [ -4.819434, 56.539335 ], [ -4.819645, 56.539332 ], [ -4.819976, 56.539346 ], [ -4.82021, 56.539341 ], [ -4.820512, 56.53926 ], [ -4.820703, 56.539189 ], [ -4.820984, 56.539081 ], [ -4.821205, 56.539056 ], [ -4.82154, 56.53908 ], [ -4.821681, 56.539164 ], [ -4.821876, 56.539319 ], [ -4.822025, 56.539409 ], [ -4.822292, 56.539522 ], [ -4.82242, 56.539619 ], [ -4.822523, 56.539796 ], [ -4.822582, 56.53991 ], [ -4.822733, 56.540078 ], [ -4.822837, 56.540191 ], [ -4.822995, 56.54035 ], [ -4.823113, 56.540452 ], [ -4.823335, 56.540593 ], [ -4.823485, 56.54069 ], [ -4.823676, 56.540849 ], [ -4.823759, 56.540967 ], [ -4.82391, 56.541133 ], [ -4.824024, 56.541232 ], [ -4.824177, 56.541392 ], [ -4.824268, 56.541456 ], [ -4.82446, 56.541611 ], [ -4.824646, 56.541675 ], [ -4.824948, 56.541752 ], [ -4.825192, 56.54177 ], [ -4.825516, 56.541807 ], [ -4.825726, 56.541798 ], [ -4.826054, 56.541789 ], [ -4.826278, 56.541791 ], [ -4.826617, 56.541782 ], [ -4.826819, 56.541771 ], [ -4.827144, 56.541776 ], [ -4.827376, 56.541777 ], [ -4.827706, 56.541756 ], [ -4.827892, 56.541717 ], [ -4.82817, 56.541609 ], [ -4.828358, 56.541541 ], [ -4.828648, 56.541456 ], [ -4.828853, 56.541401 ], [ -4.829172, 56.541334 ], [ -4.829392, 56.541297 ], [ -4.829726, 56.541243 ], [ -4.829956, 56.541217 ], [ -4.830284, 56.541213 ], [ -4.83051, 56.541252 ], [ -4.83079, 56.541356 ], [ -4.830995, 56.541409 ], [ -4.831331, 56.541452 ], [ -4.831557, 56.541442 ], [ -4.831902, 56.541416 ], [ -4.832138, 56.541402 ], [ -4.832474, 56.54139 ], [ -4.832679, 56.541385 ], [ -4.833025, 56.541394 ], [ -4.833251, 56.541398 ], [ -4.83358, 56.54141 ], [ -4.833816, 56.541425 ], [ -4.834156, 56.541453 ], [ -4.834373, 56.541479 ], [ -4.834714, 56.541495 ], [ -4.834941, 56.541495 ], [ -4.835282, 56.541519 ], [ -4.835488, 56.541559 ], [ -4.835805, 56.541617 ], [ -4.83603, 56.541668 ], [ -4.836335, 56.541743 ], [ -4.836554, 56.541769 ], [ -4.836901, 56.541762 ], [ -4.837096, 56.541785 ], [ -4.837294799288158, 56.541869982901808 ], [ -4.837268700268151, 56.541925215711586 ], [ -4.837321509858875, 56.541881401161042 ], [ -4.83734058766977, 56.541865572867387 ], [ -4.837369, 56.541842 ], [ -4.837376, 56.541856 ], [ -4.837696, 56.541801 ], [ -4.837902, 56.541828 ], [ -4.838226, 56.54178 ], [ -4.838402, 56.541713 ], [ -4.838709, 56.541645 ], [ -4.838916, 56.541629 ], [ -4.839248, 56.541592 ], [ -4.839464, 56.541575 ], [ -4.839797, 56.541544 ], [ -4.840008, 56.541519 ], [ -4.840336, 56.541471 ], [ -4.840372, 56.541478 ], [ -4.840715, 56.541471 ], [ -4.840912, 56.54146 ], [ -4.841237, 56.541467 ], [ -4.841237, 56.541452 ], [ -4.841564, 56.541465 ], [ -4.841776, 56.541477 ], [ -4.842095, 56.54144 ], [ -4.84231, 56.541461 ], [ -4.842631, 56.541429 ], [ -4.842843, 56.541407 ], [ -4.843183, 56.541388 ], [ -4.843407, 56.541367 ], [ -4.843732, 56.541343 ], [ -4.843946, 56.541314 ], [ -4.844264, 56.541269 ], [ -4.844492, 56.541239 ], [ -4.844805, 56.54118 ], [ -4.845015, 56.54114 ], [ -4.845276, 56.541027 ], [ -4.845408, 56.540939 ], [ -4.845596, 56.540782 ], [ -4.845726, 56.540683 ], [ -4.845944, 56.540544 ], [ -4.846086, 56.540456 ], [ -4.846318, 56.540314 ], [ -4.846466, 56.540219 ], [ -4.846735, 56.540115 ], [ -4.846922, 56.540077 ], [ -4.847245, 56.540027 ], [ -4.847452, 56.540002 ], [ -4.847774, 56.539966 ], [ -4.847984, 56.539961 ], [ -4.848306, 56.539931 ], [ -4.848505, 56.539884 ], [ -4.84884, 56.539858 ], [ -4.849073, 56.53987 ], [ -4.849417, 56.539889 ], [ -4.849606, 56.539917 ], [ -4.849941, 56.539913 ], [ -4.850098, 56.539916 ], [ -4.850391, 56.540004 ], [ -4.850581, 56.540043 ], [ -4.850904, 56.54008 ], [ -4.851094, 56.540118 ], [ -4.851427, 56.54013 ], [ -4.851624, 56.540113 ], [ -4.851948, 56.540065 ], [ -4.852142, 56.540057 ], [ -4.852477, 56.540037 ], [ -4.85268, 56.540022 ], [ -4.853019, 56.539986 ], [ -4.853235, 56.539953 ], [ -4.853542, 56.539886 ], [ -4.85373, 56.539834 ], [ -4.854065, 56.539793 ], [ -4.854288, 56.539783 ], [ -4.854624, 56.539742 ], [ -4.854829, 56.539722 ], [ -4.855165, 56.539691 ], [ -4.855363, 56.539672 ], [ -4.855686, 56.539633 ], [ -4.855853, 56.53957 ], [ -4.85617, 56.539523 ], [ -4.856372, 56.539548 ], [ -4.856714, 56.539525 ], [ -4.856905, 56.539494 ], [ -4.857243, 56.539497 ], [ -4.857405, 56.539539 ], [ -4.857739, 56.539583 ], [ -4.857927, 56.539572 ], [ -4.858223440549545, 56.539534375867696 ], [ -4.858378797755286, 56.539175388996405 ], [ -4.858677520410442, 56.538807797245546 ], [ -4.859623578739639, 56.53811232632205 ], [ -4.861032059108981, 56.537819958092946 ], [ -4.862622228412066, 56.537645392701975 ], [ -4.862869830440518, 56.53774577813774 ], [ -4.863275151993532, 56.537646254548314 ], [ -4.863455636461673, 56.537493562779879 ], [ -4.864743071627672, 56.537251684624422 ], [ -4.865638, 56.537322 ], [ -4.865872, 56.537308 ], [ -4.86621, 56.5373 ], [ -4.866319, 56.537329 ], [ -4.866634, 56.537386 ], [ -4.866692, 56.537363 ], [ -4.866893, 56.537216 ], [ -4.866954, 56.537116 ], [ -4.86721, 56.536999 ], [ -4.867372, 56.536929 ], [ -4.867626, 56.536806 ], [ -4.86778, 56.536707 ], [ -4.867967, 56.536556 ], [ -4.868128, 56.53647 ], [ -4.868374, 56.536336 ], [ -4.868526, 56.536229 ], [ -4.868726, 56.536081 ], [ -4.868796, 56.536061 ], [ -4.869115, 56.536019 ], [ -4.869307, 56.536006 ], [ -4.869633, 56.536036 ], [ -4.869846, 56.536049 ], [ -4.870173, 56.536024 ], [ -4.870392, 56.535987 ], [ -4.870722, 56.535918 ], [ -4.870934, 56.535864 ], [ -4.871252, 56.535795 ], [ -4.871461, 56.535723 ], [ -4.871751, 56.535626 ], [ -4.871957, 56.535554 ], [ -4.872231, 56.535448 ], [ -4.872411, 56.535359 ], [ -4.872622, 56.53521 ], [ -4.872755, 56.535097 ], [ -4.873016, 56.534978 ], [ -4.873177, 56.534886 ], [ -4.873308, 56.534714 ], [ -4.873357, 56.534599 ], [ -4.873425, 56.534416 ], [ -4.873575, 56.534349 ], [ -4.873823, 56.534221 ], [ -4.873756, 56.534213 ], [ -4.874082, 56.534183 ], [ -4.874276, 56.534197 ], [ -4.87461, 56.534238 ], [ -4.87477, 56.534267 ], [ -4.875029, 56.53438 ], [ -4.875057, 56.534404 ], [ -4.875384, 56.534398 ], [ -4.875352, 56.534407 ], [ -4.87567, 56.534347 ], [ -4.875876, 56.534332 ], [ -4.876216, 56.534325 ], [ -4.876432, 56.534333 ], [ -4.876767, 56.534312 ], [ -4.876989, 56.534299 ], [ -4.877321, 56.534296 ], [ -4.877565, 56.534312 ], [ -4.877903, 56.534277 ], [ -4.878122, 56.53426 ], [ -4.87845, 56.534236 ], [ -4.878674, 56.534198 ], [ -4.878984, 56.534115 ], [ -4.879179, 56.534076 ], [ -4.879504, 56.534029 ], [ -4.879674, 56.534006 ], [ -4.880002, 56.534014 ], [ -4.880208, 56.534043 ], [ -4.880516, 56.533984 ], [ -4.880679, 56.533908 ], [ -4.881003, 56.533869 ], [ -4.881122, 56.533907 ], [ -4.881433, 56.533844 ], [ -4.881643, 56.533838 ], [ -4.881982, 56.533841 ], [ -4.882224, 56.533826 ], [ -4.88256, 56.533827 ], [ -4.882792, 56.533845 ], [ -4.883127, 56.53385 ], [ -4.883327, 56.533849 ], [ -4.88365, 56.533787 ], [ -4.883874, 56.533767 ], [ -4.884203, 56.533764 ], [ -4.884389, 56.533751 ], [ -4.884713, 56.533768 ], [ -4.88495, 56.53376 ], [ -4.885274, 56.533735 ], [ -4.885519, 56.533726 ], [ -4.885865, 56.533712 ], [ -4.886063, 56.533681 ], [ -4.886406, 56.533646 ], [ -4.886609, 56.533636 ], [ -4.886951, 56.533661 ], [ -4.887141, 56.5337 ], [ -4.887473, 56.533688 ], [ -4.887689, 56.533701 ], [ -4.888025, 56.533711 ], [ -4.888243, 56.533713 ], [ -4.888548, 56.533777 ], [ -4.888724, 56.533766 ], [ -4.88905, 56.533782 ], [ -4.889248, 56.533814 ], [ -4.889558, 56.533879 ], [ -4.889752, 56.533914 ], [ -4.89009, 56.533952 ], [ -4.890309, 56.533945 ], [ -4.890641, 56.533961 ], [ -4.890828, 56.533961 ], [ -4.891161, 56.533976 ], [ -4.891313, 56.533975 ], [ -4.891643, 56.533993 ], [ -4.891835, 56.533998 ], [ -4.892156, 56.534056 ], [ -4.892373, 56.534113 ], [ -4.892654, 56.534208 ], [ -4.892815, 56.534268 ], [ -4.893127, 56.534319 ], [ -4.893337, 56.534325 ], [ -4.893678, 56.534319 ], [ -4.893876, 56.534306 ], [ -4.894195, 56.534243 ], [ -4.894431, 56.534201 ], [ -4.894725, 56.534108 ], [ -4.894869, 56.534034 ], [ -4.895127, 56.533906 ], [ -4.895356, 56.533873 ], [ -4.895688, 56.533896 ], [ -4.89593, 56.533904 ], [ -4.896275, 56.533884 ], [ -4.896506, 56.533889 ], [ -4.896824, 56.533933 ], [ -4.897047, 56.53397 ], [ -4.897355, 56.53403 ], [ -4.897523, 56.53407 ], [ -4.897836, 56.534121 ], [ -4.898049, 56.534119 ], [ -4.898375, 56.534092 ], [ -4.898547, 56.534071 ], [ -4.898867, 56.534017 ], [ -4.899098, 56.533998 ], [ -4.899428, 56.533981 ], [ -4.899579, 56.534031 ], [ -4.899897, 56.533976 ], [ -4.90013, 56.533973 ], [ -4.90047, 56.533979 ], [ -4.900709, 56.533988 ], [ -4.901049, 56.533998 ], [ -4.901289, 56.533994 ], [ -4.901618, 56.533942 ], [ -4.901501, 56.533966 ], [ -4.90183, 56.533992 ], [ -4.902059, 56.533982 ], [ -4.902405, 56.533986 ], [ -4.902611, 56.533973 ], [ -4.902953, 56.53397 ], [ -4.903151, 56.533956 ], [ -4.903487, 56.533927 ], [ -4.903699, 56.533906 ], [ -4.904028, 56.533905 ], [ -4.90424, 56.533903 ], [ -4.904572, 56.533895 ], [ -4.904658, 56.533885 ], [ -4.904992, 56.533842 ], [ -4.905202, 56.53382 ], [ -4.905542, 56.533788 ], [ -4.905756, 56.533752 ], [ -4.906076, 56.533683 ], [ -4.906284, 56.533647 ], [ -4.906602, 56.533579 ], [ -4.906831, 56.53353 ], [ -4.907152, 56.533461 ], [ -4.907358, 56.533413 ], [ -4.907685, 56.533342 ], [ -4.907912, 56.533296 ], [ -4.908236, 56.533229 ], [ -4.908444, 56.533188 ], [ -4.908766, 56.533128 ], [ -4.908999, 56.53308 ], [ -4.909321, 56.533018 ], [ -4.909538, 56.532985 ], [ -4.909843, 56.532919 ], [ -4.910058, 56.532868 ], [ -4.91039, 56.532806 ], [ -4.910553, 56.532773 ], [ -4.91086, 56.532696 ], [ -4.91093, 56.532666 ], [ -4.911241, 56.532602 ], [ -4.911391, 56.532554 ], [ -4.911711, 56.532499 ], [ -4.911887, 56.532463 ], [ -4.912192, 56.532384 ], [ -4.912401, 56.532347 ], [ -4.912714, 56.532293 ], [ -4.912936, 56.532258 ], [ -4.913269, 56.532199 ], [ -4.913518, 56.532168 ], [ -4.913834, 56.532108 ], [ -4.913973, 56.532043 ], [ -4.914225, 56.531928 ], [ -4.914408, 56.531861 ], [ -4.914679, 56.531751 ], [ -4.914873, 56.531698 ], [ -4.915154, 56.531593 ], [ -4.915319, 56.531537 ], [ -4.915605, 56.531443 ], [ -4.915782, 56.531392 ], [ -4.916066, 56.531304 ], [ -4.916222, 56.531247 ], [ -4.916522, 56.531151 ], [ -4.916695, 56.531094 ], [ -4.916992, 56.531002 ], [ -4.917177, 56.530941 ], [ -4.917474, 56.530855 ], [ -4.917652, 56.530804 ], [ -4.917942, 56.530716 ], [ -4.91811, 56.530669 ], [ -4.918392, 56.530574 ], [ -4.918552, 56.530512 ], [ -4.918841, 56.530429 ], [ -4.91901, 56.530362 ], [ -4.919308, 56.530271 ], [ -4.919483, 56.530213 ], [ -4.919765, 56.530124 ], [ -4.919943, 56.530066 ], [ -4.920223, 56.529967 ], [ -4.920229, 56.529965 ], [ -4.920519, 56.529881 ], [ -4.920685, 56.529811 ], [ -4.920975, 56.529717 ], [ -4.921163, 56.529652 ], [ -4.921433, 56.529552 ], [ -4.921603, 56.529483 ], [ -4.9219, 56.529402 ], [ -4.922046, 56.529333 ], [ -4.922327, 56.529224 ], [ -4.922461, 56.529183 ], [ -4.922736, 56.529077 ], [ -4.922895, 56.52901 ], [ -4.923185, 56.528924 ], [ -4.92328, 56.528882 ], [ -4.923521, 56.528756 ], [ -4.923679, 56.5287 ], [ -4.923962, 56.528594 ], [ -4.924116, 56.528521 ], [ -4.924399, 56.528416 ], [ -4.92456, 56.528358 ], [ -4.924851, 56.528246 ], [ -4.92505, 56.52817 ], [ -4.925335, 56.528069 ], [ -4.92539, 56.52805 ], [ -4.925657, 56.52794 ], [ -4.925752, 56.52791 ], [ -4.926058, 56.527823 ], [ -4.92625, 56.527755 ], [ -4.926519, 56.527654 ], [ -4.926707, 56.52758 ], [ -4.926991, 56.527486 ], [ -4.927188, 56.527425 ], [ -4.927467, 56.527328 ], [ -4.927643, 56.527269 ], [ -4.927908, 56.527155 ], [ -4.928097, 56.527085 ], [ -4.928364, 56.52698 ], [ -4.928551, 56.526924 ], [ -4.928831, 56.526829 ], [ -4.928991, 56.52677 ], [ -4.929272, 56.526664 ], [ -4.92945, 56.526589 ], [ -4.929726, 56.526487 ], [ -4.929902, 56.526421 ], [ -4.930183, 56.526322 ], [ -4.930356, 56.526256 ], [ -4.930643, 56.526168 ], [ -4.930783, 56.52611 ], [ -4.931087, 56.526027 ], [ -4.931264, 56.525982 ], [ -4.931594, 56.525936 ], [ -4.931772, 56.525858 ], [ -4.932073, 56.525772 ], [ -4.932288, 56.52572 ], [ -4.932587, 56.525642 ], [ -4.932816, 56.525586 ], [ -4.933105, 56.525497 ], [ -4.933341, 56.525446 ], [ -4.933649, 56.525374 ], [ -4.933841, 56.525319 ], [ -4.934144, 56.525239 ], [ -4.934356, 56.525194 ], [ -4.934643, 56.52511 ], [ -4.934874, 56.525054 ], [ -4.935159, 56.524948 ], [ -4.935357, 56.524888 ], [ -4.935636, 56.524781 ], [ -4.935673, 56.52478 ], [ -4.9359, 56.524649 ], [ -4.936034, 56.524558 ], [ -4.936275, 56.524427 ], [ -4.936435, 56.524339 ], [ -4.936691, 56.524225 ], [ -4.936879, 56.524184 ], [ -4.937175, 56.524091 ], [ -4.937326, 56.524022 ], [ -4.937591, 56.523903 ], [ -4.937729, 56.523876 ], [ -4.938046, 56.523825 ], [ -4.938171, 56.523798 ], [ -4.938475, 56.523719 ], [ -4.938656, 56.523697 ], [ -4.938955, 56.52362 ], [ -4.939117, 56.523599 ], [ -4.939329, 56.523739 ], [ -4.93945, 56.52367 ], [ -4.939664, 56.523529 ], [ -4.939826, 56.523534 ], [ -4.940154, 56.52357 ], [ -4.940296, 56.523596 ], [ -4.940504, 56.523456 ], [ -4.940601, 56.523389 ], [ -4.940885, 56.52329 ], [ -4.94106, 56.523244 ], [ -4.941354, 56.523159 ], [ -4.941507, 56.523115 ], [ -4.941788, 56.523021 ], [ -4.941906, 56.522985 ], [ -4.942207, 56.5229 ], [ -4.942386, 56.522867 ], [ -4.94271, 56.522825 ], [ -4.942915, 56.522829 ], [ -4.943245, 56.522811 ], [ -4.943429, 56.522796 ], [ -4.943769, 56.522789 ], [ -4.943962, 56.52279 ], [ -4.944301, 56.522772 ], [ -4.944476, 56.522766 ], [ -4.9448, 56.522744 ], [ -4.944938, 56.522695 ], [ -4.945193, 56.522568 ], [ -4.945379, 56.522502 ], [ -4.945536, 56.522335 ], [ -4.945557, 56.52224 ], [ -4.94567, 56.522064 ], [ -4.945719, 56.521955 ], [ -4.945869, 56.521785 ], [ -4.946006, 56.521691 ], [ -4.946216, 56.521541 ], [ -4.946381, 56.521457 ], [ -4.946668, 56.521372 ], [ -4.946869, 56.521333 ], [ -4.947197, 56.521305 ], [ -4.947387, 56.52128 ], [ -4.947717, 56.521242 ], [ -4.947904, 56.521195 ], [ -4.948172, 56.521089 ], [ -4.948176, 56.521102 ], [ -4.948506, 56.521147 ], [ -4.948618, 56.521057 ], [ -4.948686, 56.520872 ], [ -4.948831, 56.520796 ], [ -4.949101, 56.520683 ], [ -4.949281, 56.520627 ], [ -4.949573, 56.520537 ], [ -4.949584, 56.520526 ], [ -4.949748, 56.52037 ], [ -4.949845, 56.520267 ], [ -4.949971, 56.5201 ], [ -4.950005, 56.519991 ], [ -4.950052, 56.519806 ], [ -4.950096, 56.519688 ], [ -4.950143, 56.519507 ], [ -4.950167, 56.519393 ], [ -4.950167, 56.519211 ], [ -4.950111, 56.519201 ], [ -4.950214582245431, 56.519088558746738 ] ], [ [ -4.765599193249299, 56.517637621210547 ], [ -4.765655, 56.517677 ], [ -4.765542, 56.517615 ], [ -4.765599193249299, 56.517637621210547 ] ], [ [ -4.765171, 56.517503 ], [ -4.76511, 56.517281 ], [ -4.765424, 56.517514 ], [ -4.765599193249299, 56.517637621210547 ] ] ] } }
]
}
