{
"type": "FeatureCollection",
"name": "Uidhe",
"crs": { "type": "name", "properties": { "name": "urn:ogc:def:crs:OGC:1.3:CRS84" } },
"features": [
{ "type": "Feature", "properties": { "name": "21 Apr 2026 15:53:03", "cmt": null, "desc": null, "src": "FitoTrack", "link1_href": null, "link1_text": null, "link1_type": null, "link2_href": null, "link2_text": null, "link2_type": null, "number": 0, "type": "hiking" }, "geometry": { "type": "MultiLineString", "coordinates": [ [ [ -5.26254856, 57.87340495, 89.028846302251708 ], [ -5.26265147, 57.87340061, 89.223997495053041 ], [ -5.26275488, 57.87339238, 89.242492842817796 ], [ -5.2628567, 57.8733925, 89.413183591244447 ], [ -5.2629499, 57.8733911, 89.495190565898213 ], [ -5.26304079, 57.87339047, 89.611530047136384 ], [ -5.26313184, 57.87339427, 89.614036792303651 ], [ -5.2632205, 57.87340401, 89.851725548554711 ], [ -5.26330509, 57.87340905, 88.90163922740517 ], [ -5.2633964, 57.8734113, 88.549083816202597 ], [ -5.26348878, 57.87341898, 87.912672421810854 ], [ -5.26357901, 57.8734266, 88.63439134619702 ], [ -5.26367685, 57.87343012, 88.461888556018451 ], [ -5.26377336, 57.87343007, 88.83369510945036 ], [ -5.26387325, 57.87343709, 88.93108215081476 ], [ -5.26397434, 57.87344305, 89.605993649838197 ], [ -5.26406902, 57.87344757, 89.660726926205385 ], [ -5.26415876, 57.87344908, 89.591273278046899 ], [ -5.2642575, 57.87345825, 89.946092439598246 ], [ -5.26435545, 57.87346934, 89.49803880713452 ], [ -5.26444292, 57.87347689, 89.906081714849364 ], [ -5.26454117, 57.87348242, 89.890604943085961 ], [ -5.26464271, 57.87349431, 91.127944507818114 ], [ -5.26474601, 57.87349793, 91.732648138537982 ], [ -5.26484491, 57.87350444, 92.512496509771239 ], [ -5.26494749, 57.87351228, 92.007066560691996 ], [ -5.26505738, 57.87351543, 92.518157520513427 ], [ -5.26514957, 57.87351551, 92.461536513956503 ], [ -5.26525067, 57.87351711, 92.649892096057513 ], [ -5.26534961, 57.87351802, 91.897221807971576 ], [ -5.26544654, 57.87352022, 91.767749892862753 ], [ -5.26553122, 57.87352257, 92.165601019397357 ], [ -5.26562682, 57.87352673, 92.437755691202597 ], [ -5.26572023, 57.873543, 93.351227458083173 ], [ -5.26580856, 57.8735473, 93.340658566830385 ], [ -5.26589997, 57.87354841, 92.827679876819232 ], [ -5.26599733, 57.87355634, 92.716326683808617 ], [ -5.26609401, 57.8735577, 93.133806062645121 ], [ -5.26618901, 57.87356394, 93.262899777767885 ], [ -5.26628683, 57.87357298, 92.98885846568642 ], [ -5.26638748, 57.87357842, 93.59280678634768 ], [ -5.26647294, 57.87358328, 93.834386114612201 ], [ -5.26658241, 57.87359117, 93.706801929693114 ], [ -5.26666814, 57.87359792, 93.964990449852152 ], [ -5.26676595, 57.87360339, 94.582904922159628 ], [ -5.26686857, 57.87361494, 94.246580502865541 ], [ -5.26696923, 57.87361865, 94.21298609891744 ], [ -5.2670664, 57.87361633, 93.887986970848246 ], [ -5.26716947, 57.87361609, 94.015192955781274 ], [ -5.26725409, 57.87361573, 94.64254498912392 ], [ -5.26735787, 57.87362547, 95.395216367123354 ], [ -5.26745529, 57.87362436, 94.661041911208173 ], [ -5.26755769, 57.87361874, 94.782963995471576 ], [ -5.26765237, 57.8736284, 95.726255795834291 ], [ -5.26774463, 57.87363322, 95.34614628132536 ], [ -5.26783193, 57.87364161, 95.196291893769555 ], [ -5.26793844, 57.87364751, 95.270276312366107 ], [ -5.26803132, 57.87365843, 95.556396045904052 ], [ -5.26813797, 57.87366679, 95.59905090081476 ], [ -5.26823993, 57.87367336, 96.126373942458173 ], [ -5.26833722, 57.87367979, 96.183370969174135 ], [ -5.26843449, 57.873679, 96.62387477079244 ], [ -5.26853731, 57.87368099, 96.770331897954833 ], [ -5.26863146, 57.87367779, 97.131190270234399 ], [ -5.26874146, 57.87368417, 97.026253398024579 ], [ -5.26882814, 57.87368796, 97.942744225312524 ], [ -5.26891335, 57.87369593, 98.280955284882836 ], [ -5.26899791, 57.87370556, 98.23037457896767 ], [ -5.26910237, 57.87370538, 98.569339858683065 ], [ -5.26919429, 57.87370464, 98.642190767234965 ], [ -5.26929495, 57.87370834, 99.144222366007284 ], [ -5.26938079, 57.87372128, 99.166115458571454 ], [ -5.2694718, 57.87372632, 98.610860113635638 ], [ -5.26956243, 57.87372993, 98.741463358962079 ], [ -5.26965513, 57.87373263, 99.035888233404052 ], [ -5.2697499, 57.87373454, 98.674651661138427 ], [ -5.26983989, 57.8737338, 98.575000869425253 ], [ -5.26993877, 57.87373844, 98.770529172299135 ], [ -5.27004142, 57.87374323, 98.798462565505048 ], [ -5.27014717, 57.87375006, 98.624827355195336 ], [ -5.27024706, 57.87375113, 98.581419370053041 ], [ -5.27034639, 57.87374313, 98.037488226428607 ], [ -5.27045607, 57.8737401, 98.28850511572827 ], [ -5.27056325, 57.87373479, 98.664841349684735 ], [ -5.27067154, 57.8737332, 98.108453584617777 ], [ -5.2707801, 57.87372829, 98.810921366774579 ], [ -5.27088327, 57.87372207, 99.22991027581476 ], [ -5.27098176, 57.87372204, 99.063446696364423 ], [ -5.27107574, 57.87372508, 98.497622460175805 ], [ -5.27117179, 57.87372474, 98.278691534534076 ], [ -5.27127839, 57.87372887, 99.191407991356058 ], [ -5.27137527, 57.87372907, 98.918877299391767 ], [ -5.27147582, 57.87372475, 98.377965216174701 ], [ -5.27158782, 57.87372692, 98.04692687737726 ], [ -5.27167262, 57.87372731, 97.85253099463452 ], [ -5.2717597, 57.87372587, 98.391932457734399 ], [ -5.2718549, 57.87371587, 98.460253685761742 ], [ -5.27193598, 57.87369188, 98.694283183180829 ], [ -5.27203983, 57.87369742, 99.455258612170795 ], [ -5.27212872, 57.87369155, 99.249538528116659 ], [ -5.2722073, 57.8736742, 99.987865554483847 ], [ -5.27230079, 57.87366841, 99.737605065156274 ], [ -5.27240533, 57.87366036, 99.379010443225482 ], [ -5.27249272, 57.87365869, 99.163098577991107 ], [ -5.27258546, 57.87365012, 97.449395967430277 ], [ -5.27269514, 57.87364273, 96.313217814528485 ], [ -5.27278084, 57.87364008, 95.947451561738305 ], [ -5.27288743, 57.87363625, 95.57375836803017 ], [ -5.27297617, 57.87363024, 94.967167007120565 ], [ -5.27306209, 57.87363015, 93.984995812226586 ], [ -5.27315725, 57.87362698, 93.196088079944232 ], [ -5.27324492, 57.87361877, 92.819752935901263 ], [ -5.27334809, 57.87360398, 91.533343285371117 ], [ -5.27344365, 57.87359752, 90.397166222382836 ], [ -5.27353366, 57.87360002, 90.023473028674701 ], [ -5.27364603, 57.87359753, 90.672717064667992 ], [ -5.27374481, 57.87359346, 91.539760696085409 ], [ -5.27385393, 57.87358783, 92.404539487240541 ], [ -5.27395693, 57.8735835, 93.19986354032369 ], [ -5.27406204, 57.87357895, 93.95630819887559 ], [ -5.27416901, 57.87358302, 94.826371980613871 ], [ -5.27426952, 57.87359256, 95.425412420764545 ], [ -5.27435571, 57.87359745, 95.576777428437524 ], [ -5.27446494, 57.87360427, 95.446174183111083 ], [ -5.2745736, 57.87361314, 95.501284569550805 ], [ -5.27467751, 57.87362576, 95.69266030197268 ], [ -5.27478596, 57.87363615, 96.852995297787416 ], [ -5.27487658, 57.87363257, 97.598115755027933 ], [ -5.27497299, 57.873633, 96.72012612228518 ], [ -5.27506819, 57.87364934, 96.111271011026815 ], [ -5.27517146, 57.87366326, 96.02634059110494 ], [ -5.27526912, 57.87367015, 95.758716689737753 ], [ -5.27537706, 57.87367716, 94.985662839291322 ], [ -5.27548495, 57.87368101, 95.316325157929711 ], [ -5.27559388, 57.87368668, 95.143822367751142 ], [ -5.27568269, 57.8736908, 95.24422955943642 ], [ -5.2757857, 57.87369996, 95.708892383794677 ], [ -5.27588775, 57.87370922, 96.558949713245013 ], [ -5.27599049, 57.87372139, 96.73786991413786 ], [ -5.2760991, 57.8737253, 96.605756048694232 ], [ -5.27618436, 57.87374085, 96.101082499587079 ], [ -5.27628151, 57.87375987, 96.260374448178041 ], [ -5.27638814, 57.87375868, 97.028143308041322 ], [ -5.27647966, 57.87376388, 97.513189694760072 ], [ -5.27658746, 57.87376496, 97.237260652488871 ], [ -5.2766943, 57.87377818, 97.517341175298583 ], [ -5.27679451, 57.87377434, 98.751660589709857 ], [ -5.27688999, 57.87378334, 98.703344724056947 ], [ -5.27698889, 57.87378636, 98.84036538009768 ], [ -5.27708161, 57.87378515, 99.333715817806947 ], [ -5.27718585, 57.87378939, 99.855753868867211 ], [ -5.27728108, 57.87380188, 99.998059515491107 ], [ -5.27737827, 57.87381157, 99.925207517025697 ], [ -5.27747683, 57.87381945, 99.757234407371683 ], [ -5.27757462, 57.87382284, 100.426862005725482 ], [ -5.27768326, 57.87382593, 100.782058822306112 ], [ -5.27778452, 57.87383193, 100.691089191656005 ], [ -5.27788133, 57.87383727, 100.691843411801088 ], [ -5.27798915, 57.87384342, 100.449131663405439 ], [ -5.27809425, 57.87384271, 100.749595748575643 ], [ -5.27820292, 57.87385177, 101.047040228381732 ], [ -5.27830771, 57.8738586, 101.424884902628378 ], [ -5.27840813, 57.87386801, 101.274652315086527 ], [ -5.27850333, 57.87387074, 101.114605056436972 ], [ -5.27860287, 57.87387964, 101.057229829734965 ], [ -5.27869326, 57.87388252, 101.242943461501142 ], [ -5.27880535, 57.87388011, 101.502641511863871 ], [ -5.27891525, 57.87388253, 102.139807126400697 ], [ -5.27902278, 57.87388433, 101.974853077154052 ], [ -5.27913034, 57.87389075, 101.609464479393168 ], [ -5.27923606, 57.87389508, 102.29796556494702 ], [ -5.27934258, 57.87390108, 102.672791178786298 ], [ -5.27945171, 57.87391166, 103.765560801589032 ], [ -5.2795592, 57.87391841, 104.112831222208456 ], [ -5.27967044, 57.87391912, 103.28579995041018 ], [ -5.27977843, 57.87391876, 103.262397327642333 ], [ -5.27988063, 57.87392784, 104.244568522536298 ], [ -5.27997503, 57.87393833, 104.512571168846293 ], [ -5.28007462, 57.8739452, 103.708564864786581 ], [ -5.28018134, 57.87395694, 104.06678183168809 ], [ -5.28028998, 57.87396684, 104.622791941725751 ], [ -5.280386, 57.87397715, 104.867391420311137 ], [ -5.28048456, 57.87399222, 105.641200580816161 ], [ -5.28057026, 57.87399963, 106.075665716662982 ], [ -5.28065703, 57.87400457, 106.634318321992211 ], [ -5.28074289, 57.87401648, 106.80191432157369 ], [ -5.28082956, 57.8740366, 107.396425626156557 ], [ -5.28091006, 57.87405404, 107.502116718511473 ], [ -5.28098821, 57.87408036, 108.31216168834267 ], [ -5.28106765, 57.87410634, 108.834954504504779 ], [ -5.2811535, 57.87413205, 109.14598802588452 ], [ -5.28123835, 57.87414526, 109.574036295973798 ], [ -5.28133385, 57.87416557, 111.30963254405556 ], [ -5.28142886, 57.87418359, 112.234050857218222 ], [ -5.2815234, 57.874195, 112.370693858229657 ], [ -5.2816255, 57.87421006, 112.543951413510072 ], [ -5.28172659, 57.87423569, 112.961430792346576 ], [ -5.28181907, 57.87425557, 113.522725348010638 ], [ -5.28190273, 57.87427842, 113.445344213977435 ], [ -5.28200286, 57.87429002, 114.047027694376425 ], [ -5.28210752, 57.87430794, 114.080622643281274 ], [ -5.28218959, 57.87432427, 114.523769485147909 ], [ -5.28229057, 57.87434162, 115.191887553298017 ], [ -5.28238713, 57.87435874, 115.584076579176923 ], [ -5.28249107, 57.87438049, 115.387793511201195 ], [ -5.28259357, 57.87439576, 115.70524389833848 ], [ -5.28267289, 57.87441375, 115.7324219814858 ], [ -5.28277405, 57.87443613, 115.834715813447289 ], [ -5.28287269, 57.87445582, 116.714970831409076 ], [ -5.28297193, 57.87447443, 117.250597379086244 ], [ -5.28305358, 57.87448853, 117.047142135294393 ], [ -5.28315814, 57.87450382, 116.91918029534601 ], [ -5.28326012, 57.87452038, 117.429516490065595 ], [ -5.28335776, 57.87452894, 117.665056062645121 ], [ -5.2834562, 57.87454243, 117.535961802565595 ], [ -5.28356573, 57.8745549, 117.831519097138695 ], [ -5.28367021, 57.8745657, 117.606548415811972 ], [ -5.28377362, 57.87456957, 118.255037686703432 ], [ -5.28387245, 57.87458289, 119.003178294264814 ], [ -5.28397282, 57.87459426, 119.371586497389814 ], [ -5.28407515, 57.87460225, 119.227393665532958 ], [ -5.28417871, 57.87461452, 119.411975422124755 ], [ -5.28428239, 57.87462684, 119.089995354462914 ], [ -5.28438253, 57.87464092, 119.541824447306112 ], [ -5.28448442, 57.87465111, 120.052538297054994 ], [ -5.2845675, 57.87466183, 120.508142305320902 ], [ -5.28465049, 57.87467238, 120.39037279150952 ], [ -5.28475851, 57.87468214, 120.333752874866107 ], [ -5.28486084, 57.87469461, 120.578352353451479 ], [ -5.28495574, 57.87470813, 120.792376488496117 ], [ -5.28505533, 57.8747194, 121.526928599440595 ], [ -5.28514989, 57.87472925, 121.884390801240258 ], [ -5.28525429, 57.87474368, 122.146353691865258 ], [ -5.28536128, 57.87475721, 122.233926607078715 ], [ -5.28546363, 57.87476975, 122.71859479381142 ], [ -5.28556866, 57.87478753, 123.151927509527098 ], [ -5.28564876, 57.87480735, 123.532037568992777 ], [ -5.28575587, 57.87482256, 123.787960703932782 ], [ -5.28584156, 57.87483773, 123.693971467918558 ], [ -5.28593548, 57.87485155, 124.417199377551654 ], [ -5.28603327, 57.87487191, 124.434185134561972 ], [ -5.28612822, 57.87488978, 124.508923773303607 ], [ -5.28622644, 57.8749044, 124.598005673763979 ], [ -5.28632762, 57.87491603, 124.770886118971845 ], [ -5.28642465, 57.87493529, 125.193272288405439 ], [ -5.28652009, 57.87495639, 125.10003781749306 ], [ -5.28660833, 57.87497434, 125.40465392815851 ], [ -5.28669683, 57.87499346, 125.770042525919393 ], [ -5.28678961, 57.87501661, 125.720594785092104 ], [ -5.28688378, 57.87504001, 125.123063330188373 ], [ -5.28698073, 57.87505671, 125.265746086884789 ], [ -5.28708143, 57.8750699, 125.219317406464867 ], [ -5.28718071, 57.87508854, 125.777591811808065 ], [ -5.28728587, 57.87510664, 125.707759963663534 ], [ -5.28738785, 57.87512555, 126.521202738844892 ], [ -5.28748973, 57.87514306, 127.125905824608012 ], [ -5.28759476, 57.87515764, 127.8446045986733 ], [ -5.28769476, 57.87517729, 128.101282498715165 ], [ -5.28778967, 57.87519576, 128.179796052879482 ], [ -5.28789388, 57.87521294, 128.245097675542723 ], [ -5.28797754, 57.87522557, 128.19225267432202 ], [ -5.2880849, 57.8752451, 128.185080498505897 ], [ -5.2881672, 57.87526078, 128.86037019751538 ], [ -5.28827383, 57.87528107, 129.550381358229657 ], [ -5.28835816, 57.87529438, 129.9199219814858 ], [ -5.28844427, 57.87530885, 130.061849973080399 ], [ -5.28852593, 57.87532121, 130.356274847522343 ], [ -5.28861049, 57.87533917, 130.019951518141767 ], [ -5.2886966, 57.87535544, 130.025991273826747 ], [ -5.28878118, 57.87537157, 129.72137461820455 ], [ -5.28886261, 57.87538775, 129.486589810726883 ], [ -5.28894375, 57.87540514, 129.492629566411864 ], [ -5.28902278, 57.87542405, 128.685226001958739 ], [ -5.28910229, 57.87544241, 128.98946500255164 ], [ -5.28918719, 57.87545604, 128.890568430983564 ], [ -5.28929172, 57.87547345, 128.9456788174233 ], [ -5.28939406, 57.87549309, 129.462431877900428 ], [ -5.28948924, 57.87550543, 129.08156705333289 ], [ -5.28948385, 57.87545018, 128.815829792241942 ], [ -5.28955324, 57.87547731, 129.206885853032958 ], [ -5.2896427, 57.87549821, 129.077414482880897 ], [ -5.28974314, 57.87552263, 129.160457172613036 ], [ -5.28984394, 57.87554325, 128.609354398129227 ], [ -5.28994187, 57.87556567, 128.641062161801102 ], [ -5.29004839, 57.87558534, 128.30134102707035 ], [ -5.29014446, 57.87561193, 128.045040237101034 ], [ -5.29024383, 57.87563054, 129.139696500180008 ], [ -5.29034806, 57.87564113, 128.858483012282392 ], [ -5.29045305, 57.8756617, 128.58255397001119 ], [ -5.29053337, 57.87567803, 129.226891215407392 ], [ -5.2906363, 57.8757005, 128.57198453380164 ], [ -5.29073819, 57.87572016, 129.237837216732743 ], [ -5.29084029, 57.87573671, 130.076947999900966 ], [ -5.2910031, 57.87575561, 129.741379435622235 ], [ -5.29110916, 57.87576944, 129.48168138525952 ], [ -5.29120336, 57.87578169, 129.943324604253661 ], [ -5.29130077, 57.87579959, 130.757899799566161 ], [ -5.29139066, 57.87581746, 131.687602558355223 ], [ -5.29149268, 57.87582873, 132.105459592221024 ], [ -5.29158947, 57.87584152, 132.55389142467078 ], [ -5.2916876, 57.87585934, 132.844919038719325 ], [ -5.29178966, 57.87587323, 133.214460206932216 ], [ -5.29189332, 57.87589087, 133.676858191028202 ], [ -5.29199616, 57.87590854, 132.877381567493046 ], [ -5.29209783, 57.87592558, 133.13103986217078 ], [ -5.29220353, 57.87594015, 132.462922338977421 ], [ -5.29230174, 57.87595581, 131.635513412149862 ], [ -5.29240182, 57.87597457, 131.811413462721845 ], [ -5.29250935, 57.87598988, 132.43310285045203 ], [ -5.29260243, 57.87600312, 132.66562281766744 ], [ -5.29269447, 57.876014, 132.661847902244716 ], [ -5.29277777, 57.87602696, 132.660337827084305 ], [ -5.29288203, 57.87604392, 133.218989887456786 ], [ -5.29298365, 57.8760612, 133.474913022396805 ], [ -5.29307388, 57.87607881, 133.540215190016767 ], [ -5.29317653, 57.87609628, 133.291841340965419 ], [ -5.29327306, 57.8761063, 135.322240118518437 ], [ -5.2933729, 57.87612512, 135.96921985920622 ], [ -5.29345602, 57.87613927, 136.094539203863036 ], [ -5.29353805, 57.87615252, 137.017447441865272 ], [ -5.29364408, 57.87617195, 137.851650889479657 ], [ -5.29374755, 57.87618739, 137.406238662394003 ], [ -5.29384416, 57.87621089, 136.820409063830937 ], [ -5.29393771, 57.87622344, 136.9072266689858 ], [ -5.29401987, 57.87625053, 137.090676005446454 ], [ -5.29412479, 57.87626305, 136.980455777523758 ], [ -5.2942093, 57.87628204, 137.088788820213466 ], [ -5.29429584, 57.87629926, 136.983474837931112 ], [ -5.29438764, 57.87631976, 136.581471685901249 ], [ -5.29447731, 57.87634134, 137.080861334338749 ], [ -5.29457609, 57.87635718, 134.863993614960975 ], [ -5.29467518, 57.87637621, 134.849272698212928 ], [ -5.29478362, 57.87639049, 134.988558194515946 ], [ -5.29486642, 57.87640387, 133.885220225417157 ], [ -5.29496241, 57.87642295, 133.089518517304725 ], [ -5.29506491, 57.87644264, 133.490766904232743 ], [ -5.29516613, 57.87645992, 133.76594063644535 ], [ -5.29526826, 57.87648076, 133.462834055983564 ], [ -5.29536307, 57.87649866, 133.227294483404052 ], [ -5.29546128, 57.87651806, 132.345152280209305 ], [ -5.2955705, 57.87652906, 132.043933429937255 ], [ -5.29567439, 57.87654016, 131.499625176240272 ], [ -5.2957691, 57.87655502, 130.979097200340419 ], [ -5.29587132, 57.87657244, 130.40610133329244 ], [ -5.29597735, 57.87658909, 130.6948641070787 ], [ -5.29605757, 57.87660593, 130.541611914172734 ], [ -5.29616233, 57.87662065, 130.424974820492508 ], [ -5.2962426, 57.87663805, 130.840944124168544 ], [ -5.29632295, 57.87665342, 131.359584369878661 ], [ -5.2964051, 57.87667064, 131.34410814307202 ], [ -5.29650208, 57.87669238, 131.366378890665487 ], [ -5.29659032, 57.8767137, 131.370530916160732 ], [ -5.29668725, 57.87673304, 131.536239185552489 ], [ -5.29676498, 57.87675182, 131.777063748715165 ], [ -5.29679657, 57.87679722, 131.945036858369178 ], [ -5.29693693, 57.87681853, 132.54105823811247 ], [ -5.29702136, 57.87683024, 132.602207835280439 ], [ -5.29711161, 57.87684339, 132.870209936633671 ], [ -5.29720486, 57.87686292, 132.863415415846845 ], [ -5.29730287, 57.87687433, 132.772823440226034 ], [ -5.29740258, 57.8768811, 132.58295723800785 ], [ -5.29749957, 57.87688704, 132.874362507085692 ], [ -5.29759914, 57.8768913, 132.371197943225468 ], [ -5.2976988, 57.87690127, 132.567858666230507 ], [ -5.29780714, 57.87690183, 132.565593825968222 ], [ -5.29791347, 57.87690051, 132.717335943713749 ], [ -5.29802122, 57.87689913, 132.66260321230331 ], [ -5.29812189, 57.87691497, 132.769803834861904 ], [ -5.29821667, 57.8769376, 132.544455498505897 ], [ -5.29830916, 57.87696164, 132.669774843162685 ], [ -5.29840727, 57.87698249, 133.353746248191982 ], [ -5.29850155, 57.87699767, 133.214837861961513 ], [ -5.2985973, 57.87701569, 133.376771215930546 ], [ -5.29869111, 57.87703077, 133.788588494111366 ], [ -5.29878891, 57.87704339, 134.327612302181961 ], [ -5.29888824, 57.87705782, 134.329121832385624 ], [ -5.29898726, 57.87706424, 135.182199312156825 ], [ -5.29907647, 57.87708348, 135.022907908522626 ], [ -5.29917573, 57.8770989, 135.10821543851705 ], [ -5.29927806, 57.87710924, 135.280718228695633 ], [ -5.29937497, 57.87712261, 134.840590992193114 ], [ -5.29947661, 57.87713117, 134.751886201805263 ], [ -5.29958021, 57.87713999, 134.790010286277919 ], [ -5.29968695, 57.87715166, 134.723576243483564 ], [ -5.29979139, 57.87716105, 134.279674091558348 ], [ -5.29989273, 57.87717429, 134.244191957420497 ], [ -5.29999608, 57.87718808, 135.256560295869178 ], [ -5.30008716, 57.87720143, 135.11123504388118 ], [ -5.30017444, 57.8772132, 134.819452119774013 ], [ -5.30027884, 57.8772271, 134.991577799880048 ], [ -5.30038086, 57.87723986, 134.615997420938925 ], [ -5.30048004, 57.87725396, 134.79151981648161 ], [ -5.30053399, 57.87720833, 134.918349236298866 ], [ -5.30051143, 57.87725724, 134.570701705606893 ], [ -5.30060148, 57.87728424, 134.634116143037147 ], [ -5.30068376, 57.87730217, 134.762832748087362 ], [ -5.30078839, 57.87732456, 134.768872503772343 ], [ -5.30087098, 57.87734386, 134.677525218092939 ], [ -5.30096674, 57.87736468, 134.530312780871952 ], [ -5.30107068, 57.87737936, 134.438966040149296 ], [ -5.30117699, 57.87739607, 133.228049793462645 ], [ -5.30128242, 57.87741011, 133.128775566865272 ], [ -5.30138895, 57.87742457, 133.087631877028485 ], [ -5.30149425, 57.87744333, 132.822649381039383 ], [ -5.301602, 57.8774497, 133.03403102079244 ], [ -5.30168589, 57.87745694, 132.966086902837645 ], [ -5.30177111, 57.87746724, 132.84378716354496 ], [ -5.3018601, 57.87747465, 133.182375333187821 ], [ -5.30196971, 57.87748459, 133.205777955955654 ], [ -5.30205228, 57.87749619, 133.442827603695633 ], [ -5.30215486, 57.87751192, 133.369976150186972 ], [ -5.30223875, 57.87752466, 133.045354132190312 ], [ -5.30232282, 57.87754046, 133.164634266118895 ], [ -5.30240643, 57.87755595, 133.209552871378378 ], [ -5.30249522, 57.87757246, 133.131416972243329 ], [ -5.30259327, 57.87759299, 132.416870768630048 ], [ -5.30267589, 57.87760891, 132.131505255237187 ], [ -5.30276194, 57.87762203, 131.841610061319784 ], [ -5.30284573, 57.87763258, 131.107057950375321 ], [ -5.30294159, 57.87765827, 130.588417159708456 ], [ -5.30304203, 57.87767978, 130.262285066551357 ], [ -5.30314361, 57.87769819, 129.708917451805263 ], [ -5.3032441, 57.87771692, 129.539811922020107 ], [ -5.30335015, 57.87773748, 129.095155004993046 ], [ -5.30343022, 57.87775366, 128.716177365658524 ], [ -5.30352351, 57.87777833, 128.551978626470458 ], [ -5.30360159, 57.87780359, 128.245852440644569 ], [ -5.30368982, 57.87781713, 127.940481019920512 ], [ -5.30378288, 57.87782825, 128.046549767304725 ], [ -5.30387439, 57.87784483, 128.305492507608847 ], [ -5.30397194, 57.87786422, 128.015219658662147 ], [ -5.30406726, 57.87788167, 128.287373785510624 ], [ -5.30416999, 57.87789273, 128.326253180041874 ], [ -5.30427452, 57.87790665, 128.274540598952314 ], [ -5.30436216, 57.87793413, 128.08316432157369 ], [ -5.30446382, 57.87794864, 128.011068178123622 ], [ -5.30456219, 57.87796353, 127.888768983787699 ], [ -5.30465661, 57.87798141, 127.829128916823407 ], [ -5.30475723, 57.87799564, 127.831771412114989 ], [ -5.30484118, 57.8780191, 127.733252495576195 ], [ -5.3049194, 57.87804005, 127.673612428611918 ], [ -5.30498311, 57.87807237, 127.846492328863036 ], [ -5.3050299, 57.87811118, 127.473931555286029 ], [ -5.3050689, 57.87815218, 127.64605723539205 ], [ -5.30512572, 57.87818896, 127.8495124791839 ], [ -5.30520404, 57.87821987, 127.903112790463197 ], [ -5.30527967, 57.8782413, 128.57462757404997 ], [ -5.30537154, 57.87826264, 128.98682196230331 ], [ -5.30545022, 57.87829657, 130.091292896489989 ], [ -5.30550923, 57.87833932, 131.024770570701747 ], [ -5.30547424, 57.87838625, 132.091116875459022 ], [ -5.30554325, 57.87842138, 133.449245559366659 ], [ -5.30555452, 57.87847913, 134.576741461291874 ], [ -5.30561955, 57.87850886, 135.862396346720175 ], [ -5.30567257, 57.87854698, 137.309985131074257 ], [ -5.30572646, 57.87858688, 139.437393294962362 ], [ -5.30575783, 57.87864261, 141.456090761131435 ], [ -5.30577679, 57.87869908, 143.521971127865555 ], [ -5.30579172, 57.87874374, 145.959657503074794 ], [ -5.30582911, 57.87878527, 148.005532507434481 ], [ -5.30581715, 57.87884087, 149.866448100173045 ], [ -5.30584371, 57.87888403, 152.400766206688104 ], [ -5.30583984, 57.87894535, 154.104655236054725 ], [ -5.30580727, 57.87900654, 156.001807728032958 ], [ -5.30580197, 57.87905337, 157.704941992297762 ], [ -5.30587731, 57.8790818, 159.325033566830399 ], [ -5.30597068, 57.87908556, 161.210861857497264 ], [ -5.30603994, 57.87911877, 163.412253350068397 ], [ -5.30607315, 57.87916317, 165.512483430809198 ], [ -5.30602821, 57.87923171, 166.501826256562538 ], [ -5.30598981, 57.87927958, 168.162306483351756 ], [ -5.30598891, 57.87933137, 169.701997318487059 ], [ -5.30601871, 57.87937399, 170.722292325375321 ], [ -5.30603211, 57.8794196, 171.751269310761757 ], [ -5.3060504, 57.87946991, 173.122609653692137 ], [ -5.30608053, 57.87951813, 174.253880471040077 ], [ -5.30608763, 57.87956832, 175.418368309785194 ], [ -5.30609321, 57.87961375, 176.743279972295653 ], [ -5.30612641, 57.87965635, 178.107070756859002 ], [ -5.3060782, 57.87969768, 179.465199440766639 ], [ -5.3060121, 57.87972599, 181.049431771088905 ], [ -5.30591748, 57.87975693, 181.962526155418573 ], [ -5.30587594, 57.87980416, 183.194958112118485 ], [ -5.3059125, 57.87985916, 184.965659111787147 ], [ -5.30584338, 57.87989323, 186.868473976899452 ], [ -5.30582711, 57.87994993, 188.487810513851883 ], [ -5.30574461, 57.87993589, 190.413273236630204 ], [ -5.30573788, 57.87998493, 192.631651031168445 ], [ -5.30574165, 57.88003543, 194.492189241356073 ], [ -5.30573534, 57.88009179, 196.285538371169139 ], [ -5.30567304, 57.88012499, 197.877697097452625 ], [ -5.30558888, 57.88010954, 200.026243316324695 ], [ -5.30548257, 57.88012272, 202.269156153761912 ], [ -5.30539854, 57.88013533, 204.814043151529773 ], [ -5.30536006, 57.88018381, 206.858030425699695 ], [ -5.30528333, 57.88020425, 208.900130787114989 ], [ -5.30519806, 57.88020682, 211.009797611455809 ], [ -5.30514152, 57.88024051, 212.632908518874217 ], [ -5.30506231, 57.88027102, 214.224689590128406 ], [ -5.30496923, 57.88030508, 215.930466077206376 ], [ -5.30487961, 57.88031499, 218.072028947776971 ], [ -5.30484552, 57.88035643, 219.932944540515535 ], [ -5.30474246, 57.88034972, 221.955982587216141 ], [ -5.30466276, 57.88037466, 224.066404449137195 ], [ -5.30460186, 57.88040592, 226.776622333745848 ], [ -5.30456713, 57.88045998, 228.360476464082069 ], [ -5.30458151, 57.88051774, 230.112115149036043 ], [ -5.30461538, 57.88056444, 231.837708715930574 ], [ -5.3046755, 57.88060206, 233.742222483717967 ], [ -5.30470337, 57.88064703, 235.73732822712617 ], [ -5.30458063, 57.88069141, 237.756025693295243 ], [ -5.30453214, 57.88073139, 239.755283462198719 ], [ -5.30444719, 57.88073705, 241.687918088314774 ], [ -5.30438757, 57.88078786, 243.892329731206786 ], [ -5.30436785, 57.88083191, 245.792502373505897 ], [ -5.30432153, 57.88087088, 247.723816024454578 ], [ -5.3042234, 57.8808854, 249.813100103870028 ], [ -5.30414652, 57.88093033, 251.510006057413563 ], [ -5.30411625, 57.88097408, 253.423390086257029 ], [ -5.30402712, 57.88097715, 256.505980461884803 ], [ -5.3039162, 57.88099001, 259.114094431960154 ], [ -5.3038257, 57.88097617, 261.130716157859979 ], [ -5.30374556, 57.88099969, 263.660316028814179 ], [ -5.30369277, 57.88103852, 266.412810295869178 ], [ -5.30363896, 57.88109023, 268.292222265735234 ], [ -5.30356874, 57.88111523, 270.44944991814873 ], [ -5.30348325, 57.8811411, 272.77163107485211 ], [ -5.30340493, 57.88116757, 274.998312375424121 ], [ -5.30332462, 57.88118822, 277.027578732845996 ], [ -5.30332045, 57.8812483, 279.384675813621641 ], [ -5.30324977, 57.8812788, 281.524540053995565 ], [ -5.30316981, 57.88130917, 283.961660764095996 ], [ -5.30309066, 57.88135562, 285.848055809785194 ], [ -5.30305431, 57.88139898, 287.272808181436972 ], [ -5.30302057, 57.88144335, 289.001232253702597 ], [ -5.30298496, 57.88148711, 291.302653282929725 ], [ -5.302932, 57.88154166, 293.245479690226034 ], [ -5.30281686, 57.88155141, 294.960881475940312 ], [ -5.30273521, 57.88156519, 297.734514070457578 ], [ -5.30263969, 57.88158728, 300.414535083989961 ], [ -5.3025488, 57.88158803, 302.468336484310839 ], [ -5.30245172, 57.88161793, 304.069931681715957 ], [ -5.30237593, 57.88165556, 306.190167669787968 ], [ -5.30231081, 57.88170059, 307.895755874308065 ], [ -5.30229424, 57.88175083, 309.389773339082069 ], [ -5.30225359, 57.88179761, 311.065918620192519 ], [ -5.30221195, 57.88184288, 313.050643482427461 ], [ -5.30219224, 57.88189116, 314.953268430111621 ], [ -5.30218341, 57.88193788, 316.997821914347185 ], [ -5.30214082, 57.88198521, 318.355572943225525 ], [ -5.30210394, 57.88203459, 319.16542881306367 ], [ -5.30207325, 57.88207688, 321.08277631236615 ], [ -5.30201565, 57.88211573, 322.454304937854431 ], [ -5.30199855, 57.88216643, 324.599264523861677 ], [ -5.30197059, 57.88221086, 326.491888425228865 ], [ -5.30193939, 57.88228116, 327.956086946434255 ], [ -5.30190016, 57.88232604, 329.219093974196483 ], [ -5.30184923, 57.88236367, 330.896183120401872 ], [ -5.3017919, 57.88239885, 332.353397475870622 ], [ -5.30177058, 57.88244647, 333.596587696294705 ], [ -5.30174366, 57.88250007, 334.626696556855563 ], [ -5.30167863, 57.88253029, 335.607735331618358 ], [ -5.3015977, 57.88255266, 335.934245079804782 ], [ -5.30153651, 57.88259122, 337.328987773024608 ], [ -5.30147216, 57.88262993, 338.974747355544139 ], [ -5.30140335, 57.88266576, 339.676081627656345 ], [ -5.30134116, 57.88269692, 340.403084452712108 ], [ -5.30132201, 57.88274862, 340.384966820527438 ], [ -5.30129718, 57.88279532, 340.527082822201521 ], [ -5.30126582, 57.88284214, 341.39959890932488 ], [ -5.30126251, 57.8828899, 341.70081830455365 ], [ -5.30127761, 57.88293467, 342.026949852754001 ], [ -5.30129341, 57.88298494, 342.935136629051442 ], [ -5.3013188, 57.8830298, 343.279764009422536 ], [ -5.30133688, 57.8830767, 343.748390849196483 ], [ -5.30129148, 57.88311667, 344.032246832385681 ], [ -5.30120819, 57.88314158, 344.414244077084334 ], [ -5.30113985, 57.88317643, 344.310629269955427 ], [ -5.30110458, 57.88322722, 344.249102562714938 ], [ -5.301171, 57.88316934, 344.110195266397966 ], [ -5.30122238, 57.8831313, 343.982422526442576 ], [ -5.30127812, 57.88309572, 343.957697838593845 ], [ -5.30136904, 57.88307996, 344.136428394536892 ], [ -5.30146, 57.88306433, 344.053007504818709 ], [ -5.30154884, 57.88306756, 343.951656448038591 ], [ -5.30164107, 57.88307896, 343.951656448038591 ], [ -5.3017388, 57.88308729, 343.53096836384492 ], [ -5.30151081, 57.88309848, 343.444528413719411 ], [ -5.30138504, 57.88310893, 343.42659824665742 ], [ -5.30126505, 57.88310968, 343.408668079595486 ], [ -5.30114844, 57.88311232, 343.486049758585466 ], [ -5.30110842, 57.88315607, 343.217859102195973 ], [ -5.3011956, 57.88313187, 343.343177356939236 ], [ -5.30127175, 57.88311008, 342.660714937156911 ], [ -5.30136838, 57.8830825, 342.294193374308122 ], [ -5.30145782, 57.88307801, 342.005808800507907 ], [ -5.30156967, 57.88308134, 341.162357436808122 ], [ -5.30165696, 57.88307492, 340.718455284882907 ], [ -5.30173704, 57.88310731, 340.543500189319275 ], [ -5.30176099, 57.88304058, 339.841222052112244 ], [ -5.3017771, 57.8829867, 339.610589815086598 ], [ -5.30178262, 57.88293235, 339.434124099405778 ], [ -5.30179079, 57.8828852, 339.343909778814236 ], [ -5.30181662, 57.88284193, 338.339279826247264 ], [ -5.30180758, 57.88278783, 337.779306245750661 ], [ -5.30184424, 57.88274344, 336.937931167276872 ], [ -5.3019216, 57.88272453, 336.325113130516286 ], [ -5.30200938, 57.88271119, 335.33520463965408 ], [ -5.30209071, 57.88268925, 334.963777376121755 ], [ -5.3021503, 57.88265267, 334.514778788649608 ], [ -5.30211035, 57.88261212, 334.267160249656911 ], [ -5.30204377, 57.88258186, 333.750030079107205 ], [ -5.30201454, 57.8825386, 333.187036348289723 ], [ -5.3020229, 57.88249147, 332.106345691900174 ], [ -5.30197837, 57.88244357, 330.591567554693142 ], [ -5.30202081, 57.88239797, 329.044893098778005 ], [ -5.30208761, 57.8823681, 327.56823904604363 ], [ -5.30207202, 57.88232349, 326.907482253702653 ], [ -5.30214202, 57.88228316, 325.736200166649098 ], [ -5.30216779, 57.88222526, 324.951822114891286 ], [ -5.30217589, 57.88218054, 323.51574663184158 ], [ -5.30226284, 57.88218463, 323.233966933878435 ], [ -5.30234055, 57.88221003, 321.755425150954295 ], [ -5.30241104, 57.88224256, 320.352566961780212 ], [ -5.30250088, 57.88226033, 318.872893848638455 ], [ -5.30256684, 57.88222511, 317.144281221336598 ], [ -5.30265502, 57.88225213, 315.419442964500661 ], [ -5.30271236, 57.88218871, 314.377631702642361 ], [ -5.30279819, 57.88218853, 313.138405497633926 ], [ -5.30289247, 57.88220461, 312.309487040602676 ], [ -5.30298391, 57.88220634, 311.003260582734413 ], [ -5.30308029, 57.88220291, 309.5885114372266 ], [ -5.30317245, 57.88218472, 308.428741016607148 ], [ -5.30320457, 57.88213421, 307.148369486891738 ], [ -5.30319705, 57.88208572, 305.723050360217655 ], [ -5.30315157, 57.88204726, 303.768145531464882 ], [ -5.3031387, 57.88200249, 302.549114333780722 ], [ -5.30310159, 57.88195329, 300.911093137142871 ], [ -5.30308397, 57.88190649, 299.600902663858847 ], [ -5.30307609, 57.88185786, 298.419804815784062 ], [ -5.30309579, 57.8818077, 296.904272458431933 ], [ -5.30311769, 57.88175743, 296.00080391769535 ], [ -5.30310038, 57.88170877, 295.346463446155155 ], [ -5.30308274, 57.8816645, 293.942848857008926 ], [ -5.30309425, 57.88161993, 292.68890119029578 ], [ -5.30313512, 57.88157918, 291.499500381144003 ], [ -5.30316, 57.88153419, 289.662931821224902 ], [ -5.30320589, 57.88149516, 288.336321800996132 ], [ -5.30323727, 57.8814511, 287.156547107915742 ], [ -5.30326181, 57.88140295, 285.914300752586485 ], [ -5.3033427, 57.88137377, 284.197199791718788 ], [ -5.30342984, 57.881391, 282.300990619878633 ], [ -5.30350125, 57.88136663, 280.394212556785703 ], [ -5.30358699, 57.88136919, 278.654464283208711 ], [ -5.30367113, 57.8813559, 276.934720827049375 ], [ -5.30375097, 57.88137674, 274.730498284150428 ], [ -5.30374965, 57.8813198, 272.395860506004453 ], [ -5.30376548, 57.88127494, 270.461904904720996 ], [ -5.30380546, 57.881234, 268.619107489123905 ], [ -5.30387339, 57.88119066, 266.800090351323945 ], [ -5.30390247, 57.8811468, 265.406668088314746 ], [ -5.30399208, 57.88114137, 263.335125620924941 ], [ -5.30402694, 57.88109764, 261.143925364577285 ], [ -5.30406205, 57.88105339, 259.734649764688925 ], [ -5.30409492, 57.88101051, 257.929221668462617 ], [ -5.30413887, 57.88096751, 256.708302740588749 ], [ -5.3041878, 57.88092706, 255.147096467918544 ], [ -5.30427867, 57.88090005, 253.30335573218332 ], [ -5.30437317, 57.88088275, 251.283714945876142 ], [ -5.3044008, 57.88083927, 249.716468917520928 ], [ -5.30447719, 57.8808117, 247.710982837896211 ], [ -5.30454039, 57.88075862, 245.970101599231327 ], [ -5.30460341, 57.8807253, 244.038976503318935 ], [ -5.30470759, 57.880691, 241.854193657685585 ], [ -5.30476209, 57.88065533, 239.850783863286864 ], [ -5.30471319, 57.88061768, 237.758291623471024 ], [ -5.30471137, 57.88056299, 236.004199543218505 ], [ -5.30463593, 57.88053964, 233.900949312156854 ], [ -5.30465253, 57.88049177, 232.333891838837928 ], [ -5.3046999, 57.88045374, 229.50628127801204 ], [ -5.30474713, 57.88041611, 227.4294538200391 ], [ -5.30483155, 57.88037684, 225.549476185064208 ], [ -5.30490279, 57.88035186, 223.931649450793856 ], [ -5.30492831, 57.88029252, 221.66382364294995 ], [ -5.30495615, 57.88024613, 219.853111101097284 ], [ -5.30500163, 57.88020447, 217.888769256266102 ], [ -5.30509412, 57.88020325, 215.63906189804203 ], [ -5.30517917, 57.88019021, 213.744173973847694 ], [ -5.30525825, 57.88017189, 212.015371701596024 ], [ -5.30530607, 57.88013189, 210.318277193016229 ], [ -5.30536876, 57.88009777, 208.401118521228426 ], [ -5.30547711, 57.88011437, 206.608147046444657 ], [ -5.30556215, 57.88012297, 204.324090246692293 ], [ -5.30564247, 57.88015279, 203.005972832490272 ], [ -5.30572306, 57.88012789, 200.827229197585154 ], [ -5.30575564, 57.88008172, 198.708502739716835 ], [ -5.30574514, 57.88003489, 196.806065529633827 ], [ -5.30574799, 57.87998928, 194.973837277767899 ], [ -5.30576721, 57.8799428, 192.798113520705272 ], [ -5.30586906, 57.87990838, 191.048173465947997 ], [ -5.30587687, 57.87985769, 189.695706610217684 ], [ -5.30591085, 57.8798093, 188.237548934610828 ], [ -5.30593226, 57.8797638, 185.992371256911326 ], [ -5.30600939, 57.87973504, 183.933284866007313 ], [ -5.3060562, 57.87969559, 182.261480437906727 ], [ -5.30613326, 57.87967019, 180.124635802896961 ], [ -5.30613558, 57.87962237, 178.097256903186434 ], [ -5.30616642, 57.87957277, 176.400539504679188 ], [ -5.30616336, 57.87951923, 175.241336384038817 ], [ -5.30617929, 57.87946676, 174.22670320532788 ], [ -5.30617463, 57.87941863, 172.439393558721434 ], [ -5.30613516, 57.87937682, 171.005016160911737 ], [ -5.30609938, 57.87932381, 169.928856002481922 ], [ -5.30610373, 57.87927893, 168.552986251505359 ], [ -5.30611293, 57.8792304, 166.818899806105662 ], [ -5.30615134, 57.87918511, 165.224475967081531 ], [ -5.30619988, 57.87914482, 164.181155175019569 ], [ -5.30625424, 57.87910752, 163.069512609973543 ], [ -5.30622057, 57.87906582, 160.874537983159911 ], [ -5.30616042, 57.87902962, 159.789318191202625 ], [ -5.30608844, 57.87900067, 159.018151525989168 ], [ -5.30603196, 57.8789598, 157.660777607183348 ], [ -5.30595005, 57.87893277, 155.86931566260327 ], [ -5.3059249, 57.87888691, 154.152215246692293 ], [ -5.30588575, 57.87884478, 153.060956244006746 ], [ -5.30583744, 57.87880355, 151.3642388454995 ], [ -5.30577857, 57.87876964, 149.290053882818114 ], [ -5.30585624, 57.87873912, 146.807448902349364 ], [ -5.30594153, 57.87873565, 144.914825545938925 ], [ -5.30598537, 57.87869081, 142.746651347243329 ], [ -5.30606195, 57.87866063, 140.186288122668827 ], [ -5.30613528, 57.87863071, 138.157399420276249 ], [ -5.30614727, 57.87857862, 137.146918267060585 ], [ -5.30613069, 57.87853217, 135.344509776198407 ], [ -5.30612261, 57.8784815, 133.032142745645956 ], [ -5.30610575, 57.87843056, 131.506040952084305 ], [ -5.30612198, 57.87838638, 130.396286117227987 ], [ -5.30607077, 57.87834452, 129.034760172926923 ], [ -5.30599396, 57.87831578, 128.043530161940595 ], [ -5.30589642, 57.87832309, 127.096841646141215 ], [ -5.30583493, 57.87835853, 126.805436377063373 ], [ -5.30575558, 57.87832085, 126.823554554204833 ], [ -5.30567014, 57.87831096, 126.607265578897909 ], [ -5.30558059, 57.87831008, 126.540453881074242 ], [ -5.30547896, 57.87830601, 127.217253110287416 ], [ -5.30538963, 57.87829338, 127.191207992227987 ], [ -5.30529182, 57.87827233, 127.080232454246683 ], [ -5.30521606, 57.87824903, 127.05871701671181 ], [ -5.30511084, 57.87820669, 127.584151783208739 ], [ -5.30506294, 57.87816401, 127.453170337896239 ], [ -5.30501572, 57.87811791, 127.128170664870282 ], [ -5.30495754, 57.87808092, 127.136852370890097 ], [ -5.30487667, 57.87805527, 126.972276521629496 ], [ -5.30478318, 57.87802942, 127.324830842918558 ], [ -5.30469596, 57.87799683, 127.08060901936247 ], [ -5.30461403, 57.87798207, 126.42192796729077 ], [ -5.30451873, 57.87796347, 126.524977109310854 ], [ -5.30442547, 57.87794297, 126.295853857532123 ], [ -5.30433578, 57.87792579, 125.75796246959267 ], [ -5.30423979, 57.87790886, 125.442399267688373 ], [ -5.30414756, 57.87790064, 125.811185670799418 ], [ -5.30405677, 57.87788671, 125.460517989786581 ], [ -5.30396885, 57.87787886, 125.855727165986352 ], [ -5.30387855, 57.87786031, 126.085982837896239 ], [ -5.30379169, 57.87784586, 126.432497948457055 ], [ -5.30369829, 57.87783072, 126.540076226044945 ], [ -5.3036068, 57.87781191, 126.807700672368895 ], [ -5.3035111, 57.87779406, 127.112694983020404 ], [ -5.30342181, 57.87777361, 127.744576151930829 ], [ -5.30335143, 57.87774859, 128.506305801065878 ], [ -5.30326808, 57.87772339, 128.525178743309169 ], [ -5.30318847, 57.87770389, 129.023436516572303 ], [ -5.30309432, 57.87769716, 129.337489643316161 ], [ -5.30299919, 57.87767462, 130.23020073776371 ], [ -5.30290892, 57.87765599, 130.118469889723798 ], [ -5.30283135, 57.87763473, 131.033074621692265 ], [ -5.30273583, 57.8776158, 131.293526892200077 ], [ -5.30265288, 57.87760107, 131.919368305425536 ], [ -5.30257305, 57.87758571, 131.685338263049687 ], [ -5.30248146, 57.87756602, 131.863503153883954 ], [ -5.30238937, 57.87755319, 132.394222910964032 ], [ -5.30226313, 57.87752471, 132.517654525431112 ], [ -5.30216431, 57.87751574, 132.807927374377812 ], [ -5.30206182, 57.87750737, 133.292596106067265 ], [ -5.30196952, 57.87749942, 133.727816551972694 ], [ -5.30188233, 57.87749289, 133.866346738217118 ], [ -5.30179013, 57.87749034, 134.465388268281288 ], [ -5.30168094, 57.87749032, 134.448402511270956 ], [ -5.30158696, 57.87748635, 134.685829814040204 ], [ -5.30149569, 57.87748662, 134.923634226882001 ], [ -5.30140571, 57.87749198, 134.429529024070888 ], [ -5.3013055, 57.87748109, 134.348373519571737 ], [ -5.30121294, 57.87744639, 134.568437410301357 ], [ -5.30112363, 57.877423, 135.0829256305162 ], [ -5.30103149, 57.87740064, 135.141432732392616 ], [ -5.30095411, 57.87737693, 134.542391747285194 ], [ -5.30086829, 57.8773586, 134.78170623528743 ], [ -5.30077396, 57.87733482, 134.375173402732997 ], [ -5.30069873, 57.87731405, 134.167566133445888 ], [ -5.30061498, 57.87730041, 134.00789761973914 ], [ -5.3005216, 57.87728463, 133.807084871238857 ], [ -5.30043396, 57.87726725, 133.423577551379765 ], [ -5.30034413, 57.87725908, 132.941551314981893 ], [ -5.30025889, 57.8772488, 132.999681306785732 ], [ -5.30016848, 57.87724055, 133.395267593058065 ], [ -5.30007757, 57.8772354, 133.694222148024579 ], [ -5.29997906, 57.8772259, 134.424999343546347 ], [ -5.29987569, 57.87721904, 134.452176881736904 ], [ -5.29978747, 57.87721731, 134.334407367925536 ], [ -5.29969888, 57.87721328, 134.723576243483564 ], [ -5.29961495, 57.87720547, 133.559088132260086 ], [ -5.29952741, 57.87719316, 133.753484015002812 ], [ -5.29943424, 57.87718359, 134.190213991111904 ], [ -5.29934223, 57.87717487, 134.463122883062255 ], [ -5.29925583, 57.8771652, 134.696397615379482 ], [ -5.2991622, 57.87715043, 134.744335826003095 ], [ -5.29907864, 57.87713204, 135.30978240716243 ], [ -5.29898721, 57.87711546, 135.266373877063359 ], [ -5.29890313, 57.87711002, 134.598633463942548 ], [ -5.29880664, 57.87709106, 134.393290489960975 ], [ -5.29872549, 57.8770746, 133.512281251854091 ], [ -5.29863075, 57.87706121, 133.328077150291591 ], [ -5.29855077, 57.87704529, 132.855865040044677 ], [ -5.29845898, 57.87702847, 133.141608208466835 ], [ -5.29836747, 57.87700576, 133.28580104032369 ], [ -5.29827628, 57.87698489, 133.104616544125321 ], [ -5.2981867, 57.87696572, 132.636179349301102 ], [ -5.29809534, 57.87694507, 132.58031419775952 ], [ -5.2979994, 57.87694236, 132.025436507852987 ], [ -5.2978997, 57.87694436, 132.624478037917157 ], [ -5.29779467, 57.87694143, 132.698839021629482 ], [ -5.29770083, 57.87693781, 132.975899939075077 ], [ -5.29760642, 57.87693105, 132.83963404813619 ], [ -5.29750807, 57.87693231, 132.75508182820036 ], [ -5.2974011, 57.87692233, 133.331474955641767 ], [ -5.29730757, 57.876906, 133.627032250214882 ], [ -5.29720617, 57.87689131, 133.413007570213466 ], [ -5.29711728, 57.87687051, 133.111788719941444 ], [ -5.29702982, 57.87684946, 133.216724502237753 ], [ -5.29693611, 57.8768229, 133.321283174461513 ], [ -5.29684766, 57.87680503, 132.90191661039205 ], [ -5.29675347, 57.87679041, 132.674303433773758 ], [ -5.2966544, 57.87676711, 133.232200729044393 ], [ -5.2965514, 57.87675131, 132.20926295438619 ], [ -5.29647049, 57.87672799, 131.631360296741093 ], [ -5.29638453, 57.87670826, 131.167829892513993 ], [ -5.29629074, 57.87667953, 131.234264480265097 ], [ -5.29619421, 57.87665777, 131.429415128109696 ], [ -5.29610098, 57.87663748, 130.975321195004227 ], [ -5.29601818, 57.87662415, 129.977673773303593 ], [ -5.295923, 57.87661149, 130.446489168113857 ], [ -5.29583364, 57.87659193, 130.491030118344071 ], [ -5.29573612, 57.8765739, 130.754125429100185 ], [ -5.29564892, 57.87655605, 130.19622813382955 ], [ -5.29555207, 57.87654777, 130.541988479288534 ], [ -5.29546353, 57.87653602, 130.685803656116093 ], [ -5.29537636, 57.87652249, 130.452528923798866 ], [ -5.29528838, 57.87650701, 131.821227043916053 ], [ -5.29520095, 57.87649418, 132.302120860182782 ], [ -5.29510573, 57.87647444, 131.712894001226317 ], [ -5.29496649, 57.87644779, 132.071110968127812 ], [ -5.29488003, 57.87643892, 132.070355658069218 ], [ -5.29479146, 57.87641846, 132.539925817981327 ], [ -5.2947012, 57.87639604, 133.219368087442831 ], [ -5.29461753, 57.87637577, 133.233334239089032 ], [ -5.29451382, 57.87636091, 133.691202542660477 ], [ -5.29442989, 57.87634066, 133.716870005690595 ], [ -5.29434786, 57.87631811, 134.411033191900145 ], [ -5.29422434, 57.87629565, 134.568437410301357 ], [ -5.29413706, 57.87628109, 134.181155719976317 ], [ -5.29405547, 57.87626736, 134.36498216650952 ], [ -5.29396956, 57.87624569, 133.704036274175536 ], [ -5.29388635, 57.87623069, 133.259756467221024 ], [ -5.29378742, 57.87621044, 134.010162460001425 ], [ -5.29369993, 57.87619831, 134.239285166823407 ], [ -5.29359688, 57.87617916, 134.020354241181678 ], [ -5.29349646, 57.87616167, 134.066027611543007 ], [ -5.293398, 57.87614772, 134.195498981695067 ], [ -5.29330628, 57.87613019, 133.89880926699081 ], [ -5.29321546, 57.87611766, 133.661759619250859 ], [ -5.29312531, 57.87610527, 133.383566281674149 ], [ -5.29302484, 57.87609031, 133.5957032314858 ], [ -5.29292718, 57.87607003, 133.632694895827314 ], [ -5.2928376, 57.87605143, 133.775377652523758 ], [ -5.29273767, 57.87603479, 133.876539064354091 ], [ -5.29263478, 57.87601687, 133.973170795659911 ], [ -5.29254599, 57.87600154, 133.768206021664383 ], [ -5.29244463, 57.87598387, 133.685162786975468 ], [ -5.29234446, 57.87596617, 133.950900048066444 ], [ -5.29225966, 57.87594681, 133.339402441516484 ], [ -5.2921547, 57.8759282, 132.866057911138427 ], [ -5.29205422, 57.87591349, 133.00911832286414 ], [ -5.29196266, 57.87589918, 133.264663802774862 ], [ -5.29187704, 57.8758877, 133.516434912219609 ], [ -5.29178167, 57.87586994, 133.894657241495565 ], [ -5.29167624, 57.87585362, 133.041580306681112 ], [ -5.29157699, 57.87583468, 133.152178189633133 ], [ -5.29149453, 57.87582414, 132.711673298101317 ], [ -5.2913862, 57.87581248, 132.665999927739989 ], [ -5.29129255, 57.87579584, 132.126598464640097 ], [ -5.29119822, 57.87578055, 132.009583715930546 ], [ -5.29110239, 57.87576426, 131.540014100975185 ], [ -5.29100832, 57.87575157, 130.5465192497266 ], [ -5.29090504, 57.87573611, 130.75412651901371 ], [ -5.29080966, 57.87572213, 130.903603796496952 ], [ -5.29070805, 57.87570863, 130.053923577119178 ], [ -5.29060192, 57.8756918, 130.12375542526371 ], [ -5.29051394, 57.87567465, 129.625120541928055 ], [ -5.29041826, 57.87565872, 128.990219767653485 ], [ -5.29032533, 57.87565189, 129.638331383515663 ], [ -5.29022445, 57.8756363, 129.39977220557202 ], [ -5.29010374, 57.87560332, 130.298900710733847 ], [ -5.29000057, 57.87558816, 130.347216576386757 ], [ -5.28991404, 57.87557508, 129.577182331304442 ], [ -5.28982169, 57.87555951, 129.00192107903743 ], [ -5.28971747, 57.87554402, 129.623232811738319 ], [ -5.28961442, 57.87552649, 130.3377790153516 ], [ -5.28951764, 57.8755121, 130.437808007050819 ], [ -5.2894223, 57.87549211, 130.291727989960975 ], [ -5.2893215, 57.87547549, 130.953429192353553 ], [ -5.28923098, 57.87545847, 130.570676637596279 ], [ -5.28913269, 57.87544296, 129.91501519088871 ], [ -5.28903323, 57.87542385, 130.426106695666874 ], [ -5.28893107, 57.87539951, 130.478575131771805 ], [ -5.28883552, 57.87537563, 129.790451156290487 ], [ -5.28874297, 57.875355, 128.66672962483122 ], [ -5.28866504, 57.87533634, 128.102415463803055 ], [ -5.28855944, 57.87531515, 128.191120254190878 ], [ -5.28845622, 57.87530114, 129.617948366111904 ], [ -5.28835124, 57.87528382, 128.786009758759803 ], [ -5.28824868, 57.87526623, 128.472334287045243 ], [ -5.28814784, 57.87524948, 128.478751152802772 ], [ -5.28804384, 57.87523891, 128.518762967465165 ], [ -5.28794201, 57.8752246, 127.196115872738588 ], [ -5.28784569, 57.8752145, 127.23235277197827 ], [ -5.28775947, 57.87519525, 127.997857336536029 ], [ -5.28766951, 57.8751729, 127.79402498267163 ], [ -5.28757237, 57.8751574, 127.017573871831786 ], [ -5.28747326, 57.87514381, 126.966616055844057 ], [ -5.2873836, 57.8751266, 127.15421741779997 ], [ -5.28729105, 57.87510753, 124.744840455955668 ], [ -5.28719873, 57.87509421, 125.53072858287392 ], [ -5.28710915, 57.87507925, 125.688887566376977 ], [ -5.28701466, 57.87505965, 125.733806171636473 ], [ -5.28692021, 57.87504341, 125.97538549990098 ], [ -5.28682162, 57.8750296, 125.375211549705668 ], [ -5.28673732, 57.87500353, 125.7938233486733 ], [ -5.28663604, 57.87498383, 126.36568679559015 ], [ -5.28654269, 57.87496402, 126.36568679559015 ], [ -5.286449, 57.87493622, 125.528840852684183 ], [ -5.28636754, 57.8749196, 124.91470075084267 ], [ -5.28628232, 57.87490274, 124.35302854014931 ], [ -5.28618298, 57.87488507, 125.983311350905439 ], [ -5.28609563, 57.87487221, 125.987841031429994 ], [ -5.28600151, 57.87485917, 128.037113841139814 ], [ -5.28590359, 57.87484609, 127.811010739681947 ], [ -5.28580432, 57.87482349, 126.923961745890097 ], [ -5.28572273, 57.87481145, 126.994925469209008 ], [ -5.28562319, 57.87479198, 125.551866365379496 ], [ -5.2855269, 57.87478222, 126.175065828270121 ], [ -5.28543688, 57.874775, 125.279712238531005 ], [ -5.28533532, 57.87476002, 125.45410275889931 ], [ -5.28523714, 57.8747473, 124.935462513189208 ], [ -5.28508912, 57.87472628, 124.832413916125873 ], [ -5.28500313, 57.87470932, 125.00604912643557 ], [ -5.28491943, 57.87469656, 124.845625302670229 ], [ -5.28483297, 57.87468194, 123.672455485426923 ], [ -5.28474928, 57.87467102, 123.018681223952314 ], [ -5.28466618, 57.87465663, 122.73784484612726 ], [ -5.2845767, 57.87464751, 121.80398951688619 ], [ -5.28447791, 57.87463546, 121.886277441516498 ], [ -5.28437547, 57.87462663, 121.384622952816713 ], [ -5.2842861, 57.87461943, 121.699053189633119 ], [ -5.28419151, 57.8746083, 121.267984769222963 ], [ -5.28409728, 57.87459862, 121.15549915608122 ], [ -5.28400303, 57.87458841, 120.759158104707055 ], [ -5.28390124, 57.87457603, 120.133693801554159 ], [ -5.2837953, 57.8745692, 119.046209169334574 ], [ -5.28369026, 57.87456204, 119.180587330083739 ], [ -5.28358987, 57.87454832, 119.703380146245848 ], [ -5.28350006, 57.87453804, 118.570222143664935 ], [ -5.28341079, 57.87453046, 119.290053337861352 ], [ -5.28331995, 57.87452309, 118.838224789974916 ], [ -5.28322101, 57.87451068, 119.666011371831786 ], [ -5.28312418, 57.8744927, 118.125565771594623 ], [ -5.28303133, 57.87446972, 118.31505431878351 ], [ -5.28294908, 57.8744495, 118.697429218511473 ], [ -5.28284999, 57.87442972, 117.96212234246515 ], [ -5.28274724, 57.87441222, 118.385641476986635 ], [ -5.2826457, 57.87439243, 117.33175124871515 ], [ -5.28254974, 57.87437677, 118.036483326177489 ], [ -5.28245544, 57.87436041, 117.894932989612201 ], [ -5.28236152, 57.87434459, 117.743568526895956 ], [ -5.28225479, 57.87432843, 116.876902550507836 ], [ -5.28215728, 57.87431091, 116.992030113984399 ], [ -5.28205138, 57.87429224, 115.522170582036864 ], [ -5.28195553, 57.87427774, 115.953616112519555 ], [ -5.28185329, 57.8742655, 114.399581470708739 ], [ -5.2817592, 57.87424899, 115.290782489995848 ], [ -5.28167136, 57.874235, 114.556608034080668 ], [ -5.28158194, 57.87421991, 113.96322914962893 ], [ -5.28149063, 57.87420667, 113.636342291370013 ], [ -5.28139596, 57.8741975, 111.43683798403184 ], [ -5.28129373, 57.8741777, 111.885647471510907 ], [ -5.28120694, 57.87415416, 110.094941381946185 ], [ -5.28111676, 57.87412813, 109.55704944904997 ], [ -5.28103394, 57.87411038, 108.280831579700092 ], [ -5.28094638, 57.87408855, 107.830134906988036 ], [ -5.28086261, 57.87406712, 106.971773526547182 ], [ -5.28078059, 57.87405044, 106.3546143642983 ], [ -5.2806958, 57.87402954, 104.964778461675536 ], [ -5.28060211, 57.87400854, 106.268929724231342 ], [ -5.28051851, 57.87398936, 105.403396167974364 ], [ -5.28043015, 57.87396222, 104.502381022536298 ], [ -5.28033045, 57.87395286, 103.367335289765649 ], [ -5.28022783, 57.87394722, 103.171806986891767 ], [ -5.2801233, 57.87394407, 104.243060082246117 ], [ -5.28000839, 57.8739382, 104.09622475509768 ], [ -5.27991805, 57.87393457, 104.547298537882284 ], [ -5.27982295, 57.87393128, 104.501625712477704 ], [ -5.27972143, 57.87393998, 103.966375729916322 ], [ -5.27961843, 57.87392674, 103.741028483473798 ], [ -5.27952104, 57.87391885, 104.183798215267885 ], [ -5.27941794, 57.87391355, 105.252786470359965 ], [ -5.27930605, 57.8739125, 105.898633790916605 ], [ -5.27920942, 57.87391141, 104.679790058355223 ], [ -5.27911101, 57.87390459, 103.870122198596576 ], [ -5.27900544, 57.87389755, 103.367335289765649 ], [ -5.27890514, 57.87389186, 103.260134667207055 ], [ -5.27879822, 57.87388131, 103.507753206199808 ], [ -5.27871192, 57.87387357, 103.434146987589315 ], [ -5.27860855, 57.87386761, 101.94201779796181 ], [ -5.27850408, 57.87386307, 101.888416941725751 ], [ -5.27839898, 57.87386186, 103.033653365763143 ], [ -5.27831197, 57.87385438, 103.326568710001425 ], [ -5.2782092, 57.8738521, 102.55540149983122 ], [ -5.2781246, 57.87384506, 102.175669095394838 ], [ -5.27801958, 57.87384466, 102.168119809506166 ], [ -5.27791353, 57.8738465, 101.565303364019286 ], [ -5.27782892, 57.87384418, 100.861704251644838 ], [ -5.2777299, 57.87383767, 102.129618070004213 ], [ -5.27763774, 57.8738334, 102.762254004016498 ], [ -5.27753948, 57.87382582, 103.142363518525414 ], [ -5.27745414, 57.87381994, 102.482172391293275 ], [ -5.27736053, 57.87381745, 100.780548202188925 ], [ -5.277266, 57.87381334, 100.62956030458848 ], [ -5.27715083, 57.87381101, 100.157725849370848 ], [ -5.27705812, 57.87380279, 99.802906142862753 ], [ -5.27695267, 57.87379711, 99.50130963756142 ], [ -5.27686446, 57.87378656, 100.166030445318114 ], [ -5.27676602, 57.87378849, 99.600206209129496 ], [ -5.27665636, 57.87377865, 99.198580167172182 ], [ -5.27655192, 57.87376848, 98.810543711745282 ], [ -5.27644883, 57.87376169, 98.577268434471293 ], [ -5.27634637, 57.87375445, 97.395417456164935 ], [ -5.27626295, 57.87374717, 97.697768726568114 ], [ -5.2761549, 57.87374, 98.17639824752932 ], [ -5.27605126, 57.873732, 98.61388353369702 ], [ -5.27594744, 57.87372702, 99.65418417543809 ], [ -5.27585985, 57.87371912, 100.302296881213763 ], [ -5.2757752, 57.87371406, 99.780258830153485 ], [ -5.27566609, 57.87370918, 99.000411003876977 ], [ -5.27558259, 57.87369871, 99.444313155802206 ], [ -5.27547738, 57.87368761, 100.058830367716268 ], [ -5.2753701, 57.87367476, 100.522737882015932 ], [ -5.27528432, 57.87366779, 99.646635979462914 ], [ -5.27518152, 57.87365554, 99.419399912917157 ], [ -5.27508571, 57.8736467, 99.86896416549807 ], [ -5.27498539, 57.873639, 100.535949268560302 ], [ -5.27488017, 57.87363114, 100.198870084164369 ], [ -5.27477289, 57.87362688, 99.404677906255614 ], [ -5.27467103, 57.87362073, 99.112518417032675 ], [ -5.27456398, 57.87361462, 98.960399189214598 ], [ -5.27445292, 57.87361122, 99.298232048798852 ], [ -5.27434983, 57.87359993, 100.209438975417157 ], [ -5.27424311, 57.87359191, 100.714113614437807 ], [ -5.27415701, 57.87358696, 100.350234001923852 ], [ -5.27405757, 57.87358851, 99.699857545799418 ], [ -5.27394404, 57.87358779, 100.622388673729105 ], [ -5.27384394, 57.87359049, 101.052323584094623 ], [ -5.27374327, 57.87359065, 102.014866526686689 ], [ -5.27363656, 57.87359596, 102.414982493483564 ], [ -5.27353276, 57.87360268, 101.34825853369702 ], [ -5.27343346, 57.87360659, 100.695994347382836 ], [ -5.27334413, 57.87360741, 101.282579256004496 ], [ -5.27325618, 57.87361285, 100.446865188272909 ], [ -5.27315387, 57.87362346, 100.749971223777933 ], [ -5.27305642, 57.87362919, 99.817626514654052 ], [ -5.27295939, 57.87363264, 100.158857724545229 ], [ -5.272852, 57.87363612, 100.122243170276263 ], [ -5.27275057, 57.87363974, 99.606622529930277 ], [ -5.27264554, 57.87364228, 100.009380447061972 ], [ -5.27254857, 57.87365108, 98.399858308738871 ], [ -5.27245818, 57.87365759, 99.187633620890097 ], [ -5.27236207, 57.87366211, 98.450061904581503 ], [ -5.27227311, 57.87367829, 98.374945065853822 ], [ -5.2721833, 57.87369322, 99.419021167974364 ], [ -5.27208356, 57.87370586, 100.121488950131166 ], [ -5.27198037, 57.87371563, 99.83574632666577 ], [ -5.2718742, 57.87372373, 100.771488296183065 ], [ -5.27176809, 57.87372532, 100.565391102056395 ], [ -5.27166216, 57.87373005, 101.979384937505614 ], [ -5.27157382, 57.87373161, 101.279937305669677 ], [ -5.27147894, 57.87373027, 101.077991592081503 ], [ -5.27139229, 57.87373155, 101.607579473987201 ], [ -5.27129408, 57.8737285, 101.674391171810854 ], [ -5.27118441, 57.87373017, 102.276829962268451 ], [ -5.27108022, 57.87374075, 102.337602449363871 ], [ -5.27098732, 57.87374508, 102.830952887073138 ], [ -5.27089443, 57.8737504, 103.247299845778485 ], [ -5.27079541, 57.87374359, 102.643351525117211 ], [ -5.27070884, 57.87374105, 102.407811407580951 ], [ -5.2706164, 57.87374872, 102.88493030842497 ], [ -5.27052272, 57.87374349, 102.245500943539369 ], [ -5.27041191, 57.8737474, 102.818874465616659 ], [ -5.27031736, 57.87374556, 102.59541385945036 ], [ -5.27022342, 57.8737373, 102.195675002726034 ], [ -5.27013262, 57.8737391, 102.652410886166322 ], [ -5.27002547, 57.87373062, 103.377525981032392 ], [ -5.2699343, 57.87371983, 102.528601071713197 ], [ -5.26983845, 57.87372448, 103.191811804309467 ], [ -5.26974834, 57.87372452, 102.400262121692279 ], [ -5.26965533, 57.87371858, 102.439141516223529 ], [ -5.26956299, 57.87371954, 102.202468978556112 ], [ -5.26946195, 57.87372464, 102.148868122320067 ], [ -5.26937044, 57.87372058, 102.597299954769838 ], [ -5.26926023, 57.8737123, 101.315419439807513 ], [ -5.2691638, 57.87370923, 101.491696600452045 ], [ -5.26906078, 57.87370864, 101.275785280174418 ], [ -5.26897035, 57.87370231, 101.510192432622802 ], [ -5.26887484, 57.87368914, 102.447067912184735 ], [ -5.26876969, 57.87368947, 101.895588027628378 ], [ -5.26867731, 57.87368903, 101.175002613286864 ], [ -5.26857143, 57.87367324, 101.416204831478822 ], [ -5.26848747, 57.87366818, 99.933511023059467 ], [ -5.26840267, 57.873666, 99.296345408522626 ], [ -5.26830343, 57.87365399, 99.302007509178324 ], [ -5.26821656, 57.87365796, 98.755434415219057 ], [ -5.26812586, 57.87365991, 98.228112463489154 ], [ -5.26801834, 57.87365591, 97.662288227300536 ], [ -5.26791332, 57.87365209, 98.983425246866659 ], [ -5.26782855, 57.87365343, 98.293791196224916 ], [ -5.26772553, 57.8736491, 98.046172657232177 ], [ -5.26761701, 57.87364214, 96.973786596789935 ], [ -5.26751229, 57.87363947, 96.453636275919393 ], [ -5.26740826, 57.87363457, 95.872713467953432 ], [ -5.26730247, 57.87362898, 95.884414779337362 ], [ -5.26719838, 57.87362338, 96.492892780523192 ], [ -5.26711099, 57.87362272, 97.198002513014814 ], [ -5.26701836, 57.8736206, 96.809587857601869 ], [ -5.26691714, 57.87361619, 96.541585756248637 ], [ -5.26682894, 57.87360471, 96.942457033104105 ], [ -5.26674347, 57.87359772, 96.88206165608122 ], [ -5.26666115, 57.87358446, 96.286417386410463 ], [ -5.266558, 57.87358651, 95.982178385817548 ], [ -5.2664515, 57.8735864, 96.582729446085409 ], [ -5.26634238, 57.87358562, 95.587724519676371 ], [ -5.2662355, 57.87358022, 96.121086772048017 ], [ -5.26613464, 57.87357687, 96.351341899001142 ], [ -5.26603914, 57.8735677, 95.777590721894555 ], [ -5.26595378, 57.87355196, 95.440889192527933 ], [ -5.26585725, 57.87353491, 95.21705038637559 ], [ -5.26576235, 57.87352698, 95.305755176763427 ], [ -5.26567209, 57.87352055, 95.937636890630614 ], [ -5.26555989, 57.87351665, 96.035401042067548 ], [ -5.2654489, 57.87351054, 96.011620219313642 ], [ -5.26536507, 57.87350377, 96.563478303856058 ], [ -5.26525795, 57.87349471, 96.98737509340684 ], [ -5.26514407, 57.87349818, 96.313594924601034 ], [ -5.26503639, 57.87349359, 96.104855780139545 ], [ -5.26494806, 57.87348727, 96.658223394885638 ], [ -5.26483681, 57.87348827, 96.142602754539652 ], [ -5.26473883, 57.87348564, 94.946407424601034 ], [ -5.26464286, 57.87349542, 95.568851577433065 ], [ -5.26454533, 57.87348946, 95.186854332734399 ], [ -5.26445054, 57.87348495, 94.586680382539086 ], [ -5.26436121, 57.87347865, 94.734271019746117 ], [ -5.26425365, 57.87347587, 94.031047927530722 ], [ -5.26416918, 57.87346977, 93.848353356171899 ], [ -5.26407707, 57.87346241, 93.398789103590985 ], [ -5.26397679, 57.87345362, 92.558546445248354 ], [ -5.26388175, 57.87344686, 92.677071269118329 ], [ -5.26377468, 57.87344371, 92.805787874168558 ], [ -5.26367445, 57.87343797, 92.492490057483295 ], [ -5.26357083, 57.87343224, 92.581950157929711 ], [ -5.26347083, 57.87342572, 92.449836292486083 ], [ -5.26336744, 57.87341798, 93.322542024559183 ], [ -5.26326462, 57.8734152, 93.724167521559735 ], [ -5.26315939, 57.87341034, 94.053319220080951 ], [ -5.26305819, 57.87340619, 93.307066342709291 ], [ -5.26295799, 57.87340948, 92.764644729288534 ], [ -5.26286796, 57.87340695, 93.180237467848798 ], [ -5.26278194, 57.87339691, 93.010753738077597 ], [ -5.26268377, 57.87339538, 92.957908191900145 ], [ -5.26259108, 57.8733909, 93.624138529860517 ], [ -5.26250581, 57.87338848, 93.133808242472128 ], [ -5.26240319, 57.87339442, 92.541184123122235 ], [ -5.26230731, 57.87340157, 93.017170058878378 ], [ -5.2622175, 57.87341151, 92.643853975242777 ], [ -5.26213347, 57.87341713, 92.103697202084291 ], [ -5.26204077, 57.87341722, 91.40764574072827 ], [ -5.26211793, 57.87343838, 90.439063587407958 ], [ -5.26217804, 57.87339717, 90.540224999238305 ], [ -5.26221513, 57.87334675, 90.962988278744447 ], [ -5.2622279, 57.87329389, 89.978552243588197 ], [ -5.26222584, 57.87324167, 90.231077573178041 ], [ -5.26222025, 57.87318475, 89.454626462338197 ], [ -5.26222408, 57.87313303, 88.69931422391744 ], [ -5.26226849, 57.87308425, 88.581166510120013 ], [ -5.26232536, 57.87303893, 87.863600156185854 ], [ -5.2623793, 57.87299121, 89.822657555390649 ], [ -5.2624112, 57.87294854, 89.318099620954484 ], [ -5.26244611, 57.87290599, 89.184800209082994 ], [ -5.26248306, 57.87285158, 89.546591877599198 ], [ -5.26250506, 57.87279392, 89.85179900872491 ], [ -5.26254705, 57.87274664, 90.579481503842104 ], [ -5.26268464, 57.87271903, 90.100569150326479 ], [ -5.26262389, 57.87275877, 90.234475923484965 ] ] ] } }
]
}
